[
  {
    "_id": "62d79becb11d1940681be25b",
    "postalCode": 5363357981,
    "address": "314 Dupont Street, Richford, Missouri, 4903",
    "city": "Hachita",
    "state": "Nebraska"
  },
  {
    "_id": "62d79bec8918522f06c0cb97",
    "postalCode": 7262159268,
    "address": "476 Thornton Street, Stollings, Hawaii, 7085",
    "city": "Bakersville",
    "state": "Indiana"
  },
  {
    "_id": "62d79bec1c4fc3212a65cd47",
    "postalCode": 2097190359,
    "address": "814 Troutman Street, Navarre, District Of Columbia, 5039",
    "city": "Lopezo",
    "state": "Iowa"
  },
  {
    "_id": "62d79becdc08df593aa4b308",
    "postalCode": 8153938990,
    "address": "926 Moore Street, Bendon, Michigan, 3311",
    "city": "Hemlock",
    "state": "Maryland"
  },
  {
    "_id": "62d79bec50ecb06c4bdc6200",
    "postalCode": 6905367813,
    "address": "156 Otsego Street, Barronett, Puerto Rico, 6525",
    "city": "Edmund",
    "state": "Utah"
  },
  {
    "_id": "62d79bec133da47b6c3f30c9",
    "postalCode": 4561955361,
    "address": "142 Bridge Street, Kingstowne, Louisiana, 8161",
    "city": "Veyo",
    "state": "Montana"
  },
  {
    "_id": "62d79bec06183545c4c90994",
    "postalCode": 3395040932,
    "address": "670 Ditmas Avenue, Salix, Delaware, 5458",
    "city": "Basye",
    "state": "New York"
  },
  {
    "_id": "62d79becfa91eefba7f26baf",
    "postalCode": 3192912651,
    "address": "733 Dictum Court, Chicopee, California, 4281",
    "city": "Lavalette",
    "state": "Minnesota"
  },
  {
    "_id": "62d79bec8b1ad11cb335b682",
    "postalCode": 3232777500,
    "address": "208 Vermont Court, Snyderville, Vermont, 901",
    "city": "Neahkahnie",
    "state": "North Carolina"
  },
  {
    "_id": "62d79beca82a0012f950c067",
    "postalCode": 8342272217,
    "address": "174 Greenwood Avenue, Nadine, Northern Mariana Islands, 9311",
    "city": "Denio",
    "state": "Oregon"
  },
  {
    "_id": "62d79becae4b5b5e0e2f3c4e",
    "postalCode": 3673460138,
    "address": "761 Poplar Avenue, Bladensburg, Rhode Island, 892",
    "city": "Guthrie",
    "state": "Guam"
  },
  {
    "_id": "62d79bec4729fc0009434478",
    "postalCode": 8741767825,
    "address": "266 Church Lane, Catherine, Federated States Of Micronesia, 1008",
    "city": "Chautauqua",
    "state": "Ohio"
  },
  {
    "_id": "62d79bec796f78d506136493",
    "postalCode": 6845701068,
    "address": "829 Devon Avenue, Kenmar, Oklahoma, 9060",
    "city": "Dunlo",
    "state": "Georgia"
  },
  {
    "_id": "62d79bec7acb09d1a9f93944",
    "postalCode": 6570435985,
    "address": "727 Hope Street, Chemung, Kansas, 2688",
    "city": "Hondah",
    "state": "Alabama"
  },
  {
    "_id": "62d79bec0ba547f506ef9b85",
    "postalCode": 5870038513,
    "address": "852 Madison Place, Lupton, Idaho, 3968",
    "city": "Northchase",
    "state": "Florida"
  },
  {
    "_id": "62d79bec5f2053724abd649a",
    "postalCode": 8492992091,
    "address": "485 Plaza Street, Goldfield, Wisconsin, 4631",
    "city": "Kylertown",
    "state": "Illinois"
  },
  {
    "_id": "62d79bec6889722d5817b297",
    "postalCode": 7650711644,
    "address": "143 Lake Avenue, Nelson, Nevada, 9328",
    "city": "Gulf",
    "state": "Kentucky"
  },
  {
    "_id": "62d79becef10bd5095226a00",
    "postalCode": 1239061376,
    "address": "703 Havens Place, Churchill, Maine, 5665",
    "city": "Nash",
    "state": "Arizona"
  },
  {
    "_id": "62d79bec7376c21bd865019a",
    "postalCode": 6270652011,
    "address": "814 Hale Avenue, Websterville, American Samoa, 8255",
    "city": "Chloride",
    "state": "Tennessee"
  },
  {
    "_id": "62d79bec1425fe97e6131c6d",
    "postalCode": 5687852653,
    "address": "195 Dodworth Street, Yorklyn, South Carolina, 9418",
    "city": "Forbestown",
    "state": "South Dakota"
  },
  {
    "_id": "62d79bec73994b21d871fefa",
    "postalCode": 7868091378,
    "address": "528 Kansas Place, Camptown, Arkansas, 7816",
    "city": "Elwood",
    "state": "Connecticut"
  },
  {
    "_id": "62d79becaa5e4a7d58cedbf1",
    "postalCode": 2248362214,
    "address": "492 Union Street, Weedville, Wyoming, 3928",
    "city": "Motley",
    "state": "Texas"
  },
  {
    "_id": "62d79bec52a9a933a511072d",
    "postalCode": 7004752001,
    "address": "223 Schenck Place, Kirk, New Jersey, 7382",
    "city": "Broadlands",
    "state": "Alaska"
  },
  {
    "_id": "62d79bec738e4dfa19ee97b8",
    "postalCode": 7940466075,
    "address": "420 Boardwalk , Whitestone, North Dakota, 137",
    "city": "Warsaw",
    "state": "Colorado"
  },
  {
    "_id": "62d79becd087a0459672921c",
    "postalCode": 7110544266,
    "address": "577 Ira Court, Urbana, Marshall Islands, 2596",
    "city": "Boyd",
    "state": "Virgin Islands"
  },
  {
    "_id": "62d79bec2fd0ee38ec37006f",
    "postalCode": 4365182206,
    "address": "702 Judge Street, Stouchsburg, Washington, 3494",
    "city": "Disautel",
    "state": "Virginia"
  },
  {
    "_id": "62d79bec297352ff82cbe446",
    "postalCode": 2413164831,
    "address": "859 Beekman Place, Cloverdale, West Virginia, 7409",
    "city": "Frystown",
    "state": "Palau"
  },
  {
    "_id": "62d79bec3872d70ee398749d",
    "postalCode": 9325211480,
    "address": "602 Durland Place, Terlingua, New Hampshire, 2395",
    "city": "Carbonville",
    "state": "Massachusetts"
  },
  {
    "_id": "62d79bec720e732b851ebbc7",
    "postalCode": 4569683976,
    "address": "164 Pitkin Avenue, Loretto, New Mexico, 7643",
    "city": "Herlong",
    "state": "Pennsylvania"
  },
  {
    "_id": "62d79bec326c59bc74b65718",
    "postalCode": 9220474531,
    "address": "557 Autumn Avenue, Cade, Missouri, 2483",
    "city": "Odessa",
    "state": "Nebraska"
  },
  {
    "_id": "62d79bec33d40370c3a1ac87",
    "postalCode": 7167537844,
    "address": "373 Colonial Road, Brambleton, Hawaii, 1625",
    "city": "Bainbridge",
    "state": "Indiana"
  },
  {
    "_id": "62d79bec126dcccbde4dc1a5",
    "postalCode": 8903038309,
    "address": "266 Belvidere Street, Masthope, District Of Columbia, 1236",
    "city": "Canterwood",
    "state": "Iowa"
  },
  {
    "_id": "62d79bec6a2a67bb21e3a91f",
    "postalCode": 6884835847,
    "address": "843 Commercial Street, Wanamie, Michigan, 2517",
    "city": "Bowmansville",
    "state": "Maryland"
  },
  {
    "_id": "62d79becccb2de83135d0140",
    "postalCode": 7595560221,
    "address": "803 Homecrest Avenue, Ticonderoga, Puerto Rico, 3184",
    "city": "Fannett",
    "state": "Utah"
  },
  {
    "_id": "62d79becfd068b25b330fb26",
    "postalCode": 1769428592,
    "address": "940 Liberty Avenue, Dennard, Louisiana, 1693",
    "city": "Greensburg",
    "state": "Montana"
  },
  {
    "_id": "62d79becd3ccb6b6a260024d",
    "postalCode": 6861295946,
    "address": "416 Herkimer Place, Edneyville, Delaware, 7016",
    "city": "Windsor",
    "state": "New York"
  },
  {
    "_id": "62d79bec6c6b8e61dd54bcf7",
    "postalCode": 6160631301,
    "address": "623 High Street, Kerby, California, 5979",
    "city": "Shepardsville",
    "state": "Minnesota"
  },
  {
    "_id": "62d79bec3861c009b6c861db",
    "postalCode": 6282519169,
    "address": "512 Lorimer Street, Graball, Vermont, 6776",
    "city": "Franklin",
    "state": "North Carolina"
  },
  {
    "_id": "62d79bec4c96d09bcc5ddc47",
    "postalCode": 6644154289,
    "address": "738 Chestnut Street, Wescosville, Northern Mariana Islands, 8693",
    "city": "Juntura",
    "state": "Oregon"
  },
  {
    "_id": "62d79bec75117b78a2ac697c",
    "postalCode": 2812000432,
    "address": "719 Verona Street, Taycheedah, Rhode Island, 9193",
    "city": "Rowe",
    "state": "Guam"
  },
  {
    "_id": "62d79bec3f8a131e3f9bc508",
    "postalCode": 7121553585,
    "address": "357 Tompkins Place, Charco, Federated States Of Micronesia, 7737",
    "city": "Aurora",
    "state": "Ohio"
  },
  {
    "_id": "62d79bec533a971634e05edc",
    "postalCode": 2009222251,
    "address": "217 Hampton Avenue, Herbster, Oklahoma, 5243",
    "city": "Biddle",
    "state": "Georgia"
  },
  {
    "_id": "62d79bec729781685c49455c",
    "postalCode": 3285416112,
    "address": "885 Franklin Street, Galesville, Kansas, 610",
    "city": "Grayhawk",
    "state": "Alabama"
  },
  {
    "_id": "62d79becea236e7c3148f46a",
    "postalCode": 3019950642,
    "address": "706 Myrtle Avenue, Salvo, Idaho, 5634",
    "city": "Fairlee",
    "state": "Florida"
  },
  {
    "_id": "62d79bec1e66cd8b1b1fc68b",
    "postalCode": 3318549299,
    "address": "806 Aurelia Court, Summerfield, Wisconsin, 2409",
    "city": "Strong",
    "state": "Illinois"
  },
  {
    "_id": "62d79bec100f87b1fe0535e5",
    "postalCode": 6332801347,
    "address": "194 Goodwin Place, Bodega, Nevada, 5563",
    "city": "Loyalhanna",
    "state": "Kentucky"
  },
  {
    "_id": "62d79bec0e93d74e3062598d",
    "postalCode": 1662092600,
    "address": "699 Coleman Street, Collins, Maine, 7537",
    "city": "Linganore",
    "state": "Arizona"
  },
  {
    "_id": "62d79bec3425ef1efa07b435",
    "postalCode": 3295750476,
    "address": "153 Willoughby Avenue, Deercroft, American Samoa, 6332",
    "city": "Umapine",
    "state": "Tennessee"
  },
  {
    "_id": "62d79bec0c4a6145522d4021",
    "postalCode": 8136088026,
    "address": "761 Gerry Street, Hasty, South Carolina, 3422",
    "city": "Kenwood",
    "state": "South Dakota"
  },
  {
    "_id": "62d79becacb947254aea3899",
    "postalCode": 7846064898,
    "address": "462 Milford Street, Marion, Arkansas, 9983",
    "city": "Grenelefe",
    "state": "Connecticut"
  },
  {
    "_id": "62d79becde92c2aba621eb61",
    "postalCode": 3682904713,
    "address": "376 Abbey Court, Gambrills, Wyoming, 6034",
    "city": "Curtice",
    "state": "Texas"
  },
  {
    "_id": "62d79becf3188f294e761931",
    "postalCode": 3130130834,
    "address": "429 Grattan Street, Harleigh, New Jersey, 6587",
    "city": "Yettem",
    "state": "Alaska"
  },
  {
    "_id": "62d79becafaf9f9f421df8cb",
    "postalCode": 1717820039,
    "address": "133 Junius Street, Grandview, North Dakota, 1392",
    "city": "Orin",
    "state": "Colorado"
  },
  {
    "_id": "62d79bec7ba2d96c159add4f",
    "postalCode": 7497759931,
    "address": "909 Rutherford Place, Needmore, Marshall Islands, 2450",
    "city": "Keyport",
    "state": "Virgin Islands"
  },
  {
    "_id": "62d79becb16d11c54a0ff0c5",
    "postalCode": 6610521770,
    "address": "258 Louisa Street, Dana, Washington, 6149",
    "city": "Haring",
    "state": "Virginia"
  },
  {
    "_id": "62d79bec7f3f1532801368af",
    "postalCode": 2659101993,
    "address": "437 Fenimore Street, Norris, West Virginia, 9913",
    "city": "Ruffin",
    "state": "Palau"
  },
  {
    "_id": "62d79becf5c715b20e32411c",
    "postalCode": 6056675743,
    "address": "425 Banker Street, Morningside, New Hampshire, 5844",
    "city": "Magnolia",
    "state": "Massachusetts"
  },
  {
    "_id": "62d79bec2707014b7928528a",
    "postalCode": 8583948308,
    "address": "509 Boerum Place, Ona, New Mexico, 8143",
    "city": "Wintersburg",
    "state": "Pennsylvania"
  },
  {
    "_id": "62d79bec1c1a19b9e0c9cb7b",
    "postalCode": 2691407655,
    "address": "664 Division Avenue, Detroit, Missouri, 8902",
    "city": "Darrtown",
    "state": "Nebraska"
  },
  {
    "_id": "62d79bec1837fa9ee2f988ab",
    "postalCode": 3320366687,
    "address": "751 Throop Avenue, Boykin, Hawaii, 2563",
    "city": "Bison",
    "state": "Indiana"
  },
  {
    "_id": "62d79bec7d074f7f69221ac2",
    "postalCode": 2452118971,
    "address": "387 Evans Street, Falconaire, District Of Columbia, 3032",
    "city": "Groton",
    "state": "Iowa"
  },
  {
    "_id": "62d79bec12a5c20872efb6d2",
    "postalCode": 6282784600,
    "address": "103 Glenwood Road, Dodge, Michigan, 6571",
    "city": "Abrams",
    "state": "Maryland"
  },
  {
    "_id": "62d79bec132ea4264e1e1330",
    "postalCode": 8005207848,
    "address": "508 Hoyt Street, Hayes, Puerto Rico, 9073",
    "city": "Davenport",
    "state": "Utah"
  },
  {
    "_id": "62d79beca89292ebe742fb5d",
    "postalCode": 3906771179,
    "address": "363 Bowne Street, Manchester, Louisiana, 6059",
    "city": "Williams",
    "state": "Montana"
  },
  {
    "_id": "62d79bec6cfb4cb7222beef3",
    "postalCode": 7621328000,
    "address": "303 Ridge Boulevard, Dalton, Delaware, 7553",
    "city": "Vivian",
    "state": "New York"
  },
  {
    "_id": "62d79becec40636606ff61ad",
    "postalCode": 6985092001,
    "address": "665 Denton Place, Boling, California, 3702",
    "city": "Fresno",
    "state": "Minnesota"
  },
  {
    "_id": "62d79becc70046976204d338",
    "postalCode": 9965090506,
    "address": "610 Ashford Street, Kanauga, Vermont, 1370",
    "city": "Alfarata",
    "state": "North Carolina"
  },
  {
    "_id": "62d79bec0d6e67878bc38ed2",
    "postalCode": 5518421103,
    "address": "452 Estate Road, Utting, Northern Mariana Islands, 5600",
    "city": "Catharine",
    "state": "Oregon"
  },
  {
    "_id": "62d79bec61df0ee2ed7f11f7",
    "postalCode": 9921771675,
    "address": "316 Logan Street, Greenfields, Rhode Island, 5313",
    "city": "Bluetown",
    "state": "Guam"
  },
  {
    "_id": "62d79bec1670f5b2b3d84c1a",
    "postalCode": 7990759200,
    "address": "153 Just Court, Loma, Federated States Of Micronesia, 7772",
    "city": "Greenwich",
    "state": "Ohio"
  },
  {
    "_id": "62d79bec62be1dbf1e639595",
    "postalCode": 9831350372,
    "address": "582 Atlantic Avenue, Calpine, Oklahoma, 5071",
    "city": "Wanship",
    "state": "Georgia"
  },
  {
    "_id": "62d79becc87842b328680ef9",
    "postalCode": 7176146790,
    "address": "271 Matthews Place, Lydia, Kansas, 818",
    "city": "Idledale",
    "state": "Alabama"
  },
  {
    "_id": "62d79bec016f5068c595e9ca",
    "postalCode": 7626009880,
    "address": "302 Kay Court, Olney, Idaho, 9589",
    "city": "Aguila",
    "state": "Florida"
  },
  {
    "_id": "62d79bec7de19b69eaddf123",
    "postalCode": 6675655301,
    "address": "481 Catherine Street, Sparkill, Wisconsin, 5556",
    "city": "Cedarville",
    "state": "Illinois"
  },
  {
    "_id": "62d79bec75a6ef3b36cfd8b4",
    "postalCode": 2660361215,
    "address": "274 Tiffany Place, Harborton, Nevada, 8756",
    "city": "Hardyville",
    "state": "Kentucky"
  },
  {
    "_id": "62d79bece2d78990af584d21",
    "postalCode": 9477751804,
    "address": "394 Schenectady Avenue, Wedgewood, Maine, 8529",
    "city": "Lorraine",
    "state": "Arizona"
  },
  {
    "_id": "62d79bece37fb9b6e837a65c",
    "postalCode": 6611732909,
    "address": "556 Moffat Street, Gwynn, American Samoa, 9223",
    "city": "Swartzville",
    "state": "Tennessee"
  },
  {
    "_id": "62d79becf53f9be887e4d4b3",
    "postalCode": 9623533197,
    "address": "796 Decatur Street, Hanover, South Carolina, 6714",
    "city": "Ernstville",
    "state": "South Dakota"
  },
  {
    "_id": "62d79bececbb66542612b3df",
    "postalCode": 9101596165,
    "address": "898 McKinley Avenue, Verdi, Arkansas, 286",
    "city": "Hinsdale",
    "state": "Connecticut"
  },
  {
    "_id": "62d79bec4687934bbf2120ee",
    "postalCode": 3080468938,
    "address": "477 Folsom Place, Tilleda, Wyoming, 1670",
    "city": "Gerber",
    "state": "Texas"
  },
  {
    "_id": "62d79bec155428b342973719",
    "postalCode": 2768591390,
    "address": "291 Colin Place, Haena, New Jersey, 2224",
    "city": "Mayfair",
    "state": "Alaska"
  },
  {
    "_id": "62d79bec3257d4c366868911",
    "postalCode": 7951108930,
    "address": "308 Sedgwick Place, Helen, North Dakota, 3066",
    "city": "Rehrersburg",
    "state": "Colorado"
  },
  {
    "_id": "62d79bec691354799bab9c4f",
    "postalCode": 3487806288,
    "address": "429 Clove Road, Bridgetown, Marshall Islands, 1072",
    "city": "Shelby",
    "state": "Virgin Islands"
  },
  {
    "_id": "62d79bec94827461823cf37b",
    "postalCode": 1252942351,
    "address": "857 Overbaugh Place, Statenville, Washington, 8853",
    "city": "Bennett",
    "state": "Virginia"
  },
  {
    "_id": "62d79bec91a346fe79733f19",
    "postalCode": 2767028473,
    "address": "638 Fountain Avenue, Coalmont, West Virginia, 8561",
    "city": "Lowell",
    "state": "Palau"
  },
  {
    "_id": "62d79bec9057e06180ce9d98",
    "postalCode": 8749803757,
    "address": "314 Rapelye Street, Vaughn, New Hampshire, 1411",
    "city": "Limestone",
    "state": "Massachusetts"
  },
  {
    "_id": "62d79bec1a150e50d4c92264",
    "postalCode": 5890339373,
    "address": "788 College Place, Hailesboro, New Mexico, 7412",
    "city": "Why",
    "state": "Pennsylvania"
  },
  {
    "_id": "62d79bec099dc146a94a1e53",
    "postalCode": 7078323158,
    "address": "730 Irvington Place, Babb, Missouri, 1602",
    "city": "Clinton",
    "state": "Nebraska"
  },
  {
    "_id": "62d79becb4cee28887905905",
    "postalCode": 2780718709,
    "address": "521 Fillmore Avenue, Whitewater, Hawaii, 8275",
    "city": "Holcombe",
    "state": "Indiana"
  },
  {
    "_id": "62d79beccf17dba2c260333f",
    "postalCode": 7985846206,
    "address": "470 Riverdale Avenue, Glidden, District Of Columbia, 9246",
    "city": "Somerset",
    "state": "Iowa"
  },
  {
    "_id": "62d79becd74d280c612667be",
    "postalCode": 9951529664,
    "address": "998 Lorraine Street, Orviston, Michigan, 3127",
    "city": "Walker",
    "state": "Maryland"
  },
  {
    "_id": "62d79bec2b193afbade7a3d2",
    "postalCode": 8490465110,
    "address": "871 Wythe Place, Ebro, Puerto Rico, 9138",
    "city": "Healy",
    "state": "Utah"
  },
  {
    "_id": "62d79becd592298c10416a4d",
    "postalCode": 8708785676,
    "address": "270 Roder Avenue, Westmoreland, Louisiana, 8033",
    "city": "Avalon",
    "state": "Montana"
  },
  {
    "_id": "62d79bec3e57294c84daa5ba",
    "postalCode": 5961030950,
    "address": "766 Cox Place, Roeville, Delaware, 3899",
    "city": "Forestburg",
    "state": "New York"
  },
  {
    "_id": "62d79bec0de9d42a5277e946",
    "postalCode": 4219130934,
    "address": "814 Boulevard Court, Rockingham, California, 4356",
    "city": "Vowinckel",
    "state": "Minnesota"
  },
  {
    "_id": "62d79bece5cb8ac8cacec1a6",
    "postalCode": 3565065096,
    "address": "221 Vista Place, Gibbsville, Vermont, 3080",
    "city": "Geyserville",
    "state": "North Carolina"
  },
  {
    "_id": "62d79bec5962f6a83b275bf5",
    "postalCode": 2731551599,
    "address": "426 Williams Place, Graniteville, Northern Mariana Islands, 7680",
    "city": "Trucksville",
    "state": "Oregon"
  },
  {
    "_id": "62d79becc07e6567eb442236",
    "postalCode": 5335643737,
    "address": "510 Maujer Street, Bellamy, Rhode Island, 3283",
    "city": "Freetown",
    "state": "Guam"
  },
  {
    "_id": "62d79becb2eb0abcfe654114",
    "postalCode": 7872947683,
    "address": "924 Oceanic Avenue, Kenvil, Federated States Of Micronesia, 9093",
    "city": "Kohatk",
    "state": "Ohio"
  },
  {
    "_id": "62d79becb8a872a1cfc8e25a",
    "postalCode": 7612263627,
    "address": "966 Wolcott Street, Derwood, Oklahoma, 6808",
    "city": "Westphalia",
    "state": "Georgia"
  },
  {
    "_id": "62d79bec1463d706f71004f6",
    "postalCode": 2739716309,
    "address": "370 Sumner Place, Dotsero, Kansas, 2121",
    "city": "Sidman",
    "state": "Alabama"
  },
  {
    "_id": "62d79becadd9acd9626f80fd",
    "postalCode": 7072797939,
    "address": "358 Friel Place, Adamstown, Idaho, 4734",
    "city": "Bartley",
    "state": "Florida"
  },
  {
    "_id": "62d79beca6d3f0d23606618b",
    "postalCode": 6161102325,
    "address": "204 Hastings Street, Gardiner, Wisconsin, 9866",
    "city": "Irwin",
    "state": "Illinois"
  },
  {
    "_id": "62d79becfe57b035edc8abc3",
    "postalCode": 1286872173,
    "address": "282 Cameron Court, Croom, Nevada, 7870",
    "city": "Marenisco",
    "state": "Kentucky"
  },
  {
    "_id": "62d79becd48e60c8fd522ad8",
    "postalCode": 4346804134,
    "address": "295 Lefferts Avenue, Sutton, Maine, 836",
    "city": "Templeton",
    "state": "Arizona"
  },
  {
    "_id": "62d79becbc7047e6327fe222",
    "postalCode": 7157202490,
    "address": "519 Bijou Avenue, Cornfields, American Samoa, 1617",
    "city": "Allison",
    "state": "Tennessee"
  },
  {
    "_id": "62d79bec855dc1905387f9f1",
    "postalCode": 6567488195,
    "address": "177 Virginia Place, Lafferty, South Carolina, 1104",
    "city": "Gorham",
    "state": "South Dakota"
  },
  {
    "_id": "62d79becb4b54f9c43077d47",
    "postalCode": 6717041401,
    "address": "137 Highlawn Avenue, Berwind, Arkansas, 882",
    "city": "Otranto",
    "state": "Connecticut"
  },
  {
    "_id": "62d79becbc31758919fbbbfc",
    "postalCode": 6153802506,
    "address": "315 Degraw Street, Rosine, Wyoming, 3427",
    "city": "Jacksonwald",
    "state": "Texas"
  },
  {
    "_id": "62d79bec5aea7aa50cec3080",
    "postalCode": 4701827247,
    "address": "733 Bergen Avenue, Campo, New Jersey, 4684",
    "city": "Benson",
    "state": "Alaska"
  },
  {
    "_id": "62d79bec402048b3bdbb0fc7",
    "postalCode": 8707072352,
    "address": "881 Conduit Boulevard, Ripley, North Dakota, 6105",
    "city": "Bergoo",
    "state": "Colorado"
  },
  {
    "_id": "62d79becf313af08756077f1",
    "postalCode": 9986145346,
    "address": "711 Drew Street, Condon, Marshall Islands, 5428",
    "city": "Rew",
    "state": "Virgin Islands"
  },
  {
    "_id": "62d79becec37c5b06bc642b5",
    "postalCode": 5857693778,
    "address": "847 Metrotech Courtr, Sardis, Washington, 5632",
    "city": "Albrightsville",
    "state": "Virginia"
  },
  {
    "_id": "62d79bec0aa16a3d51ef0897",
    "postalCode": 6186942506,
    "address": "591 Lincoln Place, Sussex, West Virginia, 8989",
    "city": "Mammoth",
    "state": "Palau"
  },
  {
    "_id": "62d79bec469f51ffe55a0aa5",
    "postalCode": 3005188256,
    "address": "497 Anthony Street, Nanafalia, New Hampshire, 7220",
    "city": "Tetherow",
    "state": "Massachusetts"
  },
  {
    "_id": "62d79becd1814c2ee5c1a590",
    "postalCode": 6769042795,
    "address": "665 Richmond Street, Maplewood, New Mexico, 3260",
    "city": "Hoagland",
    "state": "Pennsylvania"
  },
  {
    "_id": "62d79becf95e26f8819a09fd",
    "postalCode": 8480794655,
    "address": "492 Doscher Street, Trexlertown, Missouri, 3971",
    "city": "Ogema",
    "state": "Nebraska"
  },
  {
    "_id": "62d79bec32283265e1ab22b5",
    "postalCode": 7946114207,
    "address": "139 Strong Place, Marne, Hawaii, 3932",
    "city": "Germanton",
    "state": "Indiana"
  },
  {
    "_id": "62d79becf34e543589f5020f",
    "postalCode": 5882168297,
    "address": "882 McKibben Street, Belvoir, District Of Columbia, 2961",
    "city": "Stewart",
    "state": "Iowa"
  },
  {
    "_id": "62d79becc92577b8c060319c",
    "postalCode": 4825875204,
    "address": "274 Noel Avenue, Ilchester, Michigan, 1548",
    "city": "Fivepointville",
    "state": "Maryland"
  },
  {
    "_id": "62d79bec9fe9c58748626a15",
    "postalCode": 3809171301,
    "address": "667 Centre Street, Dixie, Puerto Rico, 3537",
    "city": "Belgreen",
    "state": "Utah"
  },
  {
    "_id": "62d79bec13605e58762f24fc",
    "postalCode": 6921744428,
    "address": "736 Sullivan Place, Topanga, Louisiana, 610",
    "city": "Sunwest",
    "state": "Montana"
  },
  {
    "_id": "62d79beccb72937d9b2054ce",
    "postalCode": 9368094085,
    "address": "563 Kensington Walk, Avoca, Delaware, 8686",
    "city": "Kipp",
    "state": "New York"
  },
  {
    "_id": "62d79bec18cec6d3e2c942f6",
    "postalCode": 8290095175,
    "address": "484 Rockaway Avenue, Harviell, California, 6394",
    "city": "Murillo",
    "state": "Minnesota"
  },
  {
    "_id": "62d79bece09e8ca550b79332",
    "postalCode": 6173929158,
    "address": "929 Beverly Road, Day, Vermont, 6896",
    "city": "Enlow",
    "state": "North Carolina"
  },
  {
    "_id": "62d79bec5bb9facdd65a6a50",
    "postalCode": 6168225386,
    "address": "358 Caton Place, Martell, Northern Mariana Islands, 4967",
    "city": "Datil",
    "state": "Oregon"
  },
  {
    "_id": "62d79becc8902985ee01b37f",
    "postalCode": 4091311394,
    "address": "270 Jerome Street, Fingerville, Rhode Island, 2077",
    "city": "Fowlerville",
    "state": "Guam"
  },
  {
    "_id": "62d79bece6cd59e3162d21d7",
    "postalCode": 9095702995,
    "address": "946 Elm Place, Savannah, Federated States Of Micronesia, 1631",
    "city": "Harrison",
    "state": "Ohio"
  },
  {
    "_id": "62d79becdf7314cee5790ed6",
    "postalCode": 9180782501,
    "address": "328 Java Street, Wauhillau, Oklahoma, 8342",
    "city": "Grapeview",
    "state": "Georgia"
  },
  {
    "_id": "62d79bec27783d63d07ddaa6",
    "postalCode": 1384147845,
    "address": "627 Lamont Court, Lithium, Kansas, 2746",
    "city": "Fairfield",
    "state": "Alabama"
  },
  {
    "_id": "62d79bec87c4f235b408a531",
    "postalCode": 5135340500,
    "address": "687 Leonard Street, Stockwell, Idaho, 6580",
    "city": "Cobbtown",
    "state": "Florida"
  },
  {
    "_id": "62d79becc1d739b7e4eb5813",
    "postalCode": 2842582154,
    "address": "547 Chase Court, Sena, Wisconsin, 9415",
    "city": "Roderfield",
    "state": "Illinois"
  },
  {
    "_id": "62d79bec07b1e9a960f9f0c5",
    "postalCode": 8582116551,
    "address": "830 Baycliff Terrace, Siglerville, Nevada, 9454",
    "city": "Loomis",
    "state": "Kentucky"
  },
  {
    "_id": "62d79bec4485683dc71e419d",
    "postalCode": 8971146145,
    "address": "859 Boynton Place, Osage, Maine, 4932",
    "city": "Henrietta",
    "state": "Arizona"
  },
  {
    "_id": "62d79bec349840435c3ed43f",
    "postalCode": 4810511969,
    "address": "810 Varet Street, Turpin, American Samoa, 2570",
    "city": "Hillsboro",
    "state": "Tennessee"
  },
  {
    "_id": "62d79becb61f56a8588b2792",
    "postalCode": 5947689705,
    "address": "135 Lewis Avenue, Cazadero, South Carolina, 1809",
    "city": "Hiko",
    "state": "South Dakota"
  },
  {
    "_id": "62d79bec741442156d93cb18",
    "postalCode": 8105648221,
    "address": "436 King Street, Walton, Arkansas, 8255",
    "city": "Yonah",
    "state": "Connecticut"
  },
  {
    "_id": "62d79bec9056fe4f5d9559a2",
    "postalCode": 3002337054,
    "address": "503 Brightwater Avenue, Cressey, Wyoming, 9403",
    "city": "Kersey",
    "state": "Texas"
  },
  {
    "_id": "62d79bec854ba82fce574285",
    "postalCode": 3650393599,
    "address": "570 Emerald Street, Gratton, New Jersey, 3483",
    "city": "Caroleen",
    "state": "Alaska"
  },
  {
    "_id": "62d79bece4fe96c4ddb17f9d",
    "postalCode": 6753427596,
    "address": "286 Flatlands Avenue, Edinburg, North Dakota, 8424",
    "city": "Tedrow",
    "state": "Colorado"
  },
  {
    "_id": "62d79bec7c5f3cffd9348b28",
    "postalCode": 6931296495,
    "address": "775 Farragut Road, Bend, Marshall Islands, 9605",
    "city": "Linwood",
    "state": "Virgin Islands"
  },
  {
    "_id": "62d79beced0f1ea766485011",
    "postalCode": 7651583294,
    "address": "489 Metropolitan Avenue, Wakarusa, Washington, 9213",
    "city": "Clarence",
    "state": "Virginia"
  },
  {
    "_id": "62d79bec6b15960a7a4403ab",
    "postalCode": 9281670212,
    "address": "399 Surf Avenue, Oceola, West Virginia, 233",
    "city": "Osmond",
    "state": "Palau"
  },
  {
    "_id": "62d79becfd2ce92ea33889c9",
    "postalCode": 2590298587,
    "address": "356 Suydam Place, Glenshaw, New Hampshire, 994",
    "city": "Maybell",
    "state": "Massachusetts"
  },
  {
    "_id": "62d79bece94ff6f0655c2cea",
    "postalCode": 4841073527,
    "address": "884 Lott Place, Cresaptown, New Mexico, 9057",
    "city": "Caberfae",
    "state": "Pennsylvania"
  },
  {
    "_id": "62d79bec2cb5f4376dd7b32c",
    "postalCode": 1602093247,
    "address": "254 Mill Lane, Brazos, Missouri, 6395",
    "city": "Rutherford",
    "state": "Nebraska"
  },
  {
    "_id": "62d79beca46dd532d58ffa88",
    "postalCode": 7501721626,
    "address": "543 Ryder Avenue, Canoochee, Hawaii, 6351",
    "city": "Goodville",
    "state": "Indiana"
  },
  {
    "_id": "62d79bec824421c0b2c1f7ae",
    "postalCode": 2597470153,
    "address": "162 Nelson Street, Dundee, District Of Columbia, 4941",
    "city": "Sunriver",
    "state": "Iowa"
  },
  {
    "_id": "62d79bec194fd33aa5db25e0",
    "postalCode": 2342680581,
    "address": "671 Lester Court, Abiquiu, Michigan, 8557",
    "city": "Blackgum",
    "state": "Maryland"
  },
  {
    "_id": "62d79bec32d7ca32d6873ab8",
    "postalCode": 6760413505,
    "address": "948 Louisiana Avenue, Welch, Puerto Rico, 5422",
    "city": "Englevale",
    "state": "Utah"
  },
  {
    "_id": "62d79beca6a0a7cb0dc4b3d7",
    "postalCode": 9631849244,
    "address": "962 Huron Street, Woodlake, Louisiana, 9968",
    "city": "Cetronia",
    "state": "Montana"
  },
  {
    "_id": "62d79bec8fac9317d7bf6322",
    "postalCode": 8511279273,
    "address": "628 Sunnyside Avenue, Keller, Delaware, 7910",
    "city": "Crawfordsville",
    "state": "New York"
  },
  {
    "_id": "62d79bec23b1525d637a9bb7",
    "postalCode": 5338390877,
    "address": "290 Pleasant Place, Aberdeen, California, 4290",
    "city": "Hackneyville",
    "state": "Minnesota"
  },
  {
    "_id": "62d79bec561ac509e6e76258",
    "postalCode": 9102577897,
    "address": "507 Carlton Avenue, Bangor, Vermont, 9590",
    "city": "Accoville",
    "state": "North Carolina"
  },
  {
    "_id": "62d79bec2e5b64b36add22a1",
    "postalCode": 6612314838,
    "address": "390 Greenpoint Avenue, Waterloo, Northern Mariana Islands, 1310",
    "city": "Roy",
    "state": "Oregon"
  },
  {
    "_id": "62d79bec9dd2b800f16ff9bb",
    "postalCode": 3764765279,
    "address": "421 Columbia Street, Rosedale, Rhode Island, 5122",
    "city": "Brookfield",
    "state": "Guam"
  },
  {
    "_id": "62d79bec19501f52f7ee8db5",
    "postalCode": 2993804973,
    "address": "845 Utica Avenue, Golconda, Federated States Of Micronesia, 5158",
    "city": "Woodburn",
    "state": "Ohio"
  },
  {
    "_id": "62d79bec743d8e639efab482",
    "postalCode": 4659202117,
    "address": "283 Bainbridge Street, Hoehne, Oklahoma, 3412",
    "city": "Chical",
    "state": "Georgia"
  },
  {
    "_id": "62d79bec2722382cfddf845d",
    "postalCode": 4213868054,
    "address": "674 John Street, Westboro, Kansas, 4661",
    "city": "Dupuyer",
    "state": "Alabama"
  },
  {
    "_id": "62d79becbe75c747d08596fe",
    "postalCode": 4225767215,
    "address": "733 Lawrence Street, Manila, Idaho, 6726",
    "city": "Loveland",
    "state": "Florida"
  },
  {
    "_id": "62d79beccee526f216e0d462",
    "postalCode": 2219079714,
    "address": "631 Forrest Street, Cuylerville, Wisconsin, 8875",
    "city": "Movico",
    "state": "Illinois"
  },
  {
    "_id": "62d79bec5bbe574b467212e6",
    "postalCode": 7049456890,
    "address": "957 Seacoast Terrace, Coldiron, Nevada, 8367",
    "city": "Springdale",
    "state": "Kentucky"
  },
  {
    "_id": "62d79bec1597cff9937f121e",
    "postalCode": 8343392670,
    "address": "804 Fulton Street, Barclay, Maine, 249",
    "city": "Ironton",
    "state": "Arizona"
  },
  {
    "_id": "62d79bec38f51739eae0dec9",
    "postalCode": 1368756131,
    "address": "487 Pulaski Street, Downsville, American Samoa, 3043",
    "city": "Clay",
    "state": "Tennessee"
  },
  {
    "_id": "62d79bec21500b1122b97235",
    "postalCode": 2110460536,
    "address": "216 Bowery Street, Wilsonia, South Carolina, 1940",
    "city": "Bannock",
    "state": "South Dakota"
  },
  {
    "_id": "62d79bec1021b96ee1c83214",
    "postalCode": 4809444460,
    "address": "836 Schroeders Avenue, Moquino, Arkansas, 4155",
    "city": "Hannasville",
    "state": "Connecticut"
  },
  {
    "_id": "62d79becd759613cb2258230",
    "postalCode": 1606991259,
    "address": "105 Grafton Street, Dahlen, Wyoming, 4530",
    "city": "Logan",
    "state": "Texas"
  },
  {
    "_id": "62d79becaa21ea6282798b8e",
    "postalCode": 6498508449,
    "address": "821 Jardine Place, Tryon, New Jersey, 7673",
    "city": "Weeksville",
    "state": "Alaska"
  },
  {
    "_id": "62d79bec3daa02e1761a3b23",
    "postalCode": 6055893964,
    "address": "998 Eldert Lane, Vale, North Dakota, 7152",
    "city": "Toftrees",
    "state": "Colorado"
  },
  {
    "_id": "62d79becb5a56494e5a13af0",
    "postalCode": 7794593435,
    "address": "364 Ovington Avenue, Longoria, Marshall Islands, 9793",
    "city": "Yardville",
    "state": "Virgin Islands"
  },
  {
    "_id": "62d79becde5b2511fb573590",
    "postalCode": 7304963158,
    "address": "616 Vernon Avenue, Iberia, Washington, 3512",
    "city": "Gardners",
    "state": "Virginia"
  },
  {
    "_id": "62d79bec84bfc7c09be3fcaf",
    "postalCode": 9231158034,
    "address": "846 Dooley Street, Joes, West Virginia, 6972",
    "city": "Bedias",
    "state": "Palau"
  },
  {
    "_id": "62d79becb94d320eea74a424",
    "postalCode": 9429570860,
    "address": "553 Oceanview Avenue, Convent, New Hampshire, 2180",
    "city": "Coral",
    "state": "Massachusetts"
  },
  {
    "_id": "62d79becd5f68fcef4f2b60f",
    "postalCode": 7155369999,
    "address": "550 Hudson Avenue, Vienna, New Mexico, 8583",
    "city": "Echo",
    "state": "Pennsylvania"
  },
  {
    "_id": "62d79bece466fb221fdb25fb",
    "postalCode": 7576700835,
    "address": "468 Bedford Avenue, Johnsonburg, Missouri, 5988",
    "city": "Rodanthe",
    "state": "Nebraska"
  },
  {
    "_id": "62d79bec8a13a864fc09f87e",
    "postalCode": 3314524400,
    "address": "556 Vandervoort Avenue, Layhill, Hawaii, 417",
    "city": "Lawrence",
    "state": "Indiana"
  },
  {
    "_id": "62d79bec3dab00075cda8026",
    "postalCode": 8815583719,
    "address": "347 Elizabeth Place, Alamo, District Of Columbia, 2541",
    "city": "Thomasville",
    "state": "Iowa"
  },
  {
    "_id": "62d79bec7d2ed231cef4df52",
    "postalCode": 8522908586,
    "address": "718 Bills Place, Caron, Michigan, 5279",
    "city": "Fairacres",
    "state": "Maryland"
  },
  {
    "_id": "62d79becb33bf77c35e3d6fa",
    "postalCode": 6889323423,
    "address": "446 Wallabout Street, Austinburg, Puerto Rico, 336",
    "city": "Brenton",
    "state": "Utah"
  },
  {
    "_id": "62d79beca1d980590ccf2dbe",
    "postalCode": 1112363957,
    "address": "215 Sandford Street, Eagleville, Louisiana, 1699",
    "city": "Lloyd",
    "state": "Montana"
  },
  {
    "_id": "62d79becca51e8cedb07a00c",
    "postalCode": 3376428324,
    "address": "684 Monitor Street, Lutsen, Delaware, 5990",
    "city": "Wildwood",
    "state": "New York"
  },
  {
    "_id": "62d79bec11f11704be82ae36",
    "postalCode": 6635616888,
    "address": "639 Clark Street, Marbury, California, 942",
    "city": "Hollins",
    "state": "Minnesota"
  },
  {
    "_id": "62d79bec27f151f160e5b001",
    "postalCode": 3448340450,
    "address": "578 Crooke Avenue, Mooresburg, Vermont, 7210",
    "city": "Kraemer",
    "state": "North Carolina"
  },
  {
    "_id": "62d79bece5ff0a16382c2d77",
    "postalCode": 5870019625,
    "address": "935 Stuyvesant Avenue, Westerville, Northern Mariana Islands, 6036",
    "city": "Waterview",
    "state": "Oregon"
  },
  {
    "_id": "62d79bec08ee12eb6aa45d86",
    "postalCode": 6116381205,
    "address": "128 Wilson Street, Alden, Rhode Island, 2182",
    "city": "Floriston",
    "state": "Guam"
  },
  {
    "_id": "62d79becd15adc1f8c2db8c6",
    "postalCode": 3115798711,
    "address": "675 Bouck Court, Valmy, Federated States Of Micronesia, 4744",
    "city": "Santel",
    "state": "Ohio"
  },
  {
    "_id": "62d79bec3ef3d7e5c70461ee",
    "postalCode": 3752727793,
    "address": "613 Hutchinson Court, Cliffside, Oklahoma, 2622",
    "city": "Wakulla",
    "state": "Georgia"
  },
  {
    "_id": "62d79becdd23898cea5ae84f",
    "postalCode": 4571642195,
    "address": "658 Perry Terrace, Dunbar, Kansas, 9426",
    "city": "Tolu",
    "state": "Alabama"
  },
  {
    "_id": "62d79bec705f41446e453d5b",
    "postalCode": 2666040805,
    "address": "253 Cortelyou Road, Kent, Idaho, 7925",
    "city": "Succasunna",
    "state": "Florida"
  },
  {
    "_id": "62d79becb0fdbd2b42c5c4a4",
    "postalCode": 3777547015,
    "address": "746 Clinton Street, Hatteras, Wisconsin, 7094",
    "city": "Elizaville",
    "state": "Illinois"
  },
  {
    "_id": "62d79becf869a50c6a221c9e",
    "postalCode": 3577368254,
    "address": "691 Florence Avenue, Bawcomville, Nevada, 9140",
    "city": "Sattley",
    "state": "Kentucky"
  },
  {
    "_id": "62d79becc0c196c940e1d724",
    "postalCode": 4863073583,
    "address": "766 Grand Avenue, Cowiche, Maine, 2481",
    "city": "Oneida",
    "state": "Arizona"
  },
  {
    "_id": "62d79bec6ebed462e4991f0d",
    "postalCode": 8595638320,
    "address": "492 Dakota Place, Cumberland, American Samoa, 8870",
    "city": "Retsof",
    "state": "Tennessee"
  },
  {
    "_id": "62d79becb20992d1161af976",
    "postalCode": 6054671146,
    "address": "676 Bergen Place, Levant, South Carolina, 4988",
    "city": "Brutus",
    "state": "South Dakota"
  },
  {
    "_id": "62d79bec962b9067b0fc24d0",
    "postalCode": 1769517005,
    "address": "422 Ivan Court, Grahamtown, Arkansas, 7805",
    "city": "Morriston",
    "state": "Connecticut"
  },
  {
    "_id": "62d79becb23c9a9333bdc42e",
    "postalCode": 5293484465,
    "address": "204 Louis Place, Eastvale, Wyoming, 7844",
    "city": "Ronco",
    "state": "Texas"
  },
  {
    "_id": "62d79beccad17e6c8a2b2712",
    "postalCode": 9524790220,
    "address": "180 Portland Avenue, Singer, New Jersey, 8192",
    "city": "Beason",
    "state": "Alaska"
  },
  {
    "_id": "62d79becb803f3a880b7a54d",
    "postalCode": 3383035506,
    "address": "485 Farragut Place, Flintville, North Dakota, 1178",
    "city": "Sylvanite",
    "state": "Colorado"
  },
  {
    "_id": "62d79bec19dfda6a9805c3b4",
    "postalCode": 6658959266,
    "address": "361 Losee Terrace, Trinway, Marshall Islands, 1993",
    "city": "Greenbush",
    "state": "Virgin Islands"
  },
  {
    "_id": "62d79bec656f87fde4d04e6b",
    "postalCode": 7751985542,
    "address": "982 Seabring Street, Worton, Washington, 1213",
    "city": "Carrizo",
    "state": "Virginia"
  },
  {
    "_id": "62d79bec5e65d9451a9c3ecf",
    "postalCode": 5194226684,
    "address": "120 Stoddard Place, Kidder, West Virginia, 1865",
    "city": "Bartonsville",
    "state": "Palau"
  },
  {
    "_id": "62d79bec58c06199f7bb7487",
    "postalCode": 9062167361,
    "address": "405 Locust Street, Thatcher, New Hampshire, 7407",
    "city": "Virgie",
    "state": "Massachusetts"
  },
  {
    "_id": "62d79bec966f827b76a641cb",
    "postalCode": 8609624094,
    "address": "843 Stockton Street, Cherokee, New Mexico, 730",
    "city": "Madrid",
    "state": "Pennsylvania"
  },
  {
    "_id": "62d79bec1f3acba50ec176db",
    "postalCode": 2044102816,
    "address": "498 Hendrickson Place, Gracey, Missouri, 394",
    "city": "Riner",
    "state": "Nebraska"
  },
  {
    "_id": "62d79becb911f8389f198c47",
    "postalCode": 1945854968,
    "address": "451 Pioneer Street, Wadsworth, Hawaii, 8610",
    "city": "Rossmore",
    "state": "Indiana"
  },
  {
    "_id": "62d79bec113c00cfc76456c1",
    "postalCode": 5226281539,
    "address": "966 Meserole Avenue, Groveville, District Of Columbia, 8917",
    "city": "Soudan",
    "state": "Iowa"
  },
  {
    "_id": "62d79becac7fa9af0805144d",
    "postalCode": 6485838422,
    "address": "775 Ashland Place, Jackpot, Michigan, 5375",
    "city": "Emerald",
    "state": "Maryland"
  },
  {
    "_id": "62d79becfba57e3b02702e29",
    "postalCode": 5221824381,
    "address": "333 Nautilus Avenue, Rodman, Puerto Rico, 5610",
    "city": "Whitehaven",
    "state": "Utah"
  },
  {
    "_id": "62d79bec723f201e0fa46fbd",
    "postalCode": 4942981940,
    "address": "276 Williamsburg Street, Northridge, Louisiana, 7315",
    "city": "Sterling",
    "state": "Montana"
  },
  {
    "_id": "62d79becf2f7df32ea91f930",
    "postalCode": 2433664638,
    "address": "410 Garland Court, Riviera, Delaware, 6191",
    "city": "Wheaton",
    "state": "New York"
  },
  {
    "_id": "62d79bec59ddf3eaa26fb7ff",
    "postalCode": 4255383125,
    "address": "936 Brevoort Place, Kilbourne, California, 3706",
    "city": "Tooleville",
    "state": "Minnesota"
  },
  {
    "_id": "62d79bec1f7555f5789c4b7d",
    "postalCode": 6913843213,
    "address": "248 Verona Place, Sheatown, Vermont, 8704",
    "city": "Saticoy",
    "state": "North Carolina"
  },
  {
    "_id": "62d79becc6132e75f60b6e1f",
    "postalCode": 7874912883,
    "address": "820 Dewitt Avenue, Snelling, Northern Mariana Islands, 793",
    "city": "Shawmut",
    "state": "Oregon"
  },
  {
    "_id": "62d79bec52fd7ef66f4ff778",
    "postalCode": 4917781190,
    "address": "572 Miller Place, Sandston, Rhode Island, 539",
    "city": "Nile",
    "state": "Guam"
  },
  {
    "_id": "62d79bec1741994aeb1e8841",
    "postalCode": 5614858034,
    "address": "973 Kathleen Court, Strykersville, Federated States Of Micronesia, 6701",
    "city": "Caledonia",
    "state": "Ohio"
  },
  {
    "_id": "62d79beca4cb3d55cde13447",
    "postalCode": 8834522976,
    "address": "112 Flatbush Avenue, Sugartown, Oklahoma, 9273",
    "city": "Summerset",
    "state": "Georgia"
  },
  {
    "_id": "62d79becc42fd39af8bcd129",
    "postalCode": 2816081061,
    "address": "569 Atkins Avenue, Cawood, Kansas, 7913",
    "city": "Tivoli",
    "state": "Alabama"
  },
  {
    "_id": "62d79bec56819e769d08826e",
    "postalCode": 2950521809,
    "address": "523 Billings Place, Drummond, Idaho, 3461",
    "city": "Lacomb",
    "state": "Florida"
  },
  {
    "_id": "62d79bec85f7e6c24b180b0d",
    "postalCode": 1663231165,
    "address": "925 Cozine Avenue, Allentown, Wisconsin, 9335",
    "city": "Blairstown",
    "state": "Illinois"
  },
  {
    "_id": "62d79bec33a06f1bd4cf997a",
    "postalCode": 1927878880,
    "address": "433 Louise Terrace, Hobucken, Nevada, 141",
    "city": "Sims",
    "state": "Kentucky"
  },
  {
    "_id": "62d79bec6bb89bc3a796b222",
    "postalCode": 9527049558,
    "address": "620 Royce Place, Hollymead, Maine, 947",
    "city": "Efland",
    "state": "Arizona"
  },
  {
    "_id": "62d79bec51b543d4b2dc7f38",
    "postalCode": 4121231387,
    "address": "769 Doughty Street, Noxen, American Samoa, 8883",
    "city": "Bowden",
    "state": "Tennessee"
  },
  {
    "_id": "62d79bec9dc65b25524b8227",
    "postalCode": 3542075771,
    "address": "854 Brightwater Court, Gouglersville, South Carolina, 9815",
    "city": "Kimmell",
    "state": "South Dakota"
  },
  {
    "_id": "62d79bec116565c5e8acbb8f",
    "postalCode": 5676117956,
    "address": "429 Hooper Street, Darlington, Arkansas, 8163",
    "city": "Wawona",
    "state": "Connecticut"
  },
  {
    "_id": "62d79bec81dc46534eef9b07",
    "postalCode": 8265658200,
    "address": "823 Fairview Place, Southmont, Wyoming, 7402",
    "city": "Tyro",
    "state": "Texas"
  },
  {
    "_id": "62d79bec46e611cddf480ce5",
    "postalCode": 4740801743,
    "address": "670 Cooke Court, Freeburn, New Jersey, 6612",
    "city": "Steinhatchee",
    "state": "Alaska"
  },
  {
    "_id": "62d79bec0b25bae14bc29f99",
    "postalCode": 4717752035,
    "address": "113 Tompkins Avenue, Hall, North Dakota, 447",
    "city": "Orason",
    "state": "Colorado"
  },
  {
    "_id": "62d79bec5f278640b2feb5cc",
    "postalCode": 1178512617,
    "address": "432 Stryker Street, Como, Marshall Islands, 5956",
    "city": "Soham",
    "state": "Virgin Islands"
  },
  {
    "_id": "62d79bec006486eeeabf6c18",
    "postalCode": 4077257339,
    "address": "442 Bragg Street, Norwood, Washington, 5175",
    "city": "Crown",
    "state": "Virginia"
  },
  {
    "_id": "62d79becf8e1d609d097b62d",
    "postalCode": 9021943494,
    "address": "856 Horace Court, Cecilia, West Virginia, 9424",
    "city": "Taft",
    "state": "Palau"
  },
  {
    "_id": "62d79bec3df27cd77acc8618",
    "postalCode": 1908317689,
    "address": "859 Erskine Loop, Slovan, New Hampshire, 6081",
    "city": "Brewster",
    "state": "Massachusetts"
  },
  {
    "_id": "62d79bec1141d38465d75d4c",
    "postalCode": 8270853119,
    "address": "285 Malbone Street, Delwood, New Mexico, 4875",
    "city": "Gadsden",
    "state": "Pennsylvania"
  },
  {
    "_id": "62d79bec83ff8fe33d347274",
    "postalCode": 3837690829,
    "address": "794 Ridgecrest Terrace, Mathews, Missouri, 3118",
    "city": "Glasgow",
    "state": "Nebraska"
  },
  {
    "_id": "62d79bec09bf9254d2fcff78",
    "postalCode": 6386826185,
    "address": "491 Doone Court, Tonopah, Hawaii, 9718",
    "city": "Chamizal",
    "state": "Indiana"
  },
  {
    "_id": "62d79becf34beaf3ea1c486d",
    "postalCode": 3797541675,
    "address": "389 Stillwell Avenue, Thermal, District Of Columbia, 7924",
    "city": "Delco",
    "state": "Iowa"
  },
  {
    "_id": "62d79bec44b712f3f0273dd4",
    "postalCode": 8351414212,
    "address": "863 Tabor Court, Nutrioso, Michigan, 3771",
    "city": "Juarez",
    "state": "Maryland"
  },
  {
    "_id": "62d79becf48ffca911d361cb",
    "postalCode": 2203635536,
    "address": "932 Varick Street, Jennings, Puerto Rico, 526",
    "city": "Rushford",
    "state": "Utah"
  },
  {
    "_id": "62d79bec10fa0cfdf87ab5fa",
    "postalCode": 3366256400,
    "address": "905 Morton Street, Roosevelt, Louisiana, 1504",
    "city": "Hiseville",
    "state": "Montana"
  },
  {
    "_id": "62d79bec7278f50ca101b351",
    "postalCode": 6638517197,
    "address": "864 Schenck Avenue, Corriganville, Delaware, 7714",
    "city": "Faywood",
    "state": "New York"
  },
  {
    "_id": "62d79bec45290901adf13303",
    "postalCode": 4024992404,
    "address": "329 Manor Court, Calvary, California, 292",
    "city": "Clayville",
    "state": "Minnesota"
  },
  {
    "_id": "62d79becf4232e37083a0287",
    "postalCode": 3169267189,
    "address": "104 Rochester Avenue, Cascades, Vermont, 3842",
    "city": "Brantleyville",
    "state": "North Carolina"
  },
  {
    "_id": "62d79bec94e6fc7093c6992c",
    "postalCode": 6213776794,
    "address": "263 Navy Walk, Smeltertown, Northern Mariana Islands, 5017",
    "city": "Waukeenah",
    "state": "Oregon"
  },
  {
    "_id": "62d79becd0e67b739e6062cd",
    "postalCode": 5245646373,
    "address": "517 Stewart Street, Wells, Rhode Island, 1735",
    "city": "Guilford",
    "state": "Guam"
  },
  {
    "_id": "62d79bec8ebb92a29b1e0659",
    "postalCode": 1150073744,
    "address": "250 Tennis Court, Dunnavant, Federated States Of Micronesia, 8550",
    "city": "Vernon",
    "state": "Ohio"
  },
  {
    "_id": "62d79bec5b15720b73954833",
    "postalCode": 8145002575,
    "address": "370 Linden Boulevard, Kennedyville, Oklahoma, 2194",
    "city": "Brooktrails",
    "state": "Georgia"
  },
  {
    "_id": "62d79bec83b60c2c1a7d0f7c",
    "postalCode": 9582115037,
    "address": "686 Ocean Avenue, Fedora, Kansas, 2485",
    "city": "Coyote",
    "state": "Alabama"
  },
  {
    "_id": "62d79becf80227cf9b896118",
    "postalCode": 5850327912,
    "address": "227 Cherry Street, Colton, Idaho, 4381",
    "city": "Lund",
    "state": "Florida"
  },
  {
    "_id": "62d79beca17f4c283d73423c",
    "postalCode": 3070262013,
    "address": "356 Sheffield Avenue, Escondida, Wisconsin, 9073",
    "city": "Epworth",
    "state": "Illinois"
  },
  {
    "_id": "62d79becfd06ddd12e1f5d62",
    "postalCode": 8984229457,
    "address": "269 Linwood Street, Greenbackville, Nevada, 159",
    "city": "Troy",
    "state": "Kentucky"
  },
  {
    "_id": "62d79bece2b05ee4e342ffb1",
    "postalCode": 8470569659,
    "address": "186 Reed Street, Freelandville, Maine, 9908",
    "city": "Clarktown",
    "state": "Arizona"
  },
  {
    "_id": "62d79bec091f0e79f880603c",
    "postalCode": 8376053851,
    "address": "696 Gelston Avenue, Fairhaven, American Samoa, 847",
    "city": "Brandywine",
    "state": "Tennessee"
  },
  {
    "_id": "62d79becb2a51a3e78fe47aa",
    "postalCode": 3851500890,
    "address": "814 Madeline Court, Nicholson, South Carolina, 732",
    "city": "Delshire",
    "state": "South Dakota"
  },
  {
    "_id": "62d79beca40a784267fa800a",
    "postalCode": 5817148567,
    "address": "781 Highland Avenue, Finderne, Arkansas, 9048",
    "city": "Lynn",
    "state": "Connecticut"
  },
  {
    "_id": "62d79bece42e6914d0f4d20a",
    "postalCode": 1771483655,
    "address": "273 Putnam Avenue, Stockdale, Wyoming, 3290",
    "city": "Salunga",
    "state": "Texas"
  },
  {
    "_id": "62d79beccc35b9123e440160",
    "postalCode": 7789185457,
    "address": "788 Gunther Place, Sanders, New Jersey, 8915",
    "city": "Fillmore",
    "state": "Alaska"
  },
  {
    "_id": "62d79becddbf70a6e659d0cc",
    "postalCode": 7718703713,
    "address": "248 Prospect Avenue, Fredericktown, North Dakota, 5706",
    "city": "Yukon",
    "state": "Colorado"
  },
  {
    "_id": "62d79becc7d7f49f9216b2df",
    "postalCode": 3335410657,
    "address": "242 Box Street, Grimsley, Marshall Islands, 1820",
    "city": "Belmont",
    "state": "Virgin Islands"
  },
  {
    "_id": "62d79bec855a3de74f947b08",
    "postalCode": 3427260480,
    "address": "894 Batchelder Street, Edgewater, Washington, 7026",
    "city": "Courtland",
    "state": "Virginia"
  },
  {
    "_id": "62d79becd5a32c05c229e1d2",
    "postalCode": 5335422686,
    "address": "176 Ridgewood Place, Itmann, West Virginia, 8700",
    "city": "Witmer",
    "state": "Palau"
  },
  {
    "_id": "62d79bec2e15af9e72b9e6ee",
    "postalCode": 8382154965,
    "address": "808 Laurel Avenue, Rivers, New Hampshire, 4397",
    "city": "Morgandale",
    "state": "Massachusetts"
  },
  {
    "_id": "62d79becff08082900866dc0",
    "postalCode": 1149658412,
    "address": "506 Jay Street, Sisquoc, New Mexico, 7309",
    "city": "Woodlands",
    "state": "Pennsylvania"
  },
  {
    "_id": "62d79beca4f28202e2c0ada8",
    "postalCode": 4375246352,
    "address": "730 Clinton Avenue, Stagecoach, Missouri, 3517",
    "city": "Cleary",
    "state": "Nebraska"
  },
  {
    "_id": "62d79becdf7b45b7bce3ef23",
    "postalCode": 9370663956,
    "address": "911 Aviation Road, Chestnut, Hawaii, 2787",
    "city": "Jacumba",
    "state": "Indiana"
  },
  {
    "_id": "62d79bec1fbf7b73fc926a42",
    "postalCode": 6755366634,
    "address": "884 Wyona Street, Crucible, District Of Columbia, 4747",
    "city": "Eagletown",
    "state": "Iowa"
  },
  {
    "_id": "62d79bec868926f4018a1b68",
    "postalCode": 4137514632,
    "address": "502 Melba Court, Trona, Michigan, 3025",
    "city": "Concho",
    "state": "Maryland"
  },
  {
    "_id": "62d79bec468d0c3281021d9a",
    "postalCode": 1458605901,
    "address": "888 Dikeman Street, Crayne, Puerto Rico, 9333",
    "city": "Leyner",
    "state": "Utah"
  },
  {
    "_id": "62d79becef0eea796ee0eae8",
    "postalCode": 7674240354,
    "address": "250 Llama Court, Clara, Louisiana, 6783",
    "city": "Wolcott",
    "state": "Montana"
  },
  {
    "_id": "62d79bec8e07078e404c882f",
    "postalCode": 3178013565,
    "address": "611 Freeman Street, Tibbie, Delaware, 7368",
    "city": "Cassel",
    "state": "New York"
  },
  {
    "_id": "62d79bec53d769b1f82cde48",
    "postalCode": 2471057975,
    "address": "578 Fanchon Place, Sanford, California, 3611",
    "city": "Talpa",
    "state": "Minnesota"
  },
  {
    "_id": "62d79bec69d0eb9b68b7c1e9",
    "postalCode": 8593115011,
    "address": "395 Hewes Street, Wilmington, Vermont, 3615",
    "city": "Goochland",
    "state": "North Carolina"
  },
  {
    "_id": "62d79becb1b57ee828ef4bcd",
    "postalCode": 9877254594,
    "address": "466 Bushwick Place, Laurelton, Northern Mariana Islands, 699",
    "city": "Gila",
    "state": "Oregon"
  },
  {
    "_id": "62d79bec7cc8955bb54ef295",
    "postalCode": 2266737507,
    "address": "943 Neptune Avenue, Crisman, Rhode Island, 1635",
    "city": "Kempton",
    "state": "Guam"
  },
  {
    "_id": "62d79bec322a741387430d39",
    "postalCode": 5282888264,
    "address": "597 Hanover Place, Whipholt, Federated States Of Micronesia, 2495",
    "city": "Harold",
    "state": "Ohio"
  },
  {
    "_id": "62d79bec6be911cb0b20652c",
    "postalCode": 1220706174,
    "address": "488 Clifton Place, Castleton, Oklahoma, 1506",
    "city": "Brownlee",
    "state": "Georgia"
  },
  {
    "_id": "62d79becd61e144453d57205",
    "postalCode": 7325493402,
    "address": "162 Bartlett Street, Spokane, Kansas, 3234",
    "city": "Remington",
    "state": "Alabama"
  },
  {
    "_id": "62d79bec6b9b80689d23cc5d",
    "postalCode": 8676596062,
    "address": "719 Oliver Street, Dawn, Idaho, 8610",
    "city": "Ahwahnee",
    "state": "Florida"
  },
  {
    "_id": "62d79becd9c510c1686082b7",
    "postalCode": 4722454949,
    "address": "106 Hendrickson Street, Hamilton, Wisconsin, 2444",
    "city": "Katonah",
    "state": "Illinois"
  },
  {
    "_id": "62d79beca08687439abff236",
    "postalCode": 6402620496,
    "address": "291 Preston Court, Hartsville/Hartley, Nevada, 1584",
    "city": "Wikieup",
    "state": "Kentucky"
  },
  {
    "_id": "62d79bec54e1b2d40a98e754",
    "postalCode": 8312447701,
    "address": "548 Cypress Court, Nettie, Maine, 1812",
    "city": "Maury",
    "state": "Arizona"
  },
  {
    "_id": "62d79becbc87b66f5229976d",
    "postalCode": 2722001163,
    "address": "384 Fleet Street, Thornport, American Samoa, 5980",
    "city": "Florence",
    "state": "Tennessee"
  },
  {
    "_id": "62d79becaa2970c6b5853c96",
    "postalCode": 7984969054,
    "address": "930 Clay Street, Urie, South Carolina, 734",
    "city": "Garnet",
    "state": "South Dakota"
  },
  {
    "_id": "62d79becc471db3bb9ea6a86",
    "postalCode": 9923231437,
    "address": "576 Conover Street, Mappsville, Arkansas, 2820",
    "city": "Bayview",
    "state": "Connecticut"
  },
  {
    "_id": "62d79bec59a5b3420acaf7b8",
    "postalCode": 5197530596,
    "address": "682 Agate Court, National, Wyoming, 5540",
    "city": "Stonybrook",
    "state": "Texas"
  },
  {
    "_id": "62d79bec9dabbd71987d3067",
    "postalCode": 1294176412,
    "address": "537 Ellery Street, Villarreal, New Jersey, 3082",
    "city": "Sedley",
    "state": "Alaska"
  },
  {
    "_id": "62d79becef6ec8c214234081",
    "postalCode": 1551097885,
    "address": "870 Kings Hwy, Nescatunga, North Dakota, 7456",
    "city": "Skyland",
    "state": "Colorado"
  },
  {
    "_id": "62d79becac33497bbfc916b7",
    "postalCode": 5615438091,
    "address": "810 Harrison Place, Blanford, Marshall Islands, 8091",
    "city": "Outlook",
    "state": "Virgin Islands"
  },
  {
    "_id": "62d79becd2f76ab894b36b37",
    "postalCode": 9583178332,
    "address": "458 Bragg Court, Foxworth, Washington, 8026",
    "city": "Selma",
    "state": "Virginia"
  },
  {
    "_id": "62d79bec10400521ef2a7805",
    "postalCode": 1969243462,
    "address": "285 Turner Place, Zeba, West Virginia, 8422",
    "city": "Garberville",
    "state": "Palau"
  },
  {
    "_id": "62d79bec389747ea00b37be8",
    "postalCode": 9381257703,
    "address": "252 Bergen Street, Boomer, New Hampshire, 548",
    "city": "Jeff",
    "state": "Massachusetts"
  },
  {
    "_id": "62d79bec5d4791f1aa743de7",
    "postalCode": 2149297451,
    "address": "583 Newton Street, Ellerslie, New Mexico, 1483",
    "city": "Jacksonburg",
    "state": "Pennsylvania"
  },
  {
    "_id": "62d79becfbcc537a6fb110c6",
    "postalCode": 2893371123,
    "address": "823 Polhemus Place, Wyoming, Missouri, 2336",
    "city": "Waverly",
    "state": "Nebraska"
  },
  {
    "_id": "62d79bec3e7968cf173cbe28",
    "postalCode": 9570531126,
    "address": "638 Alice Court, Dola, Hawaii, 3873",
    "city": "Westwood",
    "state": "Indiana"
  },
  {
    "_id": "62d79bec36e8abeeac362368",
    "postalCode": 9722154526,
    "address": "562 Franklin Avenue, Baden, District Of Columbia, 8082",
    "city": "Lindcove",
    "state": "Iowa"
  },
  {
    "_id": "62d79becd1a988dd6679dbe0",
    "postalCode": 2652033447,
    "address": "501 Lake Street, Ada, Michigan, 6129",
    "city": "Moscow",
    "state": "Maryland"
  },
  {
    "_id": "62d79bec13bd23876f918ed3",
    "postalCode": 9823313899,
    "address": "336 Tapscott Avenue, Fairforest, Puerto Rico, 1623",
    "city": "Klagetoh",
    "state": "Utah"
  },
  {
    "_id": "62d79bec894fe7f3019102fa",
    "postalCode": 5807932558,
    "address": "870 School Lane, Elfrida, Louisiana, 5619",
    "city": "Chumuckla",
    "state": "Montana"
  },
  {
    "_id": "62d79becdedaec544e315408",
    "postalCode": 8260973063,
    "address": "951 Dekalb Avenue, Bellfountain, Delaware, 9418",
    "city": "Klondike",
    "state": "New York"
  },
  {
    "_id": "62d79becd1e619910ce12433",
    "postalCode": 1863050575,
    "address": "349 Railroad Avenue, Neibert, California, 2057",
    "city": "Norfolk",
    "state": "Minnesota"
  },
  {
    "_id": "62d79bec5650dc60757b8878",
    "postalCode": 7993529843,
    "address": "537 Woods Place, Jenkinsville, Vermont, 7040",
    "city": "Hebron",
    "state": "North Carolina"
  },
  {
    "_id": "62d79bec6a858669b54e7676",
    "postalCode": 8834828061,
    "address": "406 Wythe Avenue, Manitou, Northern Mariana Islands, 267",
    "city": "Roland",
    "state": "Oregon"
  },
  {
    "_id": "62d79bece7c14c1d6afe7379",
    "postalCode": 7902635132,
    "address": "322 Cumberland Street, Orovada, Rhode Island, 3416",
    "city": "Hayden",
    "state": "Guam"
  },
  {
    "_id": "62d79becaa865dbd2953b604",
    "postalCode": 4060130773,
    "address": "812 Miami Court, Mansfield, Federated States Of Micronesia, 4506",
    "city": "Dixonville",
    "state": "Ohio"
  },
  {
    "_id": "62d79bec5dacd5b2d8f891cd",
    "postalCode": 6567160874,
    "address": "187 Opal Court, Herald, Oklahoma, 7173",
    "city": "Kapowsin",
    "state": "Georgia"
  },
  {
    "_id": "62d79becc27f29df7ce843fd",
    "postalCode": 2861134277,
    "address": "973 Schenck Court, Cataract, Kansas, 6131",
    "city": "Reinerton",
    "state": "Alabama"
  },
  {
    "_id": "62d79becfe94087a62f5051c",
    "postalCode": 8386867355,
    "address": "394 Jerome Avenue, Omar, Idaho, 2594",
    "city": "Marysville",
    "state": "Florida"
  },
  {
    "_id": "62d79becc150efc8db6294c3",
    "postalCode": 8070410881,
    "address": "515 Gates Avenue, Roberts, Wisconsin, 709",
    "city": "Camas",
    "state": "Illinois"
  },
  {
    "_id": "62d79beca0b7add8a7cce702",
    "postalCode": 2012222849,
    "address": "557 Barlow Drive, Tuttle, Nevada, 6440",
    "city": "Felt",
    "state": "Kentucky"
  },
  {
    "_id": "62d79bec6c39411aff6ac34d",
    "postalCode": 7763644520,
    "address": "765 Willow Street, Ladera, Maine, 8876",
    "city": "Canby",
    "state": "Arizona"
  },
  {
    "_id": "62d79bec2b18561824ddd6c4",
    "postalCode": 7453645285,
    "address": "432 Kingston Avenue, Monument, American Samoa, 6219",
    "city": "Springville",
    "state": "Tennessee"
  },
  {
    "_id": "62d79bec5f459086bc2b44ac",
    "postalCode": 7180334516,
    "address": "317 Ryerson Street, Hilltop, South Carolina, 2783",
    "city": "Darbydale",
    "state": "South Dakota"
  },
  {
    "_id": "62d79becb408e54e9fdbb9f3",
    "postalCode": 4030015304,
    "address": "379 Seeley Street, Lemoyne, Arkansas, 7155",
    "city": "Bluffview",
    "state": "Connecticut"
  },
  {
    "_id": "62d79bec8eadedc6a4714664",
    "postalCode": 9242877741,
    "address": "880 Minna Street, Rosburg, Wyoming, 6810",
    "city": "Macdona",
    "state": "Texas"
  },
  {
    "_id": "62d79bec041d4ff1fbeec741",
    "postalCode": 1672199329,
    "address": "339 Lloyd Court, Robbins, New Jersey, 2857",
    "city": "Waiohinu",
    "state": "Alaska"
  },
  {
    "_id": "62d79becab9a997143953e3e",
    "postalCode": 2941522475,
    "address": "492 Desmond Court, Fontanelle, North Dakota, 9497",
    "city": "Leland",
    "state": "Colorado"
  },
  {
    "_id": "62d79bec68892949cb0dccf0",
    "postalCode": 6580734668,
    "address": "850 Sedgwick Street, Hegins, Marshall Islands, 9264",
    "city": "Walland",
    "state": "Virgin Islands"
  },
  {
    "_id": "62d79becc9d623af4e03d25d",
    "postalCode": 7942459624,
    "address": "424 Loring Avenue, Winesburg, Washington, 8371",
    "city": "Waumandee",
    "state": "Virginia"
  },
  {
    "_id": "62d79bec5e6df96256f495a5",
    "postalCode": 6298661123,
    "address": "610 Monroe Place, Martinsville, West Virginia, 6126",
    "city": "Biehle",
    "state": "Palau"
  },
  {
    "_id": "62d79bec8c8d50b424f8b060",
    "postalCode": 4614088322,
    "address": "604 Howard Avenue, Faxon, New Hampshire, 9121",
    "city": "Ezel",
    "state": "Massachusetts"
  },
  {
    "_id": "62d79bece78640013f668e9e",
    "postalCode": 7427914682,
    "address": "700 Concord Street, Brecon, New Mexico, 6189",
    "city": "Duryea",
    "state": "Pennsylvania"
  },
  {
    "_id": "62d79bec891b48b5962d4edd",
    "postalCode": 4056792088,
    "address": "535 Kensington Street, Southview, Missouri, 9900",
    "city": "Elliott",
    "state": "Nebraska"
  },
  {
    "_id": "62d79bec6681c56ccde166df",
    "postalCode": 7004124863,
    "address": "655 Duryea Court, Ivanhoe, Hawaii, 1282",
    "city": "Corinne",
    "state": "Indiana"
  },
  {
    "_id": "62d79bec3a38e232e52d195f",
    "postalCode": 1246057796,
    "address": "767 Congress Street, Bowie, District Of Columbia, 4567",
    "city": "Coinjock",
    "state": "Iowa"
  },
  {
    "_id": "62d79becd56cb8e94969d025",
    "postalCode": 1707470563,
    "address": "731 Kingsland Avenue, Martinez, Michigan, 9802",
    "city": "Orick",
    "state": "Maryland"
  },
  {
    "_id": "62d79bec2189d70b0f847180",
    "postalCode": 7098456660,
    "address": "539 Eckford Street, Zortman, Puerto Rico, 9006",
    "city": "Celeryville",
    "state": "Utah"
  },
  {
    "_id": "62d79bec7583b00cc6425f04",
    "postalCode": 4944831189,
    "address": "573 Bridgewater Street, Cartwright, Louisiana, 624",
    "city": "Unionville",
    "state": "Montana"
  },
  {
    "_id": "62d79bece47b58b4af386703",
    "postalCode": 1584444303,
    "address": "350 Kent Street, Rose, Delaware, 6519",
    "city": "Homeworth",
    "state": "New York"
  },
  {
    "_id": "62d79bec6d526eb78877ab27",
    "postalCode": 6368041328,
    "address": "383 Milton Street, Oasis, California, 8680",
    "city": "Sexton",
    "state": "Minnesota"
  },
  {
    "_id": "62d79bec49af648c9a9991b0",
    "postalCode": 6795872699,
    "address": "861 Woodpoint Road, Dante, Vermont, 5419",
    "city": "Brogan",
    "state": "North Carolina"
  },
  {
    "_id": "62d79bec70ff3dab5d5d2bcb",
    "postalCode": 6564432710,
    "address": "233 Merit Court, Coleville, Northern Mariana Islands, 406",
    "city": "Tyhee",
    "state": "Oregon"
  },
  {
    "_id": "62d79bec5372d9a052f685de",
    "postalCode": 5784787833,
    "address": "561 Clarkson Avenue, Madaket, Rhode Island, 5423",
    "city": "Ypsilanti",
    "state": "Guam"
  },
  {
    "_id": "62d79bec79d4e79f19bdbb69",
    "postalCode": 9830608434,
    "address": "773 Lafayette Avenue, Riegelwood, Federated States Of Micronesia, 2543",
    "city": "Cotopaxi",
    "state": "Ohio"
  },
  {
    "_id": "62d79bec9a6396c6c5275df0",
    "postalCode": 5214026289,
    "address": "196 Gerald Court, Kieler, Oklahoma, 4071",
    "city": "Alderpoint",
    "state": "Georgia"
  },
  {
    "_id": "62d79bec238414877880da64",
    "postalCode": 9495230638,
    "address": "375 Hinsdale Street, Craig, Kansas, 2046",
    "city": "Winfred",
    "state": "Alabama"
  },
  {
    "_id": "62d79bece6ef6c1dae4a58fd",
    "postalCode": 5371987281,
    "address": "468 Elliott Place, Blandburg, Idaho, 6306",
    "city": "Stevens",
    "state": "Florida"
  },
  {
    "_id": "62d79bec075221bf8f4bde2f",
    "postalCode": 1783529668,
    "address": "845 Bushwick Court, Barstow, Wisconsin, 6403",
    "city": "Bentonville",
    "state": "Illinois"
  },
  {
    "_id": "62d79bec1af5c800e1b2258d",
    "postalCode": 1398339122,
    "address": "528 Jefferson Avenue, Bentley, Nevada, 9513",
    "city": "Newkirk",
    "state": "Kentucky"
  },
  {
    "_id": "62d79bec7247e819c1f615b1",
    "postalCode": 7504862805,
    "address": "399 Eaton Court, Coloma, Maine, 9206",
    "city": "Choctaw",
    "state": "Arizona"
  },
  {
    "_id": "62d79bec8c8643efc67bc778",
    "postalCode": 6289972132,
    "address": "736 Downing Street, Beaverdale, American Samoa, 6452",
    "city": "Wyano",
    "state": "Tennessee"
  },
  {
    "_id": "62d79bece9cc61a98ded5034",
    "postalCode": 6666758670,
    "address": "456 Broome Street, Buxton, South Carolina, 5535",
    "city": "Hickory",
    "state": "South Dakota"
  },
  {
    "_id": "62d79bec2b2b575f121f98fe",
    "postalCode": 8863546347,
    "address": "797 Oxford Walk, Draper, Arkansas, 1526",
    "city": "Finzel",
    "state": "Connecticut"
  },
  {
    "_id": "62d79beceef6e3a36954e913",
    "postalCode": 1188045264,
    "address": "479 Ingraham Street, Dellview, Wyoming, 7056",
    "city": "Robinson",
    "state": "Texas"
  },
  {
    "_id": "62d79bec7250a8cb5722b0a3",
    "postalCode": 5252798804,
    "address": "484 Beard Street, Inkerman, New Jersey, 8070",
    "city": "Maxville",
    "state": "Alaska"
  },
  {
    "_id": "62d79bec4844500116411503",
    "postalCode": 1361744339,
    "address": "952 Battery Avenue, Sehili, North Dakota, 5351",
    "city": "Mapletown",
    "state": "Colorado"
  },
  {
    "_id": "62d79bec6d917f1a74586ba5",
    "postalCode": 2632316830,
    "address": "146 Krier Place, Wacissa, Marshall Islands, 5734",
    "city": "Dale",
    "state": "Virgin Islands"
  },
  {
    "_id": "62d79bec471e6f091a477455",
    "postalCode": 2109198137,
    "address": "156 Tehama Street, Blodgett, Washington, 4050",
    "city": "Innsbrook",
    "state": "Virginia"
  },
  {
    "_id": "62d79bec05d3b64dbeaf9d9d",
    "postalCode": 8652243742,
    "address": "539 Duffield Street, Durham, West Virginia, 7482",
    "city": "Sultana",
    "state": "Palau"
  },
  {
    "_id": "62d79bec56518c3e55e54204",
    "postalCode": 9831278820,
    "address": "884 Maple Avenue, Farmington, New Hampshire, 4669",
    "city": "Reno",
    "state": "Massachusetts"
  },
  {
    "_id": "62d79bec194408c14df964c0",
    "postalCode": 3658338689,
    "address": "876 Dorset Street, Edgar, New Mexico, 7736",
    "city": "Harmon",
    "state": "Pennsylvania"
  },
  {
    "_id": "62d79bec81f61a775941ed4e",
    "postalCode": 7364992656,
    "address": "399 Cranberry Street, Lowgap, Missouri, 1707",
    "city": "Camino",
    "state": "Nebraska"
  },
  {
    "_id": "62d79bec3f7dbcbe34374ca5",
    "postalCode": 1786597460,
    "address": "744 Holmes Lane, Clarksburg, Hawaii, 7547",
    "city": "Comptche",
    "state": "Indiana"
  },
  {
    "_id": "62d79bec538299c2738f8fda",
    "postalCode": 1752812518,
    "address": "178 Bay Avenue, Vincent, District Of Columbia, 259",
    "city": "Russellville",
    "state": "Iowa"
  },
  {
    "_id": "62d79becd53137037fb3ee99",
    "postalCode": 5370459542,
    "address": "393 Crosby Avenue, Alleghenyville, Michigan, 2837",
    "city": "Beechmont",
    "state": "Maryland"
  },
  {
    "_id": "62d79bec9065fa7c2c2650b0",
    "postalCode": 6739846448,
    "address": "171 Cove Lane, Temperanceville, Puerto Rico, 9221",
    "city": "Holtville",
    "state": "Utah"
  },
  {
    "_id": "62d79bec739045982f5a4549",
    "postalCode": 4662609855,
    "address": "458 Whitwell Place, Mulberry, Louisiana, 9860",
    "city": "Emison",
    "state": "Montana"
  },
  {
    "_id": "62d79bec8470563f70d5d835",
    "postalCode": 9119816401,
    "address": "286 Hart Place, Malo, Delaware, 4783",
    "city": "Mahtowa",
    "state": "New York"
  },
  {
    "_id": "62d79bec449457b11932bc0c",
    "postalCode": 3556687625,
    "address": "573 Madison Street, Brule, California, 7480",
    "city": "Nord",
    "state": "Minnesota"
  },
  {
    "_id": "62d79bec167c1411794b5e30",
    "postalCode": 7909129409,
    "address": "849 Gain Court, Fruitdale, Vermont, 1025",
    "city": "Vallonia",
    "state": "North Carolina"
  },
  {
    "_id": "62d79beca379694d18e845c9",
    "postalCode": 4227287561,
    "address": "146 Elton Street, Centerville, Northern Mariana Islands, 679",
    "city": "Shrewsbury",
    "state": "Oregon"
  },
  {
    "_id": "62d79bec4c424d6c4bde07c0",
    "postalCode": 1329072073,
    "address": "593 Columbia Place, Riceville, Rhode Island, 7336",
    "city": "Belfair",
    "state": "Guam"
  },
  {
    "_id": "62d79bec7323667dcbbb5e57",
    "postalCode": 5338800558,
    "address": "743 Langham Street, Winston, Federated States Of Micronesia, 8461",
    "city": "Wollochet",
    "state": "Ohio"
  },
  {
    "_id": "62d79bec3260f55630a66668",
    "postalCode": 3312604528,
    "address": "992 Schenck Street, Axis, Oklahoma, 7870",
    "city": "Cashtown",
    "state": "Georgia"
  },
  {
    "_id": "62d79becec0124b8c7d42898",
    "postalCode": 2430928796,
    "address": "520 Walker Court, Montura, Kansas, 2356",
    "city": "Chesterfield",
    "state": "Alabama"
  },
  {
    "_id": "62d79beca5472a175c5c5f40",
    "postalCode": 4559808505,
    "address": "886 Bayview Avenue, Wiscon, Idaho, 6001",
    "city": "Beaulieu",
    "state": "Florida"
  },
  {
    "_id": "62d79bec854d8f059b85a246",
    "postalCode": 8968382694,
    "address": "268 Rewe Street, Hessville, Wisconsin, 8432",
    "city": "Leeper",
    "state": "Illinois"
  },
  {
    "_id": "62d79becedeccd64619b1f88",
    "postalCode": 7041672237,
    "address": "870 Caton Avenue, Sunbury, Nevada, 8812",
    "city": "Gorst",
    "state": "Kentucky"
  },
  {
    "_id": "62d79bec881dbfd4d3a21d4a",
    "postalCode": 4096869055,
    "address": "470 Union Avenue, Beyerville, Maine, 5746",
    "city": "Carlton",
    "state": "Arizona"
  },
  {
    "_id": "62d79bece47672eab8504195",
    "postalCode": 7772080632,
    "address": "405 Lott Avenue, Breinigsville, American Samoa, 7880",
    "city": "Naomi",
    "state": "Tennessee"
  },
  {
    "_id": "62d79bec8ddc71deb5586c0b",
    "postalCode": 9232489647,
    "address": "665 Cornelia Street, Volta, South Carolina, 7998",
    "city": "Bagtown",
    "state": "South Dakota"
  },
  {
    "_id": "62d79becbb6a5e46d2f2dcee",
    "postalCode": 1340335259,
    "address": "765 Vanderveer Place, Bascom, Arkansas, 1250",
    "city": "Gibsonia",
    "state": "Connecticut"
  },
  {
    "_id": "62d79bec58bac86304a72cb2",
    "postalCode": 4333377207,
    "address": "267 Rockaway Parkway, Eastmont, Wyoming, 2817",
    "city": "Takilma",
    "state": "Texas"
  },
  {
    "_id": "62d79bec92eea1edc6a064b9",
    "postalCode": 9121265688,
    "address": "575 Mayfair Drive, Noblestown, New Jersey, 9885",
    "city": "Thynedale",
    "state": "Alaska"
  },
  {
    "_id": "62d79bec0f8676ad07254a3d",
    "postalCode": 1752081914,
    "address": "682 National Drive, Dorneyville, North Dakota, 4132",
    "city": "Tampico",
    "state": "Colorado"
  },
  {
    "_id": "62d79bec03100749e1ffa6b0",
    "postalCode": 7084428047,
    "address": "195 Chestnut Avenue, Muse, Marshall Islands, 6180",
    "city": "Carlos",
    "state": "Virgin Islands"
  },
  {
    "_id": "62d79becd2aacd35a5300e5c",
    "postalCode": 4842892730,
    "address": "454 Butler Street, Frierson, Washington, 1149",
    "city": "Chamberino",
    "state": "Virginia"
  },
  {
    "_id": "62d79bececbb6f57d5a67114",
    "postalCode": 8537122434,
    "address": "970 Church Avenue, Oretta, West Virginia, 9321",
    "city": "Elrama",
    "state": "Palau"
  },
  {
    "_id": "62d79bec6e0091c53199f992",
    "postalCode": 6898479529,
    "address": "396 Quay Street, Belva, New Hampshire, 1679",
    "city": "Deputy",
    "state": "Massachusetts"
  },
  {
    "_id": "62d79bec83a6073aad671698",
    "postalCode": 6233420425,
    "address": "752 Montgomery Street, Sabillasville, New Mexico, 2620",
    "city": "Conestoga",
    "state": "Pennsylvania"
  },
  {
    "_id": "62d79bec9c29e828a0af945d",
    "postalCode": 9151174131,
    "address": "777 Lawton Street, Winchester, Missouri, 5556",
    "city": "Lodoga",
    "state": "Nebraska"
  },
  {
    "_id": "62d79becdf12df25f7997c1c",
    "postalCode": 8159939568,
    "address": "776 Rose Street, Century, Hawaii, 4220",
    "city": "Hampstead",
    "state": "Indiana"
  },
  {
    "_id": "62d79bec1423c7a25c0dca83",
    "postalCode": 1511069105,
    "address": "778 Ocean Court, Heil, District Of Columbia, 7697",
    "city": "Rivera",
    "state": "Iowa"
  },
  {
    "_id": "62d79bec6b0ba50af7f57ad8",
    "postalCode": 2486720046,
    "address": "460 Kenmore Terrace, Richville, Michigan, 8216",
    "city": "Matheny",
    "state": "Maryland"
  },
  {
    "_id": "62d79bec8d103db4688d22f5",
    "postalCode": 1964753192,
    "address": "912 Hubbard Street, Kaka, Puerto Rico, 5298",
    "city": "Dargan",
    "state": "Utah"
  },
  {
    "_id": "62d79bec6656c667acf6c616",
    "postalCode": 2934258017,
    "address": "130 Quentin Street, Joppa, Louisiana, 9257",
    "city": "Veguita",
    "state": "Montana"
  },
  {
    "_id": "62d79becd3ed1579c9d5f7b9",
    "postalCode": 7355895121,
    "address": "637 Driggs Avenue, Cliff, Delaware, 4099",
    "city": "Kiskimere",
    "state": "New York"
  },
  {
    "_id": "62d79becbda23b24400c6701",
    "postalCode": 7415557092,
    "address": "860 Grimes Road, Grantville, California, 2188",
    "city": "Bourg",
    "state": "Minnesota"
  },
  {
    "_id": "62d79beccd3e07643e22915a",
    "postalCode": 1788617162,
    "address": "895 Thomas Street, Moraida, Vermont, 4615",
    "city": "Tioga",
    "state": "North Carolina"
  },
  {
    "_id": "62d79bec5f0d255253f0c82b",
    "postalCode": 8650754601,
    "address": "159 Story Court, Adelino, Northern Mariana Islands, 3629",
    "city": "Shaft",
    "state": "Oregon"
  },
  {
    "_id": "62d79bec86b3245d4432f107",
    "postalCode": 9162602520,
    "address": "646 Georgia Avenue, Harrodsburg, Rhode Island, 5582",
    "city": "Elbert",
    "state": "Guam"
  },
  {
    "_id": "62d79becd404c0bde44ce883",
    "postalCode": 3239644921,
    "address": "209 Forbell Street, Berlin, Federated States Of Micronesia, 2043",
    "city": "Eden",
    "state": "Ohio"
  },
  {
    "_id": "62d79becabc586251a6f8f7e",
    "postalCode": 9504754146,
    "address": "294 Cass Place, Lumberton, Oklahoma, 1070",
    "city": "Chilton",
    "state": "Georgia"
  },
  {
    "_id": "62d79bece879138370adb5a5",
    "postalCode": 7534060218,
    "address": "302 Vanderbilt Avenue, Allendale, Kansas, 1975",
    "city": "Fairview",
    "state": "Alabama"
  },
  {
    "_id": "62d79bece1d83e73698f0738",
    "postalCode": 8709227675,
    "address": "699 Norwood Avenue, Esmont, Idaho, 3943",
    "city": "Gerton",
    "state": "Florida"
  },
  {
    "_id": "62d79beca9b057ac00d2c2db",
    "postalCode": 3222991431,
    "address": "710 Sackett Street, Brandermill, Wisconsin, 2255",
    "city": "Nogal",
    "state": "Illinois"
  },
  {
    "_id": "62d79bece50d4ab7cf84c825",
    "postalCode": 3199164396,
    "address": "111 Kimball Street, Gloucester, Nevada, 9850",
    "city": "Leroy",
    "state": "Kentucky"
  },
  {
    "_id": "62d79bec5f512e8788295266",
    "postalCode": 4714771297,
    "address": "220 Dare Court, Dragoon, Maine, 1988",
    "city": "Glendale",
    "state": "Arizona"
  },
  {
    "_id": "62d79becdd339fc3a26b2c0e",
    "postalCode": 6187174549,
    "address": "419 Gardner Avenue, Smock, American Samoa, 1623",
    "city": "Knowlton",
    "state": "Tennessee"
  },
  {
    "_id": "62d79bec841448f8c6c5a1d0",
    "postalCode": 3969844728,
    "address": "792 George Street, Venice, South Carolina, 7029",
    "city": "Fulford",
    "state": "South Dakota"
  },
  {
    "_id": "62d79bec07a345b69c837d6d",
    "postalCode": 1184278220,
    "address": "492 Heath Place, Evergreen, Arkansas, 7907",
    "city": "Yogaville",
    "state": "Connecticut"
  },
  {
    "_id": "62d79bec68b36d23d263c19f",
    "postalCode": 8303621802,
    "address": "727 Bergen Court, Albany, Wyoming, 4320",
    "city": "Oley",
    "state": "Texas"
  },
  {
    "_id": "62d79bec16feb04d48f2b6d5",
    "postalCode": 3615977826,
    "address": "731 Aberdeen Street, Advance, New Jersey, 9599",
    "city": "Kula",
    "state": "Alaska"
  },
  {
    "_id": "62d79becbf8e4eafd5fea358",
    "postalCode": 3647818653,
    "address": "652 Gunnison Court, Gasquet, North Dakota, 5186",
    "city": "Glenbrook",
    "state": "Colorado"
  },
  {
    "_id": "62d79becda84e84012fae411",
    "postalCode": 6991277962,
    "address": "429 Lake Place, Libertytown, Marshall Islands, 5161",
    "city": "Richmond",
    "state": "Virgin Islands"
  },
  {
    "_id": "62d79bec7911a40724bf6d16",
    "postalCode": 5201596181,
    "address": "717 Veterans Avenue, Hiwasse, Washington, 6595",
    "city": "Hendersonville",
    "state": "Virginia"
  },
  {
    "_id": "62d79bec5162bb2bdec32932",
    "postalCode": 8335518068,
    "address": "565 Cypress Avenue, Brady, West Virginia, 2349",
    "city": "Rivereno",
    "state": "Palau"
  },
  {
    "_id": "62d79becc8f0ad6dff65e2c6",
    "postalCode": 5243783388,
    "address": "446 Carroll Street, Grill, New Hampshire, 6452",
    "city": "Malott",
    "state": "Massachusetts"
  },
  {
    "_id": "62d79becea2e54fd61725bd6",
    "postalCode": 2890740028,
    "address": "380 Nassau Street, Starks, New Mexico, 9212",
    "city": "Callaghan",
    "state": "Pennsylvania"
  },
  {
    "_id": "62d79beca435c9765bb9f249",
    "postalCode": 7536661764,
    "address": "126 Chester Avenue, Bloomington, Missouri, 8537",
    "city": "Bradenville",
    "state": "Nebraska"
  },
  {
    "_id": "62d79bec70f77e43c81eca62",
    "postalCode": 4570883790,
    "address": "619 Ross Street, Driftwood, Hawaii, 7889",
    "city": "Williamson",
    "state": "Indiana"
  },
  {
    "_id": "62d79bec72b0e7eabdce5eae",
    "postalCode": 7564555250,
    "address": "849 Pershing Loop, Seymour, District Of Columbia, 5538",
    "city": "Leola",
    "state": "Iowa"
  },
  {
    "_id": "62d79bec22b3064025931608",
    "postalCode": 5453162711,
    "address": "664 Fiske Place, Norvelt, Michigan, 7843",
    "city": "Coultervillle",
    "state": "Maryland"
  },
  {
    "_id": "62d79bec19c137e813d46a45",
    "postalCode": 7408672613,
    "address": "198 Alton Place, Belleview, Puerto Rico, 2893",
    "city": "Tuskahoma",
    "state": "Utah"
  },
  {
    "_id": "62d79bec6ba2409c6b94e5da",
    "postalCode": 2204536218,
    "address": "391 Woodbine Street, Baker, Louisiana, 6641",
    "city": "Ruckersville",
    "state": "Montana"
  },
  {
    "_id": "62d79bec9e22f6bbed4ceb45",
    "postalCode": 1467741936,
    "address": "185 Kosciusko Street, Marienthal, Delaware, 3743",
    "city": "Bynum",
    "state": "New York"
  },
  {
    "_id": "62d79bec1b92f4c2d19b8649",
    "postalCode": 4345983444,
    "address": "493 Kane Place, Woodruff, California, 7472",
    "city": "Bethany",
    "state": "Minnesota"
  },
  {
    "_id": "62d79bec615e0ff64a18557a",
    "postalCode": 8362102526,
    "address": "900 Lewis Place, Homeland, Vermont, 2010",
    "city": "Ventress",
    "state": "North Carolina"
  },
  {
    "_id": "62d79becf57c37f84edcc0bf",
    "postalCode": 8581398410,
    "address": "186 Juliana Place, Lewis, Northern Mariana Islands, 4720",
    "city": "Cannondale",
    "state": "Oregon"
  },
  {
    "_id": "62d79bec95a2cec139271699",
    "postalCode": 3392301408,
    "address": "427 Dunne Court, Floris, Rhode Island, 1703",
    "city": "Dowling",
    "state": "Guam"
  },
  {
    "_id": "62d79bec6294afa755735cb7",
    "postalCode": 8652955260,
    "address": "159 Oriental Court, Caspar, Federated States Of Micronesia, 5429",
    "city": "Rockhill",
    "state": "Ohio"
  },
  {
    "_id": "62d79becdfa96324e576af37",
    "postalCode": 6800103588,
    "address": "839 Miller Avenue, Eggertsville, Oklahoma, 1893",
    "city": "Crenshaw",
    "state": "Georgia"
  },
  {
    "_id": "62d79bec5f88997686822a55",
    "postalCode": 9344708010,
    "address": "281 Balfour Place, Interlochen, Kansas, 4535",
    "city": "Silkworth",
    "state": "Alabama"
  },
  {
    "_id": "62d79bec9e0dc17f90e02758",
    "postalCode": 9968010779,
    "address": "853 India Street, Williston, Idaho, 2848",
    "city": "Makena",
    "state": "Florida"
  },
  {
    "_id": "62d79bec935e6d7d29c20e61",
    "postalCode": 9226161733,
    "address": "764 Hicks Street, Cutter, Wisconsin, 628",
    "city": "Chaparrito",
    "state": "Illinois"
  },
  {
    "_id": "62d79becf90946048a2c794e",
    "postalCode": 4645720356,
    "address": "957 Fayette Street, Zarephath, Nevada, 4566",
    "city": "Worcester",
    "state": "Kentucky"
  },
  {
    "_id": "62d79becc8b69d1bd3a70456",
    "postalCode": 8935577452,
    "address": "609 Suydam Street, Bordelonville, Maine, 8988",
    "city": "Dyckesville",
    "state": "Arizona"
  },
  {
    "_id": "62d79bec1cc4dc1e0a6e6586",
    "postalCode": 5512774332,
    "address": "573 Adams Street, Tecolotito, American Samoa, 4704",
    "city": "Jessie",
    "state": "Tennessee"
  },
  {
    "_id": "62d79bec971a31ad5d32224d",
    "postalCode": 7157423482,
    "address": "253 Village Court, Deseret, South Carolina, 2665",
    "city": "Enetai",
    "state": "South Dakota"
  },
  {
    "_id": "62d79bec38cfb8ba7933e7fd",
    "postalCode": 4478061745,
    "address": "227 Chauncey Street, Kansas, Arkansas, 7769",
    "city": "Bancroft",
    "state": "Connecticut"
  },
  {
    "_id": "62d79bec27a2039091fa8439",
    "postalCode": 9367383590,
    "address": "525 Beacon Court, Rote, Wyoming, 648",
    "city": "Townsend",
    "state": "Texas"
  },
  {
    "_id": "62d79bec0d7bf029fa27d96b",
    "postalCode": 7287261142,
    "address": "680 Jackson Place, Shasta, New Jersey, 7557",
    "city": "Ferney",
    "state": "Alaska"
  },
  {
    "_id": "62d79bec4576b27d0ee42447",
    "postalCode": 6427068351,
    "address": "384 Luquer Street, Wattsville, North Dakota, 1666",
    "city": "Tilden",
    "state": "Colorado"
  },
  {
    "_id": "62d79bec13721c4a2fc98ccc",
    "postalCode": 6409256815,
    "address": "685 Macon Street, Wright, Marshall Islands, 7546",
    "city": "Marshall",
    "state": "Virgin Islands"
  },
  {
    "_id": "62d79bec78544eb0f5725fb7",
    "postalCode": 8546358861,
    "address": "214 Knight Court, Islandia, Washington, 9336",
    "city": "Vicksburg",
    "state": "Virginia"
  },
  {
    "_id": "62d79bec6eeca06631a4f13b",
    "postalCode": 8240806006,
    "address": "105 Cumberland Walk, Topaz, West Virginia, 9605",
    "city": "Wheatfields",
    "state": "Palau"
  },
  {
    "_id": "62d79bec52b6f640268a924f",
    "postalCode": 4055187328,
    "address": "549 Stryker Court, Stewartville, New Hampshire, 7290",
    "city": "Coaldale",
    "state": "Massachusetts"
  },
  {
    "_id": "62d79bec6cda51160d834131",
    "postalCode": 3132902625,
    "address": "494 Croton Loop, Highland, New Mexico, 1709",
    "city": "Farmers",
    "state": "Pennsylvania"
  },
  {
    "_id": "62d79becbeb60193174c6ada",
    "postalCode": 8276863877,
    "address": "608 Ferry Place, Ballico, Missouri, 2679",
    "city": "Independence",
    "state": "Nebraska"
  },
  {
    "_id": "62d79bece82a0e9dd9b56a38",
    "postalCode": 8429235243,
    "address": "295 Bay Street, Enoree, Hawaii, 5788",
    "city": "Sharon",
    "state": "Indiana"
  },
  {
    "_id": "62d79bec004dec022ff8a7e6",
    "postalCode": 6666858658,
    "address": "606 Chester Court, Springhill, District Of Columbia, 3579",
    "city": "Watrous",
    "state": "Iowa"
  },
  {
    "_id": "62d79becd3ff2791a2931446",
    "postalCode": 6247054977,
    "address": "712 Sands Street, Elliston, Michigan, 9703",
    "city": "Byrnedale",
    "state": "Maryland"
  },
  {
    "_id": "62d79bec9ec29f4db5ceb739",
    "postalCode": 1884540696,
    "address": "447 Stockholm Street, Bath, Puerto Rico, 2114",
    "city": "Onton",
    "state": "Utah"
  },
  {
    "_id": "62d79bec281ff7a668802c8c",
    "postalCode": 4632877966,
    "address": "943 Halsey Street, Waterford, Louisiana, 9101",
    "city": "Ryderwood",
    "state": "Montana"
  },
  {
    "_id": "62d79bec12c1853d60e59762",
    "postalCode": 2321849824,
    "address": "427 Clifford Place, Roulette, Delaware, 7089",
    "city": "Blende",
    "state": "New York"
  },
  {
    "_id": "62d79bec42ca613240231762",
    "postalCode": 3857402838,
    "address": "164 Nevins Street, Romeville, California, 6220",
    "city": "Rosewood",
    "state": "Minnesota"
  },
  {
    "_id": "62d79bec37e1ffc3d986d59a",
    "postalCode": 5564146813,
    "address": "800 Matthews Court, Chapin, Vermont, 3369",
    "city": "Brownsville",
    "state": "North Carolina"
  },
  {
    "_id": "62d79bec0d01e9f0efc6a5a0",
    "postalCode": 7827438130,
    "address": "399 Hampton Place, Frizzleburg, Northern Mariana Islands, 4062",
    "city": "Staples",
    "state": "Oregon"
  },
  {
    "_id": "62d79bec5b46d0fcb970a286",
    "postalCode": 6660622959,
    "address": "431 Hazel Court, Eureka, Rhode Island, 2488",
    "city": "Suitland",
    "state": "Guam"
  },
  {
    "_id": "62d79bec5bb270c8851460ae",
    "postalCode": 8081072213,
    "address": "597 Greene Avenue, Gordon, Federated States Of Micronesia, 8147",
    "city": "Summertown",
    "state": "Ohio"
  },
  {
    "_id": "62d79bec839c49d12e73b5c0",
    "postalCode": 6083054321,
    "address": "512 Narrows Avenue, Edenburg, Oklahoma, 3704",
    "city": "Carrsville",
    "state": "Georgia"
  },
  {
    "_id": "62d79bece1eec1e82ddb84a8",
    "postalCode": 5541774251,
    "address": "851 Veronica Place, Bethpage, Kansas, 8171",
    "city": "Foscoe",
    "state": "Alabama"
  },
  {
    "_id": "62d79beca7de96d16e373d38",
    "postalCode": 9048019337,
    "address": "596 Lincoln Avenue, Diaperville, Idaho, 9394",
    "city": "Machias",
    "state": "Florida"
  },
  {
    "_id": "62d79bec7db28dedd91b27e3",
    "postalCode": 3992090765,
    "address": "600 Dank Court, Waikele, Wisconsin, 7794",
    "city": "Matthews",
    "state": "Illinois"
  },
  {
    "_id": "62d79bec52d75e3572bb8a84",
    "postalCode": 2706492633,
    "address": "843 Newport Street, Connerton, Nevada, 7999",
    "city": "Bonanza",
    "state": "Kentucky"
  },
  {
    "_id": "62d79bec5ecf7a560a653ed6",
    "postalCode": 4597040655,
    "address": "814 Granite Street, Nicut, Maine, 7753",
    "city": "Crumpler",
    "state": "Arizona"
  },
  {
    "_id": "62d79bec3243e60dea0f1079",
    "postalCode": 5767009925,
    "address": "471 Alabama Avenue, Iola, American Samoa, 1833",
    "city": "Ribera",
    "state": "Tennessee"
  },
  {
    "_id": "62d79becd7a63358994167d8",
    "postalCode": 2117600215,
    "address": "595 Leonora Court, Longbranch, South Carolina, 4013",
    "city": "Gallina",
    "state": "South Dakota"
  },
  {
    "_id": "62d79bec77b91eb596140fb5",
    "postalCode": 1623055054,
    "address": "179 Lott Street, Sperryville, Arkansas, 3711",
    "city": "Coventry",
    "state": "Connecticut"
  },
  {
    "_id": "62d79beccc0f00706c4bba94",
    "postalCode": 7262826905,
    "address": "993 Irving Street, Blanco, Wyoming, 5913",
    "city": "Whitmer",
    "state": "Texas"
  },
  {
    "_id": "62d79bec8f23da9c35f4873d",
    "postalCode": 8492030302,
    "address": "756 Schermerhorn Street, Valle, New Jersey, 2820",
    "city": "Chelsea",
    "state": "Alaska"
  },
  {
    "_id": "62d79becee67f99bcdcb6f1a",
    "postalCode": 6349919805,
    "address": "938 Macdougal Street, Cucumber, North Dakota, 312",
    "city": "Garfield",
    "state": "Colorado"
  },
  {
    "_id": "62d79becf4029460266cebdf",
    "postalCode": 8307647607,
    "address": "861 Meeker Avenue, Barrelville, Marshall Islands, 1778",
    "city": "Balm",
    "state": "Virgin Islands"
  },
  {
    "_id": "62d79bec833c75f658b34c3d",
    "postalCode": 9071602342,
    "address": "419 Coyle Street, Fidelis, Washington, 3133",
    "city": "Greenock",
    "state": "Virginia"
  },
  {
    "_id": "62d79beca5c1dd36e6d16d44",
    "postalCode": 6854887908,
    "address": "123 Havemeyer Street, Indio, West Virginia, 4464",
    "city": "Saranap",
    "state": "Palau"
  },
  {
    "_id": "62d79bec6e84d4d4f05f36f3",
    "postalCode": 6233021769,
    "address": "385 Harrison Avenue, Allamuchy, New Hampshire, 3508",
    "city": "Greer",
    "state": "Massachusetts"
  },
  {
    "_id": "62d79bec6505d356c87980c0",
    "postalCode": 2324392453,
    "address": "875 Kent Avenue, Jardine, New Mexico, 1073",
    "city": "Defiance",
    "state": "Pennsylvania"
  },
  {
    "_id": "62d79becf21d0f67dc49bc00",
    "postalCode": 4827187234,
    "address": "915 Troy Avenue, Gilmore, Missouri, 5198",
    "city": "Grazierville",
    "state": "Nebraska"
  },
  {
    "_id": "62d79beca690ecde512e6d01",
    "postalCode": 5981320878,
    "address": "347 Girard Street, Torboy, Hawaii, 7587",
    "city": "Oberlin",
    "state": "Indiana"
  },
  {
    "_id": "62d79bec0de50105b2f11694",
    "postalCode": 2910587424,
    "address": "867 Harman Street, Mulino, District Of Columbia, 5310",
    "city": "Trail",
    "state": "Iowa"
  },
  {
    "_id": "62d79bec8e16f6959411ec62",
    "postalCode": 6931786957,
    "address": "814 Olive Street, Vandiver, Michigan, 7280",
    "city": "Lindisfarne",
    "state": "Maryland"
  },
  {
    "_id": "62d79becd646af45539029e7",
    "postalCode": 4962921078,
    "address": "527 Thatford Avenue, Dubois, Puerto Rico, 578",
    "city": "Imperial",
    "state": "Utah"
  },
  {
    "_id": "62d79beceab10ec7c0283786",
    "postalCode": 7988082218,
    "address": "637 Beadel Street, Weogufka, Louisiana, 5571",
    "city": "Nipinnawasee",
    "state": "Montana"
  },
  {
    "_id": "62d79bec0c5fad4ed82cd8d1",
    "postalCode": 7152162548,
    "address": "877 Melrose Street, Fostoria, Delaware, 8926",
    "city": "Ola",
    "state": "New York"
  },
  {
    "_id": "62d79bec3f0bae58835d93b5",
    "postalCode": 8060015707,
    "address": "236 Holt Court, Shindler, California, 8304",
    "city": "Homestead",
    "state": "Minnesota"
  },
  {
    "_id": "62d79bec83dfe4575eca58e8",
    "postalCode": 7474483732,
    "address": "521 Moultrie Street, Watchtower, Vermont, 1233",
    "city": "Konterra",
    "state": "North Carolina"
  },
  {
    "_id": "62d79becc7624680d2ec6f6d",
    "postalCode": 6335518248,
    "address": "562 Homecrest Court, Titanic, Northern Mariana Islands, 2389",
    "city": "Gilgo",
    "state": "Oregon"
  },
  {
    "_id": "62d79bec985a52517d7d28ce",
    "postalCode": 6805363275,
    "address": "358 Wortman Avenue, Caroline, Rhode Island, 2966",
    "city": "Twilight",
    "state": "Guam"
  },
  {
    "_id": "62d79becd3183bb037e7e5a9",
    "postalCode": 8941717000,
    "address": "485 Moore Place, Cumminsville, Federated States Of Micronesia, 1370",
    "city": "Sunnyside",
    "state": "Ohio"
  },
  {
    "_id": "62d79beca8d07e08eea19981",
    "postalCode": 6675839152,
    "address": "394 Ebony Court, Jugtown, Oklahoma, 2771",
    "city": "Sanborn",
    "state": "Georgia"
  },
  {
    "_id": "62d79becb3ffacd7e1cba3d9",
    "postalCode": 9370123160,
    "address": "477 Coles Street, Jamestown, Kansas, 2858",
    "city": "Spelter",
    "state": "Alabama"
  },
  {
    "_id": "62d79bec57d1beffa808046c",
    "postalCode": 5415320765,
    "address": "688 Covert Street, Boonville, Idaho, 2565",
    "city": "Chase",
    "state": "Florida"
  },
  {
    "_id": "62d79becfda11faf7b74c9cb",
    "postalCode": 6049701838,
    "address": "676 Ruby Street, Alafaya, Wisconsin, 3503",
    "city": "Frank",
    "state": "Illinois"
  },
  {
    "_id": "62d79beca8ec15ac5281780e",
    "postalCode": 9514231220,
    "address": "912 Poplar Street, Robinette, Nevada, 1129",
    "city": "Fairmount",
    "state": "Kentucky"
  },
  {
    "_id": "62d79bec108ac81d608064a4",
    "postalCode": 7563839317,
    "address": "783 Norfolk Street, Cochranville, Maine, 2856",
    "city": "Deltaville",
    "state": "Arizona"
  },
  {
    "_id": "62d79bec5db91032e8d75979",
    "postalCode": 8304208261,
    "address": "784 Montague Terrace, Muir, American Samoa, 1315",
    "city": "Riverton",
    "state": "Tennessee"
  },
  {
    "_id": "62d79beccc92cb4d3a1b6654",
    "postalCode": 5500041576,
    "address": "648 Bristol Street, Idamay, South Carolina, 1957",
    "city": "Drytown",
    "state": "South Dakota"
  },
  {
    "_id": "62d79bec6fc14ba5300dc6b1",
    "postalCode": 7519369229,
    "address": "300 Cleveland Street, Allensworth, Arkansas, 4392",
    "city": "Genoa",
    "state": "Connecticut"
  },
  {
    "_id": "62d79becd261c44ab566b0f2",
    "postalCode": 5896015549,
    "address": "899 Senator Street, Newry, Wyoming, 5105",
    "city": "Columbus",
    "state": "Texas"
  },
  {
    "_id": "62d79becc9769559b1d921e1",
    "postalCode": 6706095110,
    "address": "951 President Street, Emory, New Jersey, 3108",
    "city": "Lookingglass",
    "state": "Alaska"
  },
  {
    "_id": "62d79bec1f54aa672bb8a2ac",
    "postalCode": 3644122154,
    "address": "862 Hancock Street, Teasdale, North Dakota, 6780",
    "city": "Caln",
    "state": "Colorado"
  },
  {
    "_id": "62d79bec8605d8bbeaca9fa3",
    "postalCode": 2607602753,
    "address": "257 Herkimer Street, Chesapeake, Marshall Islands, 5738",
    "city": "Newcastle",
    "state": "Virgin Islands"
  },
  {
    "_id": "62d79bec2936c0a00d4b49e1",
    "postalCode": 3870018538,
    "address": "480 Harbor Lane, Snowville, Washington, 8930",
    "city": "Welda",
    "state": "Virginia"
  },
  {
    "_id": "62d79bec3dfdcf424cb63593",
    "postalCode": 9651315850,
    "address": "125 Middleton Street, Conway, West Virginia, 3001",
    "city": "Glenville",
    "state": "Palau"
  },
  {
    "_id": "62d79bec9878213fb659cd2e",
    "postalCode": 3105320346,
    "address": "271 Baltic Street, Washington, New Hampshire, 6000",
    "city": "Cavalero",
    "state": "Massachusetts"
  },
  {
    "_id": "62d79becb212b9343e41b1d2",
    "postalCode": 1517889222,
    "address": "398 Lee Avenue, Munjor, New Mexico, 2948",
    "city": "Devon",
    "state": "Pennsylvania"
  },
  {
    "_id": "62d79bec4781b53c37d44568",
    "postalCode": 4537567034,
    "address": "824 Powell Street, Turah, Missouri, 7696",
    "city": "Dexter",
    "state": "Nebraska"
  },
  {
    "_id": "62d79bec8a57f91cfe1934ff",
    "postalCode": 3431586476,
    "address": "618 Kenilworth Place, Blue, Hawaii, 1960",
    "city": "Savage",
    "state": "Indiana"
  },
  {
    "_id": "62d79becd39c9e104167b5b5",
    "postalCode": 9234492023,
    "address": "780 Dean Street, Leming, District Of Columbia, 1108",
    "city": "Warren",
    "state": "Iowa"
  },
  {
    "_id": "62d79bec30155fce71dea6d7",
    "postalCode": 7894215456,
    "address": "613 Cadman Plaza, Chalfant, Michigan, 4160",
    "city": "Rockbridge",
    "state": "Maryland"
  },
  {
    "_id": "62d79bec95acef14cef47114",
    "postalCode": 8180410186,
    "address": "218 Malta Street, Calverton, Puerto Rico, 2280",
    "city": "Lisco",
    "state": "Utah"
  },
  {
    "_id": "62d79bec14323ddde60369d0",
    "postalCode": 3865120012,
    "address": "115 Provost Street, Cornucopia, Louisiana, 8473",
    "city": "Brethren",
    "state": "Montana"
  },
  {
    "_id": "62d79bec8e678ce4a87d1089",
    "postalCode": 9314319758,
    "address": "339 Wilson Avenue, Falmouth, Delaware, 6507",
    "city": "Richford",
    "state": "New York"
  },
  {
    "_id": "62d79bec327b1e2bd423f1b6",
    "postalCode": 6048744376,
    "address": "680 Beayer Place, Hachita, California, 2761",
    "city": "Stollings",
    "state": "Minnesota"
  },
  {
    "_id": "62d79becf72b079bc96a2599",
    "postalCode": 7070033468,
    "address": "664 Woodhull Street, Bakersville, Vermont, 2704",
    "city": "Navarre",
    "state": "North Carolina"
  },
  {
    "_id": "62d79bec85b6d46a16ee843a",
    "postalCode": 3954309679,
    "address": "374 Porter Avenue, Lopezo, Northern Mariana Islands, 5106",
    "city": "Bendon",
    "state": "Oregon"
  },
  {
    "_id": "62d79bec59280461123eb7fb",
    "postalCode": 2112045661,
    "address": "171 Duryea Place, Hemlock, Rhode Island, 4003",
    "city": "Barronett",
    "state": "Guam"
  },
  {
    "_id": "62d79bec24922773c7d8aae7",
    "postalCode": 1183541174,
    "address": "856 Kermit Place, Edmund, Federated States Of Micronesia, 4493",
    "city": "Kingstowne",
    "state": "Ohio"
  },
  {
    "_id": "62d79bec02d092875c56dcbe",
    "postalCode": 9722509031,
    "address": "469 Mermaid Avenue, Veyo, Oklahoma, 2159",
    "city": "Salix",
    "state": "Georgia"
  },
  {
    "_id": "62d79becd0681466a3743b1c",
    "postalCode": 6034235756,
    "address": "716 Frost Street, Basye, Kansas, 8939",
    "city": "Chicopee",
    "state": "Alabama"
  },
  {
    "_id": "62d79bec83d770f841dc4ec6",
    "postalCode": 9432782347,
    "address": "431 Ainslie Street, Lavalette, Idaho, 3036",
    "city": "Snyderville",
    "state": "Florida"
  },
  {
    "_id": "62d79beca31049f6a5b8f4b2",
    "postalCode": 7365106134,
    "address": "425 Engert Avenue, Neahkahnie, Wisconsin, 5532",
    "city": "Nadine",
    "state": "Illinois"
  },
  {
    "_id": "62d79becefbfb44b901e6ea4",
    "postalCode": 3904621070,
    "address": "297 Victor Road, Denio, Nevada, 5604",
    "city": "Bladensburg",
    "state": "Kentucky"
  },
  {
    "_id": "62d79bec7a42a065f1e6eeca",
    "postalCode": 3241961098,
    "address": "743 Emerson Place, Guthrie, Maine, 4034",
    "city": "Catherine",
    "state": "Arizona"
  },
  {
    "_id": "62d79becca590d237862085b",
    "postalCode": 2604735433,
    "address": "906 Arion Place, Chautauqua, American Samoa, 7458",
    "city": "Kenmar",
    "state": "Tennessee"
  },
  {
    "_id": "62d79bec44df1a228ea2bc5b",
    "postalCode": 3276058676,
    "address": "996 Amber Street, Dunlo, South Carolina, 4312",
    "city": "Chemung",
    "state": "South Dakota"
  },
  {
    "_id": "62d79bec8bbbdd50868e1450",
    "postalCode": 6266184667,
    "address": "639 Imlay Street, Hondah, Arkansas, 9884",
    "city": "Lupton",
    "state": "Connecticut"
  },
  {
    "_id": "62d79becb2da7bbe1dd17c77",
    "postalCode": 1647020994,
    "address": "732 Will Place, Northchase, Wyoming, 9228",
    "city": "Goldfield",
    "state": "Texas"
  },
  {
    "_id": "62d79becea61df8e11899212",
    "postalCode": 9523298265,
    "address": "172 Lawrence Avenue, Kylertown, New Jersey, 6029",
    "city": "Nelson",
    "state": "Alaska"
  },
  {
    "_id": "62d79bec80a4b6ed9dbeac9c",
    "postalCode": 7871777841,
    "address": "985 Lois Avenue, Gulf, North Dakota, 3304",
    "city": "Churchill",
    "state": "Colorado"
  },
  {
    "_id": "62d79becdf11b577eacb6bdc",
    "postalCode": 8468287568,
    "address": "650 Rutland Road, Nash, Marshall Islands, 8893",
    "city": "Websterville",
    "state": "Virgin Islands"
  },
  {
    "_id": "62d79bec4dd2ece8f2236b51",
    "postalCode": 1705566370,
    "address": "527 Conselyea Street, Chloride, Washington, 7268",
    "city": "Yorklyn",
    "state": "Virginia"
  },
  {
    "_id": "62d79bec997d9485d0f496d3",
    "postalCode": 6141165088,
    "address": "462 Green Street, Forbestown, West Virginia, 5094",
    "city": "Camptown",
    "state": "Palau"
  },
  {
    "_id": "62d79bec43b1025a735bb8b6",
    "postalCode": 2678610469,
    "address": "114 Newkirk Placez, Elwood, New Hampshire, 3443",
    "city": "Weedville",
    "state": "Massachusetts"
  },
  {
    "_id": "62d79bec926f15319f78c25f",
    "postalCode": 1424605714,
    "address": "118 Fleet Place, Motley, New Mexico, 8888",
    "city": "Kirk",
    "state": "Pennsylvania"
  },
  {
    "_id": "62d79bec2a5cc4ec1270c554",
    "postalCode": 6709309374,
    "address": "798 Canda Avenue, Broadlands, Missouri, 9900",
    "city": "Whitestone",
    "state": "Nebraska"
  },
  {
    "_id": "62d79becd3ac3e92294d696b",
    "postalCode": 8628545338,
    "address": "914 Elm Avenue, Warsaw, Hawaii, 5481",
    "city": "Urbana",
    "state": "Indiana"
  },
  {
    "_id": "62d79bec757e4168e81ff155",
    "postalCode": 1149883327,
    "address": "802 Bedell Lane, Boyd, District Of Columbia, 7455",
    "city": "Stouchsburg",
    "state": "Iowa"
  },
  {
    "_id": "62d79bec8762dd8ca89e4435",
    "postalCode": 8846245498,
    "address": "254 Bedford Place, Disautel, Michigan, 4966",
    "city": "Cloverdale",
    "state": "Maryland"
  },
  {
    "_id": "62d79bec5cfad007b3e6b6cd",
    "postalCode": 5810479667,
    "address": "391 Chester Street, Frystown, Puerto Rico, 5088",
    "city": "Terlingua",
    "state": "Utah"
  },
  {
    "_id": "62d79becfff1b32109565c72",
    "postalCode": 3995648519,
    "address": "757 Tillary Street, Carbonville, Louisiana, 3837",
    "city": "Loretto",
    "state": "Montana"
  },
  {
    "_id": "62d79bec0e08568c8749d6a1",
    "postalCode": 7702669579,
    "address": "424 Applegate Court, Herlong, Delaware, 6812",
    "city": "Cade",
    "state": "New York"
  },
  {
    "_id": "62d79bec1f9c877d679dc95f",
    "postalCode": 5990034907,
    "address": "588 Story Street, Odessa, California, 9422",
    "city": "Brambleton",
    "state": "Minnesota"
  },
  {
    "_id": "62d79bec1900b9c4d256c3ee",
    "postalCode": 9946468111,
    "address": "929 Windsor Place, Bainbridge, Vermont, 459",
    "city": "Masthope",
    "state": "North Carolina"
  },
  {
    "_id": "62d79bec1cf6bdb601b1c173",
    "postalCode": 5433585112,
    "address": "107 McClancy Place, Canterwood, Northern Mariana Islands, 2574",
    "city": "Wanamie",
    "state": "Oregon"
  },
  {
    "_id": "62d79bec554e5526522e44e6",
    "postalCode": 2144441155,
    "address": "995 Waldorf Court, Bowmansville, Rhode Island, 9819",
    "city": "Ticonderoga",
    "state": "Guam"
  },
  {
    "_id": "62d79becc30bf20eaef38c3b",
    "postalCode": 3170872506,
    "address": "873 Fair Street, Fannett, Federated States Of Micronesia, 7085",
    "city": "Dennard",
    "state": "Ohio"
  },
  {
    "_id": "62d79becd1484f72b70e9ae1",
    "postalCode": 1611917271,
    "address": "229 Legion Street, Greensburg, Oklahoma, 9188",
    "city": "Edneyville",
    "state": "Georgia"
  },
  {
    "_id": "62d79beca12a649b27d78685",
    "postalCode": 2609256072,
    "address": "490 Hemlock Street, Windsor, Kansas, 6380",
    "city": "Kerby",
    "state": "Alabama"
  },
  {
    "_id": "62d79bec1c8c6d93aba9c407",
    "postalCode": 7466715473,
    "address": "110 Pierrepont Place, Shepardsville, Idaho, 1928",
    "city": "Graball",
    "state": "Florida"
  },
  {
    "_id": "62d79becd1173bcdece65947",
    "postalCode": 1380277442,
    "address": "406 Rugby Road, Franklin, Wisconsin, 3632",
    "city": "Wescosville",
    "state": "Illinois"
  },
  {
    "_id": "62d79beccb9d4695f8046d6a",
    "postalCode": 6781709880,
    "address": "800 Hubbard Place, Juntura, Nevada, 1722",
    "city": "Taycheedah",
    "state": "Kentucky"
  },
  {
    "_id": "62d79bec89d40216763e440a",
    "postalCode": 6717716856,
    "address": "569 Dahill Road, Rowe, Maine, 3280",
    "city": "Charco",
    "state": "Arizona"
  },
  {
    "_id": "62d79beccbbc9c0aafee655c",
    "postalCode": 5386527298,
    "address": "741 Jamaica Avenue, Aurora, American Samoa, 9480",
    "city": "Herbster",
    "state": "Tennessee"
  },
  {
    "_id": "62d79becc8e96a919a8f0099",
    "postalCode": 9713232217,
    "address": "791 Montana Place, Biddle, South Carolina, 6660",
    "city": "Galesville",
    "state": "South Dakota"
  },
  {
    "_id": "62d79becebc96e41bdbcbcc3",
    "postalCode": 9954657046,
    "address": "279 Diamond Street, Grayhawk, Arkansas, 5145",
    "city": "Salvo",
    "state": "Connecticut"
  },
  {
    "_id": "62d79becbf1453b8a686cbdd",
    "postalCode": 5500910536,
    "address": "858 Eldert Street, Fairlee, Wyoming, 1024",
    "city": "Summerfield",
    "state": "Texas"
  },
  {
    "_id": "62d79bec7ed6841054825fc9",
    "postalCode": 4880314117,
    "address": "365 Ridge Court, Strong, New Jersey, 6454",
    "city": "Bodega",
    "state": "Alaska"
  },
  {
    "_id": "62d79becb0b0ce7218ee7cd8",
    "postalCode": 1126781422,
    "address": "728 Polar Street, Loyalhanna, North Dakota, 6073",
    "city": "Collins",
    "state": "Colorado"
  },
  {
    "_id": "62d79beca79b308cca40bfb4",
    "postalCode": 9521829848,
    "address": "643 Landis Court, Linganore, Marshall Islands, 6153",
    "city": "Deercroft",
    "state": "Virgin Islands"
  },
  {
    "_id": "62d79bec9e5e71dd8a55252b",
    "postalCode": 1207599216,
    "address": "507 Clermont Avenue, Umapine, Washington, 4794",
    "city": "Hasty",
    "state": "Virginia"
  },
  {
    "_id": "62d79bec57a8704e2217001f",
    "postalCode": 3476443426,
    "address": "683 Vandam Street, Kenwood, West Virginia, 7982",
    "city": "Marion",
    "state": "Palau"
  },
  {
    "_id": "62d79becebefa92b005b401f",
    "postalCode": 9687115457,
    "address": "848 Falmouth Street, Grenelefe, New Hampshire, 2617",
    "city": "Gambrills",
    "state": "Massachusetts"
  },
  {
    "_id": "62d79bec04c65a2f0777d7ff",
    "postalCode": 9283438713,
    "address": "786 Amity Street, Curtice, New Mexico, 9465",
    "city": "Harleigh",
    "state": "Pennsylvania"
  },
  {
    "_id": "62d79bec134a0c514dab781c",
    "postalCode": 3262889551,
    "address": "362 Visitation Place, Yettem, Missouri, 6575",
    "city": "Grandview",
    "state": "Nebraska"
  },
  {
    "_id": "62d79bec70333d18bed815e6",
    "postalCode": 9875887174,
    "address": "286 Coleridge Street, Orin, Hawaii, 9888",
    "city": "Needmore",
    "state": "Indiana"
  },
  {
    "_id": "62d79beca030233836d37688",
    "postalCode": 9942694709,
    "address": "688 Adler Place, Keyport, District Of Columbia, 4946",
    "city": "Dana",
    "state": "Iowa"
  },
  {
    "_id": "62d79bec8a83776077c1d2af",
    "postalCode": 9661628594,
    "address": "226 Dewey Place, Haring, Michigan, 161",
    "city": "Norris",
    "state": "Maryland"
  },
  {
    "_id": "62d79bec68bd59876025f5c1",
    "postalCode": 7859874380,
    "address": "390 Hyman Court, Ruffin, Puerto Rico, 335",
    "city": "Morningside",
    "state": "Utah"
  },
  {
    "_id": "62d79becb839304170e6a7d7",
    "postalCode": 4992289824,
    "address": "878 Seba Avenue, Magnolia, Louisiana, 2575",
    "city": "Ona",
    "state": "Montana"
  },
  {
    "_id": "62d79bec8569f826f2a1db69",
    "postalCode": 3372331945,
    "address": "997 Arlington Avenue, Wintersburg, Delaware, 7621",
    "city": "Detroit",
    "state": "New York"
  },
  {
    "_id": "62d79bec1603c906f54c9a7b",
    "postalCode": 9790324305,
    "address": "815 Scott Avenue, Darrtown, California, 7160",
    "city": "Boykin",
    "state": "Minnesota"
  },
  {
    "_id": "62d79becd7446c8e32a9af0d",
    "postalCode": 9935298690,
    "address": "326 Crescent Street, Bison, Vermont, 3086",
    "city": "Falconaire",
    "state": "North Carolina"
  },
  {
    "_id": "62d79becf1e14d92fa582bbe",
    "postalCode": 1392805701,
    "address": "462 Noll Street, Groton, Northern Mariana Islands, 4578",
    "city": "Dodge",
    "state": "Oregon"
  },
  {
    "_id": "62d79becb2ec82e93699276e",
    "postalCode": 4389908969,
    "address": "395 Harden Street, Abrams, Rhode Island, 360",
    "city": "Hayes",
    "state": "Guam"
  },
  {
    "_id": "62d79becb9d9cabb4b6d6b06",
    "postalCode": 9933520287,
    "address": "312 Newkirk Avenue, Davenport, Federated States Of Micronesia, 2832",
    "city": "Manchester",
    "state": "Ohio"
  },
  {
    "_id": "62d79bec0945bb41ef1b4af0",
    "postalCode": 1634307429,
    "address": "145 Strauss Street, Williams, Oklahoma, 2647",
    "city": "Dalton",
    "state": "Georgia"
  },
  {
    "_id": "62d79becd5f56f6b3b2c174a",
    "postalCode": 7118148013,
    "address": "848 Turnbull Avenue, Vivian, Kansas, 2141",
    "city": "Boling",
    "state": "Alabama"
  },
  {
    "_id": "62d79becb570f1f37e340aa6",
    "postalCode": 3245191536,
    "address": "444 Broadway , Fresno, Idaho, 8362",
    "city": "Kanauga",
    "state": "Florida"
  },
  {
    "_id": "62d79becc346abfb456b0bba",
    "postalCode": 7745433007,
    "address": "278 Huntington Street, Alfarata, Wisconsin, 243",
    "city": "Utting",
    "state": "Illinois"
  },
  {
    "_id": "62d79becf82c0d02361d95ec",
    "postalCode": 5292516616,
    "address": "326 Martense Street, Catharine, Nevada, 4871",
    "city": "Greenfields",
    "state": "Kentucky"
  },
  {
    "_id": "62d79bec99fdaec00711cd95",
    "postalCode": 6832229176,
    "address": "907 Banner Avenue, Bluetown, Maine, 6146",
    "city": "Loma",
    "state": "Arizona"
  },
  {
    "_id": "62d79bec14adcf94becef2da",
    "postalCode": 5915852618,
    "address": "950 Poly Place, Greenwich, American Samoa, 3476",
    "city": "Calpine",
    "state": "Tennessee"
  },
  {
    "_id": "62d79becd23118e04a26b51c",
    "postalCode": 9964782006,
    "address": "157 Dunne Place, Wanship, South Carolina, 7128",
    "city": "Lydia",
    "state": "South Dakota"
  },
  {
    "_id": "62d79becaaf5c4156068aed2",
    "postalCode": 8840304643,
    "address": "200 Herkimer Court, Idledale, Arkansas, 1245",
    "city": "Olney",
    "state": "Connecticut"
  },
  {
    "_id": "62d79bec35d86a922b1edf75",
    "postalCode": 1206160801,
    "address": "548 Nova Court, Aguila, Wyoming, 9101",
    "city": "Sparkill",
    "state": "Texas"
  },
  {
    "_id": "62d79bec26f7449bb85b5ca2",
    "postalCode": 2471963757,
    "address": "196 Albany Avenue, Cedarville, New Jersey, 5295",
    "city": "Harborton",
    "state": "Alaska"
  },
  {
    "_id": "62d79becac6c8fa6ae3fba93",
    "postalCode": 2715543702,
    "address": "470 Varanda Place, Hardyville, North Dakota, 1289",
    "city": "Wedgewood",
    "state": "Colorado"
  },
  {
    "_id": "62d79bec2b71d0d653a58dcb",
    "postalCode": 3790509157,
    "address": "682 Pacific Street, Lorraine, Marshall Islands, 5886",
    "city": "Gwynn",
    "state": "Virgin Islands"
  },
  {
    "_id": "62d79bec94f7772772b0c872",
    "postalCode": 3948229689,
    "address": "476 Delevan Street, Swartzville, Washington, 1584",
    "city": "Hanover",
    "state": "Virginia"
  },
  {
    "_id": "62d79bec944a6a2077e4a8ef",
    "postalCode": 1539816437,
    "address": "226 Taylor Street, Ernstville, West Virginia, 9634",
    "city": "Verdi",
    "state": "Palau"
  },
  {
    "_id": "62d79bec39ec5cbca9037442",
    "postalCode": 3533033941,
    "address": "801 Claver Place, Hinsdale, New Hampshire, 2828",
    "city": "Tilleda",
    "state": "Massachusetts"
  },
  {
    "_id": "62d79becec0c344bf502b893",
    "postalCode": 8575751452,
    "address": "259 Everett Avenue, Gerber, New Mexico, 5000",
    "city": "Haena",
    "state": "Pennsylvania"
  },
  {
    "_id": "62d79bec3a114a894f944bc6",
    "postalCode": 4507512830,
    "address": "238 Barwell Terrace, Mayfair, Missouri, 7167",
    "city": "Helen",
    "state": "Nebraska"
  },
  {
    "_id": "62d79becdad423a8c39980fe",
    "postalCode": 9516009107,
    "address": "846 Lloyd Street, Rehrersburg, Hawaii, 8618",
    "city": "Bridgetown",
    "state": "Indiana"
  },
  {
    "_id": "62d79bec188b5865d87893e2",
    "postalCode": 3826779802,
    "address": "881 Bancroft Place, Shelby, District Of Columbia, 680",
    "city": "Statenville",
    "state": "Iowa"
  },
  {
    "_id": "62d79bec512bcd26f42448ca",
    "postalCode": 1664897492,
    "address": "929 Mill Road, Bennett, Michigan, 3148",
    "city": "Coalmont",
    "state": "Maryland"
  },
  {
    "_id": "62d79bec5c650b2371ca6ebf",
    "postalCode": 3590386773,
    "address": "480 Nassau Avenue, Lowell, Puerto Rico, 9860",
    "city": "Vaughn",
    "state": "Utah"
  },
  {
    "_id": "62d79bec79a173db2cee5e1b",
    "postalCode": 2215263307,
    "address": "620 Gilmore Court, Limestone, Louisiana, 1108",
    "city": "Hailesboro",
    "state": "Montana"
  },
  {
    "_id": "62d79bec8935eaf85e34b272",
    "postalCode": 5585499681,
    "address": "738 Orange Street, Why, Delaware, 4735",
    "city": "Babb",
    "state": "New York"
  },
  {
    "_id": "62d79bec5fe9f32785857bff",
    "postalCode": 2298969873,
    "address": "185 Winthrop Street, Clinton, California, 1693",
    "city": "Whitewater",
    "state": "Minnesota"
  },
  {
    "_id": "62d79becf34c0557302db390",
    "postalCode": 1778770556,
    "address": "439 Eastern Parkway, Holcombe, Vermont, 5130",
    "city": "Glidden",
    "state": "North Carolina"
  },
  {
    "_id": "62d79bec6dc3dfca03245704",
    "postalCode": 4999742328,
    "address": "762 Nolans Lane, Somerset, Northern Mariana Islands, 8519",
    "city": "Orviston",
    "state": "Oregon"
  },
  {
    "_id": "62d79bec599a58cf93700f6f",
    "postalCode": 2705623517,
    "address": "706 Remsen Street, Walker, Rhode Island, 8772",
    "city": "Ebro",
    "state": "Guam"
  },
  {
    "_id": "62d79bec9369b0318acf8a7d",
    "postalCode": 2777898165,
    "address": "111 Joval Court, Healy, Federated States Of Micronesia, 6157",
    "city": "Westmoreland",
    "state": "Ohio"
  },
  {
    "_id": "62d79bec79cfa48778435aa5",
    "postalCode": 3239948264,
    "address": "930 Dahlgreen Place, Avalon, Oklahoma, 651",
    "city": "Roeville",
    "state": "Georgia"
  },
  {
    "_id": "62d79bec0c5b4641b643e1e9",
    "postalCode": 8532671039,
    "address": "216 Bayard Street, Forestburg, Kansas, 9973",
    "city": "Rockingham",
    "state": "Alabama"
  },
  {
    "_id": "62d79becd193f384a289c12d",
    "postalCode": 3658902634,
    "address": "383 Monument Walk, Vowinckel, Idaho, 9439",
    "city": "Gibbsville",
    "state": "Florida"
  },
  {
    "_id": "62d79bec093b2ab33230af8a",
    "postalCode": 3909619073,
    "address": "657 Osborn Street, Geyserville, Wisconsin, 3663",
    "city": "Graniteville",
    "state": "Illinois"
  },
  {
    "_id": "62d79bec7bd727ce1f570f68",
    "postalCode": 9382961074,
    "address": "884 Adelphi Street, Trucksville, Nevada, 5913",
    "city": "Bellamy",
    "state": "Kentucky"
  },
  {
    "_id": "62d79bec42812830fb88376b",
    "postalCode": 6479579403,
    "address": "582 Pooles Lane, Freetown, Maine, 1907",
    "city": "Kenvil",
    "state": "Arizona"
  },
  {
    "_id": "62d79bec3c1171ba02ad49f4",
    "postalCode": 6855571608,
    "address": "670 Delmonico Place, Kohatk, American Samoa, 5055",
    "city": "Derwood",
    "state": "Tennessee"
  },
  {
    "_id": "62d79becdfdc77646596d1d8",
    "postalCode": 1551466320,
    "address": "520 Guider Avenue, Westphalia, South Carolina, 9619",
    "city": "Dotsero",
    "state": "South Dakota"
  },
  {
    "_id": "62d79becb76cac006c7ec364",
    "postalCode": 3206515955,
    "address": "298 Fane Court, Sidman, Arkansas, 111",
    "city": "Adamstown",
    "state": "Connecticut"
  },
  {
    "_id": "62d79becd8b1fa3cd94999af",
    "postalCode": 9117984480,
    "address": "808 Cooper Street, Bartley, Wyoming, 7200",
    "city": "Gardiner",
    "state": "Texas"
  },
  {
    "_id": "62d79bec264631e580812fee",
    "postalCode": 7220990573,
    "address": "827 Madoc Avenue, Irwin, New Jersey, 6179",
    "city": "Croom",
    "state": "Alaska"
  },
  {
    "_id": "62d79bec57bdd62ec8721b65",
    "postalCode": 2433021448,
    "address": "356 Central Avenue, Marenisco, North Dakota, 1767",
    "city": "Sutton",
    "state": "Colorado"
  },
  {
    "_id": "62d79beca3f9ab764850853f",
    "postalCode": 4542248664,
    "address": "645 Hill Street, Templeton, Marshall Islands, 1937",
    "city": "Cornfields",
    "state": "Virgin Islands"
  },
  {
    "_id": "62d79bec3db6481fffe366d3",
    "postalCode": 7356868707,
    "address": "445 Empire Boulevard, Allison, Washington, 3783",
    "city": "Lafferty",
    "state": "Virginia"
  },
  {
    "_id": "62d79becfe5c6e07fa77cab8",
    "postalCode": 9757280120,
    "address": "229 Woodside Avenue, Gorham, West Virginia, 6938",
    "city": "Berwind",
    "state": "Palau"
  },
  {
    "_id": "62d79bec59d8511e7d000939",
    "postalCode": 8450402649,
    "address": "868 Scholes Street, Otranto, New Hampshire, 1986",
    "city": "Rosine",
    "state": "Massachusetts"
  },
  {
    "_id": "62d79bec39fa81cc6adca812",
    "postalCode": 5198608261,
    "address": "472 Sumpter Street, Jacksonwald, New Mexico, 2519",
    "city": "Campo",
    "state": "Pennsylvania"
  },
  {
    "_id": "62d79bec03563bc81089f158",
    "postalCode": 1907652508,
    "address": "510 Gallatin Place, Benson, Missouri, 9908",
    "city": "Ripley",
    "state": "Nebraska"
  },
  {
    "_id": "62d79bec9f14248a0297f0f9",
    "postalCode": 2111529725,
    "address": "761 Independence Avenue, Bergoo, Hawaii, 4919",
    "city": "Condon",
    "state": "Indiana"
  },
  {
    "_id": "62d79bec2654821a0ba9b327",
    "postalCode": 6550366885,
    "address": "991 Hawthorne Street, Rew, District Of Columbia, 3264",
    "city": "Sardis",
    "state": "Iowa"
  },
  {
    "_id": "62d79bec8e12358766334c30",
    "postalCode": 5567305553,
    "address": "727 Grove Place, Albrightsville, Michigan, 3798",
    "city": "Sussex",
    "state": "Maryland"
  },
  {
    "_id": "62d79becda5f52b55642f24b",
    "postalCode": 8103639000,
    "address": "259 Highland Boulevard, Mammoth, Puerto Rico, 5431",
    "city": "Nanafalia",
    "state": "Utah"
  },
  {
    "_id": "62d79beced3552ea1644b1c9",
    "postalCode": 6115441634,
    "address": "220 Montauk Court, Tetherow, Louisiana, 4385",
    "city": "Maplewood",
    "state": "Montana"
  },
  {
    "_id": "62d79becff1133215ed1ec98",
    "postalCode": 1984544359,
    "address": "536 Lenox Road, Hoagland, Delaware, 3454",
    "city": "Trexlertown",
    "state": "New York"
  },
  {
    "_id": "62d79bec8b1ebbf33b2eeec1",
    "postalCode": 9327034641,
    "address": "542 Fillmore Place, Ogema, California, 1667",
    "city": "Marne",
    "state": "Minnesota"
  },
  {
    "_id": "62d79bec03da231d91e3d104",
    "postalCode": 9701188137,
    "address": "252 Montrose Avenue, Germanton, Vermont, 401",
    "city": "Belvoir",
    "state": "North Carolina"
  },
  {
    "_id": "62d79becc1701002d8e855db",
    "postalCode": 8211898436,
    "address": "969 Dorchester Road, Stewart, Northern Mariana Islands, 6850",
    "city": "Ilchester",
    "state": "Oregon"
  },
  {
    "_id": "62d79bec9432918d25786619",
    "postalCode": 5431323554,
    "address": "246 Keen Court, Fivepointville, Rhode Island, 4065",
    "city": "Dixie",
    "state": "Guam"
  },
  {
    "_id": "62d79beccb47b10dc92b09b9",
    "postalCode": 7605542700,
    "address": "727 Amersfort Place, Belgreen, Federated States Of Micronesia, 2637",
    "city": "Topanga",
    "state": "Ohio"
  },
  {
    "_id": "62d79bec0bf029d205b929f4",
    "postalCode": 7515037365,
    "address": "668 Christopher Avenue, Sunwest, Oklahoma, 2829",
    "city": "Avoca",
    "state": "Georgia"
  },
  {
    "_id": "62d79becfa31326cf69f7428",
    "postalCode": 4432708912,
    "address": "124 Reeve Place, Kipp, Kansas, 9065",
    "city": "Harviell",
    "state": "Alabama"
  },
  {
    "_id": "62d79bec0a563ea46004d45d",
    "postalCode": 9879657403,
    "address": "943 Revere Place, Murillo, Idaho, 2766",
    "city": "Day",
    "state": "Florida"
  },
  {
    "_id": "62d79beceff491b98eaa74ea",
    "postalCode": 7595138499,
    "address": "790 Stillwell Place, Enlow, Wisconsin, 6578",
    "city": "Martell",
    "state": "Illinois"
  },
  {
    "_id": "62d79becaf62caeaf10f0e5a",
    "postalCode": 9872087914,
    "address": "190 Vandervoort Place, Datil, Nevada, 5419",
    "city": "Fingerville",
    "state": "Kentucky"
  },
  {
    "_id": "62d79becbddb57a3279b1545",
    "postalCode": 8540024814,
    "address": "161 Hinckley Place, Fowlerville, Maine, 3576",
    "city": "Savannah",
    "state": "Arizona"
  },
  {
    "_id": "62d79becff8f950b71d4b86b",
    "postalCode": 3297976282,
    "address": "724 Gotham Avenue, Harrison, American Samoa, 1703",
    "city": "Wauhillau",
    "state": "Tennessee"
  },
  {
    "_id": "62d79beceb8f126ba9da30c8",
    "postalCode": 3515416313,
    "address": "343 Charles Place, Grapeview, South Carolina, 6687",
    "city": "Lithium",
    "state": "South Dakota"
  },
  {
    "_id": "62d79bec3616b2a3ffa92e95",
    "postalCode": 8872227211,
    "address": "519 Colonial Court, Fairfield, Arkansas, 6102",
    "city": "Stockwell",
    "state": "Connecticut"
  },
  {
    "_id": "62d79bec708bf70c9d5b0b1a",
    "postalCode": 9673970815,
    "address": "807 Baughman Place, Cobbtown, Wyoming, 2460",
    "city": "Sena",
    "state": "Texas"
  },
  {
    "_id": "62d79bec212d2edf0181e5f3",
    "postalCode": 2164814053,
    "address": "561 Oak Street, Roderfield, New Jersey, 6662",
    "city": "Siglerville",
    "state": "Alaska"
  },
  {
    "_id": "62d79becb1939bbf43b16866",
    "postalCode": 9711541061,
    "address": "842 Marconi Place, Loomis, North Dakota, 5221",
    "city": "Osage",
    "state": "Colorado"
  },
  {
    "_id": "62d79bec09ef9b2cc8d1d1b9",
    "postalCode": 2124362728,
    "address": "111 Glen Street, Henrietta, Marshall Islands, 9314",
    "city": "Turpin",
    "state": "Virgin Islands"
  },
  {
    "_id": "62d79becbd2c948ffcbc1cf7",
    "postalCode": 3473781757,
    "address": "283 Montgomery Place, Hillsboro, Washington, 5756",
    "city": "Cazadero",
    "state": "Virginia"
  },
  {
    "_id": "62d79bec27b770713e8803b7",
    "postalCode": 3262080058,
    "address": "800 Tampa Court, Hiko, West Virginia, 3586",
    "city": "Walton",
    "state": "Palau"
  },
  {
    "_id": "62d79bec7c10bcb4e5c0b3cb",
    "postalCode": 2575003696,
    "address": "887 Dennett Place, Yonah, New Hampshire, 1630",
    "city": "Cressey",
    "state": "Massachusetts"
  },
  {
    "_id": "62d79becc0c34dfaa49e1036",
    "postalCode": 8557555443,
    "address": "573 Hall Street, Kersey, New Mexico, 8124",
    "city": "Gratton",
    "state": "Pennsylvania"
  },
  {
    "_id": "62d79bec918e6e7f3c5e80bb",
    "postalCode": 2194852912,
    "address": "845 Truxton Street, Caroleen, Missouri, 2984",
    "city": "Edinburg",
    "state": "Nebraska"
  },
  {
    "_id": "62d79bec3c7b9bf6570ac542",
    "postalCode": 2745728276,
    "address": "236 Raleigh Place, Tedrow, Hawaii, 4762",
    "city": "Bend",
    "state": "Indiana"
  },
  {
    "_id": "62d79bec777e7c9ede437ec3",
    "postalCode": 9077658202,
    "address": "209 Calyer Street, Linwood, District Of Columbia, 1414",
    "city": "Wakarusa",
    "state": "Iowa"
  },
  {
    "_id": "62d79bec37e95980af716207",
    "postalCode": 4361593603,
    "address": "387 Seigel Street, Clarence, Michigan, 7161",
    "city": "Oceola",
    "state": "Maryland"
  },
  {
    "_id": "62d79becd831824fb89b5853",
    "postalCode": 6104192614,
    "address": "985 Stratford Road, Osmond, Puerto Rico, 8620",
    "city": "Glenshaw",
    "state": "Utah"
  },
  {
    "_id": "62d79bec68b04286123a6456",
    "postalCode": 7536066426,
    "address": "812 Ovington Court, Maybell, Louisiana, 9496",
    "city": "Cresaptown",
    "state": "Montana"
  },
  {
    "_id": "62d79bec87136a620131069e",
    "postalCode": 9538559975,
    "address": "138 Strickland Avenue, Caberfae, Delaware, 4317",
    "city": "Brazos",
    "state": "New York"
  },
  {
    "_id": "62d79bec753ff97ef0c3cdd9",
    "postalCode": 9856479102,
    "address": "353 Norman Avenue, Rutherford, California, 4995",
    "city": "Canoochee",
    "state": "Minnesota"
  },
  {
    "_id": "62d79bec68b3653176af3f56",
    "postalCode": 2707075638,
    "address": "204 Dearborn Court, Goodville, Vermont, 6668",
    "city": "Dundee",
    "state": "North Carolina"
  },
  {
    "_id": "62d79becea4be74fb591b678",
    "postalCode": 7280702891,
    "address": "490 Onderdonk Avenue, Sunriver, Northern Mariana Islands, 1597",
    "city": "Abiquiu",
    "state": "Oregon"
  },
  {
    "_id": "62d79beca9278bf8c04f9e6f",
    "postalCode": 8335766556,
    "address": "633 Cedar Street, Blackgum, Rhode Island, 7785",
    "city": "Welch",
    "state": "Guam"
  },
  {
    "_id": "62d79bec6ba142b247c850df",
    "postalCode": 2084095430,
    "address": "945 Keap Street, Englevale, Federated States Of Micronesia, 9516",
    "city": "Woodlake",
    "state": "Ohio"
  },
  {
    "_id": "62d79becb29ef738a48c98a6",
    "postalCode": 4857054468,
    "address": "804 Commerce Street, Cetronia, Oklahoma, 5110",
    "city": "Keller",
    "state": "Georgia"
  },
  {
    "_id": "62d79bec8b44acd30f8007e5",
    "postalCode": 4574247814,
    "address": "992 Oriental Boulevard, Crawfordsville, Kansas, 3498",
    "city": "Aberdeen",
    "state": "Alabama"
  },
  {
    "_id": "62d79beca2f0fc92c4dcc2cb",
    "postalCode": 4260593127,
    "address": "352 Quincy Street, Hackneyville, Idaho, 2601",
    "city": "Bangor",
    "state": "Florida"
  },
  {
    "_id": "62d79becd5ec71a1539a3b8c",
    "postalCode": 8364420600,
    "address": "867 Gatling Place, Accoville, Wisconsin, 4945",
    "city": "Waterloo",
    "state": "Illinois"
  },
  {
    "_id": "62d79bec60ce64e3d860ac29",
    "postalCode": 6636035850,
    "address": "195 Danforth Street, Roy, Nevada, 8859",
    "city": "Rosedale",
    "state": "Kentucky"
  },
  {
    "_id": "62d79bec0a8f6e11e63b1b06",
    "postalCode": 2194192104,
    "address": "697 Orient Avenue, Brookfield, Maine, 299",
    "city": "Golconda",
    "state": "Arizona"
  },
  {
    "_id": "62d79becb6888bab4307b8d0",
    "postalCode": 6663701061,
    "address": "784 McKibbin Street, Woodburn, American Samoa, 3936",
    "city": "Hoehne",
    "state": "Tennessee"
  },
  {
    "_id": "62d79bec5c154406b20e4710",
    "postalCode": 6601035376,
    "address": "121 Henderson Walk, Chical, South Carolina, 5762",
    "city": "Westboro",
    "state": "South Dakota"
  },
  {
    "_id": "62d79bec9e038bf3e4781f76",
    "postalCode": 5274001634,
    "address": "628 Prince Street, Dupuyer, Arkansas, 7716",
    "city": "Manila",
    "state": "Connecticut"
  },
  {
    "_id": "62d79becc12fd768157ca735",
    "postalCode": 1831305286,
    "address": "430 Brown Street, Loveland, Wyoming, 3163",
    "city": "Cuylerville",
    "state": "Texas"
  },
  {
    "_id": "62d79bec55f6fb7c3beb4a35",
    "postalCode": 8935864239,
    "address": "307 Canal Avenue, Movico, New Jersey, 8688",
    "city": "Coldiron",
    "state": "Alaska"
  },
  {
    "_id": "62d79bec0162ea8d8d26bf07",
    "postalCode": 2655694055,
    "address": "199 Jewel Street, Springdale, North Dakota, 2864",
    "city": "Barclay",
    "state": "Colorado"
  },
  {
    "_id": "62d79bec63df23e087af482e",
    "postalCode": 8859313407,
    "address": "128 Sharon Street, Ironton, Marshall Islands, 3810",
    "city": "Downsville",
    "state": "Virgin Islands"
  },
  {
    "_id": "62d79bec7f3ba62f0f5ad705",
    "postalCode": 5553796733,
    "address": "658 Berkeley Place, Clay, Washington, 5600",
    "city": "Wilsonia",
    "state": "Virginia"
  },
  {
    "_id": "62d79bec712e748579f49efa",
    "postalCode": 4368205605,
    "address": "252 Vanderbilt Street, Bannock, West Virginia, 4336",
    "city": "Moquino",
    "state": "Palau"
  },
  {
    "_id": "62d79bec7ef99db2cf104133",
    "postalCode": 9622440325,
    "address": "190 Kiely Place, Hannasville, New Hampshire, 2492",
    "city": "Dahlen",
    "state": "Massachusetts"
  },
  {
    "_id": "62d79becedabfac562f24cfc",
    "postalCode": 9753385969,
    "address": "505 Auburn Place, Logan, New Mexico, 4590",
    "city": "Tryon",
    "state": "Pennsylvania"
  },
  {
    "_id": "62d79bec43c082eb42a529b3",
    "postalCode": 7413919501,
    "address": "541 Rost Place, Weeksville, Missouri, 557",
    "city": "Vale",
    "state": "Nebraska"
  },
  {
    "_id": "62d79bec580a134f2ee6ac5b",
    "postalCode": 5293272411,
    "address": "147 Linden Street, Toftrees, Hawaii, 4969",
    "city": "Longoria",
    "state": "Indiana"
  },
  {
    "_id": "62d79bec2c336fbf89a2082b",
    "postalCode": 8651736851,
    "address": "272 Montieth Street, Yardville, District Of Columbia, 9423",
    "city": "Iberia",
    "state": "Iowa"
  },
  {
    "_id": "62d79becc00b955f2ea91b37",
    "postalCode": 6676835935,
    "address": "150 Taaffe Place, Gardners, Michigan, 127",
    "city": "Joes",
    "state": "Maryland"
  },
  {
    "_id": "62d79beceb141f8c96221163",
    "postalCode": 3523562846,
    "address": "947 Bokee Court, Bedias, Puerto Rico, 6879",
    "city": "Convent",
    "state": "Utah"
  },
  {
    "_id": "62d79bec81db080dfc2eea59",
    "postalCode": 6285239685,
    "address": "285 Harway Avenue, Coral, Louisiana, 3995",
    "city": "Vienna",
    "state": "Montana"
  },
  {
    "_id": "62d79becad515d2e3b255c54",
    "postalCode": 8066637080,
    "address": "354 Vermont Street, Echo, Delaware, 7197",
    "city": "Johnsonburg",
    "state": "New York"
  },
  {
    "_id": "62d79bec19ba9fa15da96917",
    "postalCode": 1689181318,
    "address": "819 Lafayette Walk, Rodanthe, California, 9313",
    "city": "Layhill",
    "state": "Minnesota"
  },
  {
    "_id": "62d79becb4a3687406c0fb3d",
    "postalCode": 1185839894,
    "address": "926 Manhattan Court, Lawrence, Vermont, 9199",
    "city": "Alamo",
    "state": "North Carolina"
  },
  {
    "_id": "62d79beccf98b0d5ed20a5ba",
    "postalCode": 6908894323,
    "address": "246 Tapscott Street, Thomasville, Northern Mariana Islands, 1677",
    "city": "Caron",
    "state": "Oregon"
  },
  {
    "_id": "62d79bec242201430fc87895",
    "postalCode": 4616834512,
    "address": "841 Butler Place, Fairacres, Rhode Island, 9137",
    "city": "Austinburg",
    "state": "Guam"
  },
  {
    "_id": "62d79becea55817f39ba0483",
    "postalCode": 9449401733,
    "address": "303 Russell Street, Brenton, Federated States Of Micronesia, 8100",
    "city": "Eagleville",
    "state": "Ohio"
  },
  {
    "_id": "62d79becda8e7cad1248cb3b",
    "postalCode": 2254407314,
    "address": "758 Bushwick Avenue, Lloyd, Oklahoma, 9170",
    "city": "Lutsen",
    "state": "Georgia"
  },
  {
    "_id": "62d79bec871b3d8d87dc80ee",
    "postalCode": 4824566747,
    "address": "464 Himrod Street, Wildwood, Kansas, 8375",
    "city": "Marbury",
    "state": "Alabama"
  },
  {
    "_id": "62d79bec578152a5da8ae193",
    "postalCode": 3657834695,
    "address": "997 Bevy Court, Hollins, Idaho, 7710",
    "city": "Mooresburg",
    "state": "Florida"
  },
  {
    "_id": "62d79bec6b6172eadfbda2d8",
    "postalCode": 5647753466,
    "address": "855 Berriman Street, Kraemer, Wisconsin, 3520",
    "city": "Westerville",
    "state": "Illinois"
  },
  {
    "_id": "62d79bec3405482fd74dc547",
    "postalCode": 3516282443,
    "address": "768 Wyckoff Street, Waterview, Nevada, 4266",
    "city": "Alden",
    "state": "Kentucky"
  },
  {
    "_id": "62d79becc35322d2bb218365",
    "postalCode": 1767672600,
    "address": "672 Powers Street, Floriston, Maine, 1754",
    "city": "Valmy",
    "state": "Arizona"
  },
  {
    "_id": "62d79becd806b7650ab03b40",
    "postalCode": 1367540639,
    "address": "495 Willoughby Street, Santel, American Samoa, 6569",
    "city": "Cliffside",
    "state": "Tennessee"
  },
  {
    "_id": "62d79bec51d0238ae85b08ba",
    "postalCode": 2264659920,
    "address": "833 Glendale Court, Wakulla, South Carolina, 9668",
    "city": "Dunbar",
    "state": "South Dakota"
  },
  {
    "_id": "62d79bec39c8de3ffcc0b59e",
    "postalCode": 2494365240,
    "address": "587 Prospect Place, Tolu, Arkansas, 7673",
    "city": "Kent",
    "state": "Connecticut"
  },
  {
    "_id": "62d79bec6e52c713808a8aea",
    "postalCode": 2692598153,
    "address": "424 Ferris Street, Succasunna, Wyoming, 577",
    "city": "Hatteras",
    "state": "Texas"
  },
  {
    "_id": "62d79beccbc84c30c95f59a0",
    "postalCode": 8324815331,
    "address": "254 Canton Court, Elizaville, New Jersey, 7426",
    "city": "Bawcomville",
    "state": "Alaska"
  },
  {
    "_id": "62d79bec6bc9d6e1dd328855",
    "postalCode": 7803219300,
    "address": "524 Cambridge Place, Sattley, North Dakota, 8179",
    "city": "Cowiche",
    "state": "Colorado"
  },
  {
    "_id": "62d79bec6c9d37c9f17c7c08",
    "postalCode": 7686837741,
    "address": "166 Mill Avenue, Oneida, Marshall Islands, 533",
    "city": "Cumberland",
    "state": "Virgin Islands"
  },
  {
    "_id": "62d79bec3c8cfd9baef672bc",
    "postalCode": 2440390440,
    "address": "943 Dover Street, Retsof, Washington, 5014",
    "city": "Levant",
    "state": "Virginia"
  },
  {
    "_id": "62d79bec5193a2a03d8b5a3c",
    "postalCode": 4419882736,
    "address": "622 Hillel Place, Brutus, West Virginia, 1635",
    "city": "Grahamtown",
    "state": "Palau"
  },
  {
    "_id": "62d79becde384e57ceb0233a",
    "postalCode": 6527295663,
    "address": "329 Neptune Court, Morriston, New Hampshire, 7026",
    "city": "Eastvale",
    "state": "Massachusetts"
  },
  {
    "_id": "62d79becc01aeec7b2f8ef74",
    "postalCode": 9404822312,
    "address": "874 Forest Place, Ronco, New Mexico, 4441",
    "city": "Singer",
    "state": "Pennsylvania"
  },
  {
    "_id": "62d79bec81d9a2c798c17a99",
    "postalCode": 4614657754,
    "address": "584 Bayview Place, Beason, Missouri, 768",
    "city": "Flintville",
    "state": "Nebraska"
  },
  {
    "_id": "62d79bec25e67a6d653df959",
    "postalCode": 5970268516,
    "address": "397 Knapp Street, Sylvanite, Hawaii, 2543",
    "city": "Trinway",
    "state": "Indiana"
  },
  {
    "_id": "62d79beca8535958bf3ceb99",
    "postalCode": 6345451756,
    "address": "856 Hoyts Lane, Greenbush, District Of Columbia, 2305",
    "city": "Worton",
    "state": "Iowa"
  },
  {
    "_id": "62d79bec5b1cf3e1b9b64483",
    "postalCode": 2084764509,
    "address": "349 Knickerbocker Avenue, Carrizo, Michigan, 5501",
    "city": "Kidder",
    "state": "Maryland"
  },
  {
    "_id": "62d79beceb96b4cea8449abd",
    "postalCode": 4142714813,
    "address": "727 Seaview Court, Bartonsville, Puerto Rico, 3967",
    "city": "Thatcher",
    "state": "Utah"
  },
  {
    "_id": "62d79bec36ec332d2710d2e6",
    "postalCode": 7822387795,
    "address": "226 Jamison Lane, Virgie, Louisiana, 3288",
    "city": "Cherokee",
    "state": "Montana"
  },
  {
    "_id": "62d79becb9cc3b7882283ff8",
    "postalCode": 2382237451,
    "address": "133 Ditmars Street, Madrid, Delaware, 840",
    "city": "Gracey",
    "state": "New York"
  },
  {
    "_id": "62d79bec02b02806cb47b0da",
    "postalCode": 5854787784,
    "address": "675 Joralemon Street, Riner, California, 9752",
    "city": "Wadsworth",
    "state": "Minnesota"
  },
  {
    "_id": "62d79bec1c63a32ab8eec5bb",
    "postalCode": 2170716483,
    "address": "627 Seagate Terrace, Rossmore, Vermont, 6891",
    "city": "Groveville",
    "state": "North Carolina"
  },
  {
    "_id": "62d79bec482514760e2a5780",
    "postalCode": 2333372624,
    "address": "889 Main Street, Soudan, Northern Mariana Islands, 4300",
    "city": "Jackpot",
    "state": "Oregon"
  },
  {
    "_id": "62d79bec88670f7186956b39",
    "postalCode": 8273986586,
    "address": "563 Fuller Place, Emerald, Rhode Island, 7964",
    "city": "Rodman",
    "state": "Guam"
  },
  {
    "_id": "62d79bec95ae9f2cce7947ce",
    "postalCode": 5299911859,
    "address": "406 Wakeman Place, Whitehaven, Federated States Of Micronesia, 8259",
    "city": "Northridge",
    "state": "Ohio"
  },
  {
    "_id": "62d79bec45397678edc04f48",
    "postalCode": 7928206145,
    "address": "159 Grove Street, Sterling, Oklahoma, 3586",
    "city": "Riviera",
    "state": "Georgia"
  },
  {
    "_id": "62d79bec54569b071dd59f3c",
    "postalCode": 4443276332,
    "address": "334 Creamer Street, Wheaton, Kansas, 9115",
    "city": "Kilbourne",
    "state": "Alabama"
  },
  {
    "_id": "62d79becbab9befa9a53dc89",
    "postalCode": 9179356862,
    "address": "562 Ford Street, Tooleville, Idaho, 6156",
    "city": "Sheatown",
    "state": "Florida"
  },
  {
    "_id": "62d79bece2a7457bcc312bed",
    "postalCode": 8512456610,
    "address": "847 Coventry Road, Saticoy, Wisconsin, 7086",
    "city": "Snelling",
    "state": "Illinois"
  },
  {
    "_id": "62d79beca1652657b6d02428",
    "postalCode": 6729634667,
    "address": "795 Hanson Place, Shawmut, Nevada, 4295",
    "city": "Sandston",
    "state": "Kentucky"
  },
  {
    "_id": "62d79becb5a2be2afd8de4e1",
    "postalCode": 6449466700,
    "address": "762 Sullivan Street, Nile, Maine, 1520",
    "city": "Strykersville",
    "state": "Arizona"
  },
  {
    "_id": "62d79bec84e114b7ed88ac3d",
    "postalCode": 8151472042,
    "address": "110 Sapphire Street, Caledonia, American Samoa, 882",
    "city": "Sugartown",
    "state": "Tennessee"
  },
  {
    "_id": "62d79bec954013080747d79b",
    "postalCode": 3835987918,
    "address": "753 Amherst Street, Summerset, South Carolina, 606",
    "city": "Cawood",
    "state": "South Dakota"
  },
  {
    "_id": "62d79bec196fce9bf27caadf",
    "postalCode": 6299250639,
    "address": "294 Post Court, Tivoli, Arkansas, 1544",
    "city": "Drummond",
    "state": "Connecticut"
  },
  {
    "_id": "62d79bec2ad91963eb570223",
    "postalCode": 8930637111,
    "address": "989 Love Lane, Lacomb, Wyoming, 1032",
    "city": "Allentown",
    "state": "Texas"
  },
  {
    "_id": "62d79becec989fcb9ec65418",
    "postalCode": 9581668008,
    "address": "539 Douglass Street, Blairstown, New Jersey, 1956",
    "city": "Hobucken",
    "state": "Alaska"
  },
  {
    "_id": "62d79bec9d001490816b8915",
    "postalCode": 5786943202,
    "address": "544 Regent Place, Sims, North Dakota, 5800",
    "city": "Hollymead",
    "state": "Colorado"
  },
  {
    "_id": "62d79bec12e6d1e5d6b57671",
    "postalCode": 6437562296,
    "address": "526 Lefferts Place, Efland, Marshall Islands, 4616",
    "city": "Noxen",
    "state": "Virgin Islands"
  },
  {
    "_id": "62d79bec64a1535dfeafa464",
    "postalCode": 8079588021,
    "address": "538 Aster Court, Bowden, Washington, 3949",
    "city": "Gouglersville",
    "state": "Virginia"
  },
  {
    "_id": "62d79bec27e1656b01593b70",
    "postalCode": 4472020576,
    "address": "571 Sutter Avenue, Kimmell, West Virginia, 6125",
    "city": "Darlington",
    "state": "Palau"
  },
  {
    "_id": "62d79becdd311da691d6d317",
    "postalCode": 8243424819,
    "address": "740 Lincoln Road, Wawona, New Hampshire, 3044",
    "city": "Southmont",
    "state": "Massachusetts"
  },
  {
    "_id": "62d79bec9c06231044e351e3",
    "postalCode": 8127067437,
    "address": "940 Bleecker Street, Tyro, New Mexico, 5336",
    "city": "Freeburn",
    "state": "Pennsylvania"
  },
  {
    "_id": "62d79becf4c6a9bd962e16ed",
    "postalCode": 2269428107,
    "address": "379 Division Place, Steinhatchee, Missouri, 8505",
    "city": "Hall",
    "state": "Nebraska"
  },
  {
    "_id": "62d79becb25501155cf38370",
    "postalCode": 1700401727,
    "address": "836 Withers Street, Orason, Hawaii, 3249",
    "city": "Como",
    "state": "Indiana"
  },
  {
    "_id": "62d79bec2b82cb341d561586",
    "postalCode": 1990378663,
    "address": "870 Paerdegat Avenue, Soham, District Of Columbia, 4293",
    "city": "Norwood",
    "state": "Iowa"
  },
  {
    "_id": "62d79bec3f1faf17206f2b70",
    "postalCode": 9843999573,
    "address": "928 Hamilton Avenue, Crown, Michigan, 3391",
    "city": "Cecilia",
    "state": "Maryland"
  },
  {
    "_id": "62d79becc97502c51f9ae6a4",
    "postalCode": 3719706705,
    "address": "739 Roosevelt Court, Taft, Puerto Rico, 3514",
    "city": "Slovan",
    "state": "Utah"
  },
  {
    "_id": "62d79becfc4e334176d68a3f",
    "postalCode": 7560125397,
    "address": "166 Bush Street, Brewster, Louisiana, 4766",
    "city": "Delwood",
    "state": "Montana"
  },
  {
    "_id": "62d79becf28bfbe17bfdb756",
    "postalCode": 8305428810,
    "address": "939 Irving Place, Gadsden, Delaware, 3423",
    "city": "Mathews",
    "state": "New York"
  },
  {
    "_id": "62d79becc59871bf785f2b6b",
    "postalCode": 5998534464,
    "address": "104 Tudor Terrace, Glasgow, California, 4267",
    "city": "Tonopah",
    "state": "Minnesota"
  },
  {
    "_id": "62d79becae7959070999f6cb",
    "postalCode": 9823134230,
    "address": "322 Hornell Loop, Chamizal, Vermont, 7876",
    "city": "Thermal",
    "state": "North Carolina"
  },
  {
    "_id": "62d79bece197348f25e1c107",
    "postalCode": 3802711931,
    "address": "867 Court Square, Delco, Northern Mariana Islands, 7072",
    "city": "Nutrioso",
    "state": "Oregon"
  },
  {
    "_id": "62d79becf0a2ea7c0306ca95",
    "postalCode": 3745204665,
    "address": "873 Lyme Avenue, Juarez, Rhode Island, 8714",
    "city": "Jennings",
    "state": "Guam"
  },
  {
    "_id": "62d79bec1596614e02ed501d",
    "postalCode": 5906009988,
    "address": "490 Holly Street, Rushford, Federated States Of Micronesia, 8938",
    "city": "Roosevelt",
    "state": "Ohio"
  },
  {
    "_id": "62d79bec1d9c1d49e15a906d",
    "postalCode": 6907309515,
    "address": "716 Bulwer Place, Hiseville, Oklahoma, 6964",
    "city": "Corriganville",
    "state": "Georgia"
  },
  {
    "_id": "62d79becc50dae31c8c642b3",
    "postalCode": 5363602075,
    "address": "972 Debevoise Street, Faywood, Kansas, 3505",
    "city": "Calvary",
    "state": "Alabama"
  },
  {
    "_id": "62d79beca67e24dbfb2fbe9c",
    "postalCode": 7687961686,
    "address": "432 Brigham Street, Clayville, Idaho, 1208",
    "city": "Cascades",
    "state": "Florida"
  },
  {
    "_id": "62d79becea95753105aa7751",
    "postalCode": 6681800341,
    "address": "429 Harwood Place, Brantleyville, Wisconsin, 5109",
    "city": "Smeltertown",
    "state": "Illinois"
  },
  {
    "_id": "62d79bec2e3fbbb7df5f9a4e",
    "postalCode": 5477291576,
    "address": "548 Crawford Avenue, Waukeenah, Nevada, 6305",
    "city": "Wells",
    "state": "Kentucky"
  },
  {
    "_id": "62d79bec64fd345b2163ad65",
    "postalCode": 2386072042,
    "address": "278 Columbus Place, Guilford, Maine, 2591",
    "city": "Dunnavant",
    "state": "Arizona"
  },
  {
    "_id": "62d79becf59dc08133cc281f",
    "postalCode": 4304787018,
    "address": "354 Haring Street, Vernon, American Samoa, 580",
    "city": "Kennedyville",
    "state": "Tennessee"
  },
  {
    "_id": "62d79beccc495b94ebc31145",
    "postalCode": 3435956449,
    "address": "196 Cook Street, Brooktrails, South Carolina, 3222",
    "city": "Fedora",
    "state": "South Dakota"
  },
  {
    "_id": "62d79bec40e25dcbcc6b5d95",
    "postalCode": 7443232527,
    "address": "291 Lynch Street, Coyote, Arkansas, 9924",
    "city": "Colton",
    "state": "Connecticut"
  },
  {
    "_id": "62d79beca90e948cdb4ac6d9",
    "postalCode": 2629438375,
    "address": "247 Oxford Street, Lund, Wyoming, 5830",
    "city": "Escondida",
    "state": "Texas"
  },
  {
    "_id": "62d79bec3063cdc3a7f3f713",
    "postalCode": 7641879802,
    "address": "188 Hull Street, Epworth, New Jersey, 4125",
    "city": "Greenbackville",
    "state": "Alaska"
  },
  {
    "_id": "62d79beceb0502893bc50e2d",
    "postalCode": 2619503712,
    "address": "775 Elmwood Avenue, Troy, North Dakota, 3928",
    "city": "Freelandville",
    "state": "Colorado"
  },
  {
    "_id": "62d79bec991305ca22f3f93d",
    "postalCode": 9459471298,
    "address": "547 Monaco Place, Clarktown, Marshall Islands, 1059",
    "city": "Fairhaven",
    "state": "Virgin Islands"
  },
  {
    "_id": "62d79bec998249de827ca007",
    "postalCode": 2656778053,
    "address": "684 Gerritsen Avenue, Brandywine, Washington, 2080",
    "city": "Nicholson",
    "state": "Virginia"
  },
  {
    "_id": "62d79becbd77ddd7fbf1a665",
    "postalCode": 2398791931,
    "address": "858 Hunts Lane, Delshire, West Virginia, 3905",
    "city": "Finderne",
    "state": "Palau"
  },
  {
    "_id": "62d79bec4fe408fcba710ea2",
    "postalCode": 1393952433,
    "address": "641 Mersereau Court, Lynn, New Hampshire, 4666",
    "city": "Stockdale",
    "state": "Massachusetts"
  },
  {
    "_id": "62d79bec2676541c15f39320",
    "postalCode": 8793482216,
    "address": "138 Bogart Street, Salunga, New Mexico, 9197",
    "city": "Sanders",
    "state": "Pennsylvania"
  },
  {
    "_id": "62d79bec362cb9da032dcf52",
    "postalCode": 6370213662,
    "address": "348 Willmohr Street, Fillmore, Missouri, 8054",
    "city": "Fredericktown",
    "state": "Nebraska"
  },
  {
    "_id": "62d79becb7fcf790d376da6e",
    "postalCode": 4157628848,
    "address": "454 Brighton Avenue, Yukon, Hawaii, 1522",
    "city": "Grimsley",
    "state": "Indiana"
  },
  {
    "_id": "62d79bec01c260fb917b0b8c",
    "postalCode": 7030410636,
    "address": "774 Thames Street, Belmont, District Of Columbia, 1923",
    "city": "Edgewater",
    "state": "Iowa"
  },
  {
    "_id": "62d79becf38f06e39268537e",
    "postalCode": 4387911426,
    "address": "908 Ocean Parkway, Courtland, Michigan, 8368",
    "city": "Itmann",
    "state": "Maryland"
  },
  {
    "_id": "62d79becf05607736543de1a",
    "postalCode": 5315596043,
    "address": "246 Karweg Place, Witmer, Puerto Rico, 4987",
    "city": "Rivers",
    "state": "Utah"
  },
  {
    "_id": "62d79becc59c8cb3099157bd",
    "postalCode": 5309135763,
    "address": "530 Summit Street, Morgandale, Louisiana, 1550",
    "city": "Sisquoc",
    "state": "Montana"
  },
  {
    "_id": "62d79bec33f1f552a187fa75",
    "postalCode": 3640007850,
    "address": "358 Jackson Street, Woodlands, Delaware, 6926",
    "city": "Stagecoach",
    "state": "New York"
  },
  {
    "_id": "62d79becfd439416015947fb",
    "postalCode": 7169868561,
    "address": "373 Evergreen Avenue, Cleary, California, 1474",
    "city": "Chestnut",
    "state": "Minnesota"
  },
  {
    "_id": "62d79bec16f0fca8ef319ccc",
    "postalCode": 6137490386,
    "address": "648 Menahan Street, Jacumba, Vermont, 4479",
    "city": "Crucible",
    "state": "North Carolina"
  },
  {
    "_id": "62d79bec4dff013843d71172",
    "postalCode": 9633830009,
    "address": "247 Garden Street, Eagletown, Northern Mariana Islands, 9928",
    "city": "Trona",
    "state": "Oregon"
  },
  {
    "_id": "62d79becee5984ab41a950b8",
    "postalCode": 2334162481,
    "address": "341 Brooklyn Avenue, Concho, Rhode Island, 2715",
    "city": "Crayne",
    "state": "Guam"
  },
  {
    "_id": "62d79bec222cbe8fe7846a9d",
    "postalCode": 6794532061,
    "address": "473 Village Road, Leyner, Federated States Of Micronesia, 6758",
    "city": "Clara",
    "state": "Ohio"
  },
  {
    "_id": "62d79bec016d704e1cca072b",
    "postalCode": 6685247669,
    "address": "245 Foster Avenue, Wolcott, Oklahoma, 866",
    "city": "Tibbie",
    "state": "Georgia"
  },
  {
    "_id": "62d79bec2302633de606bdda",
    "postalCode": 9039061441,
    "address": "413 Montague Street, Cassel, Kansas, 1503",
    "city": "Sanford",
    "state": "Alabama"
  },
  {
    "_id": "62d79bec8c6c3bc91adacbd0",
    "postalCode": 6197035326,
    "address": "141 Gaylord Drive, Talpa, Idaho, 1585",
    "city": "Wilmington",
    "state": "Florida"
  },
  {
    "_id": "62d79bec91b7e9bed7689492",
    "postalCode": 7498847136,
    "address": "771 Nichols Avenue, Goochland, Wisconsin, 3669",
    "city": "Laurelton",
    "state": "Illinois"
  },
  {
    "_id": "62d79bec7e5e83113a69fe68",
    "postalCode": 3223921259,
    "address": "376 Campus Road, Gila, Nevada, 4115",
    "city": "Crisman",
    "state": "Kentucky"
  },
  {
    "_id": "62d79bec3f407bd6dbec4f16",
    "postalCode": 7513646825,
    "address": "681 Murdock Court, Kempton, Maine, 4273",
    "city": "Whipholt",
    "state": "Arizona"
  },
  {
    "_id": "62d79bec190f5f2914f0a268",
    "postalCode": 8197438073,
    "address": "960 Maple Street, Harold, American Samoa, 4343",
    "city": "Castleton",
    "state": "Tennessee"
  },
  {
    "_id": "62d79becdf5c895d4cf18c83",
    "postalCode": 3629665344,
    "address": "825 Navy Street, Brownlee, South Carolina, 1891",
    "city": "Spokane",
    "state": "South Dakota"
  },
  {
    "_id": "62d79bec18bbcfcddb4fda84",
    "postalCode": 2233641823,
    "address": "859 Erasmus Street, Remington, Arkansas, 6438",
    "city": "Dawn",
    "state": "Connecticut"
  },
  {
    "_id": "62d79becdf7dac6a771bc1e6",
    "postalCode": 1502677617,
    "address": "587 Etna Street, Ahwahnee, Wyoming, 8355",
    "city": "Hamilton",
    "state": "Texas"
  },
  {
    "_id": "62d79beca81fcbda0e69eea9",
    "postalCode": 5373434795,
    "address": "299 Cyrus Avenue, Katonah, New Jersey, 2053",
    "city": "Hartsville/Hartley",
    "state": "Alaska"
  },
  {
    "_id": "62d79becd9d61550d4ace326",
    "postalCode": 3655890416,
    "address": "533 Hart Street, Wikieup, North Dakota, 6132",
    "city": "Nettie",
    "state": "Colorado"
  },
  {
    "_id": "62d79bec82f1c232236c1dc5",
    "postalCode": 6229313807,
    "address": "964 Conklin Avenue, Maury, Marshall Islands, 4845",
    "city": "Thornport",
    "state": "Virgin Islands"
  },
  {
    "_id": "62d79bece830431c13311025",
    "postalCode": 1880523254,
    "address": "526 Furman Street, Florence, Washington, 2988",
    "city": "Urie",
    "state": "Virginia"
  },
  {
    "_id": "62d79bec97acaaf6cc27b1b5",
    "postalCode": 8181150383,
    "address": "482 Cropsey Avenue, Garnet, West Virginia, 8451",
    "city": "Mappsville",
    "state": "Palau"
  },
  {
    "_id": "62d79bec75a45740f40bbbe8",
    "postalCode": 7099263031,
    "address": "358 Seagate Avenue, Bayview, New Hampshire, 4167",
    "city": "National",
    "state": "Massachusetts"
  },
  {
    "_id": "62d79becba30163ae1bad5eb",
    "postalCode": 5403946915,
    "address": "330 Bennet Court, Stonybrook, New Mexico, 2172",
    "city": "Villarreal",
    "state": "Pennsylvania"
  },
  {
    "_id": "62d79bec6fd33539b0d34d69",
    "postalCode": 9073712148,
    "address": "786 Dunham Place, Sedley, Missouri, 6663",
    "city": "Nescatunga",
    "state": "Nebraska"
  },
  {
    "_id": "62d79bec5647379f638c4726",
    "postalCode": 2187388041,
    "address": "270 Prescott Place, Skyland, Hawaii, 6058",
    "city": "Blanford",
    "state": "Indiana"
  },
  {
    "_id": "62d79bec768995a31658317b",
    "postalCode": 8586286009,
    "address": "709 Elliott Walk, Outlook, District Of Columbia, 8372",
    "city": "Foxworth",
    "state": "Iowa"
  },
  {
    "_id": "62d79becd24d9bf8e18c69f6",
    "postalCode": 7846003969,
    "address": "715 Ralph Avenue, Selma, Michigan, 4233",
    "city": "Zeba",
    "state": "Maryland"
  },
  {
    "_id": "62d79becd3fc03295bfbc467",
    "postalCode": 3850190180,
    "address": "600 Irving Avenue, Garberville, Puerto Rico, 1203",
    "city": "Boomer",
    "state": "Utah"
  },
  {
    "_id": "62d79bec659114f0209cf631",
    "postalCode": 8018772265,
    "address": "965 Harbor Court, Jeff, Louisiana, 331",
    "city": "Ellerslie",
    "state": "Montana"
  },
  {
    "_id": "62d79bec123b56f37407c604",
    "postalCode": 6244968650,
    "address": "976 Garfield Place, Jacksonburg, Delaware, 1848",
    "city": "Wyoming",
    "state": "New York"
  },
  {
    "_id": "62d79becfd14109297c37397",
    "postalCode": 4446877926,
    "address": "285 Sutton Street, Waverly, California, 9278",
    "city": "Dola",
    "state": "Minnesota"
  },
  {
    "_id": "62d79becdfb29abbd83fc587",
    "postalCode": 3108407943,
    "address": "697 Dekoven Court, Westwood, Vermont, 8505",
    "city": "Baden",
    "state": "North Carolina"
  },
  {
    "_id": "62d79becf3202ae42f35eb2b",
    "postalCode": 5026683692,
    "address": "499 Wyckoff Avenue, Lindcove, Northern Mariana Islands, 183",
    "city": "Ada",
    "state": "Oregon"
  },
  {
    "_id": "62d79bec349ac8a3dd73b3ce",
    "postalCode": 2950673731,
    "address": "122 Humboldt Street, Moscow, Rhode Island, 9152",
    "city": "Fairforest",
    "state": "Guam"
  },
  {
    "_id": "62d79bec256d9a098bc3c143",
    "postalCode": 7812944752,
    "address": "354 Devoe Street, Klagetoh, Federated States Of Micronesia, 7737",
    "city": "Elfrida",
    "state": "Ohio"
  },
  {
    "_id": "62d79bece8608941c81af9c0",
    "postalCode": 3337042618,
    "address": "431 Hausman Street, Chumuckla, Oklahoma, 6825",
    "city": "Bellfountain",
    "state": "Georgia"
  },
  {
    "_id": "62d79bec8a807b26a1e9b86f",
    "postalCode": 3154432161,
    "address": "576 Micieli Place, Klondike, Kansas, 7588",
    "city": "Neibert",
    "state": "Alabama"
  },
  {
    "_id": "62d79bec0077e4445b0e2404",
    "postalCode": 9777889981,
    "address": "402 Hegeman Avenue, Norfolk, Idaho, 2721",
    "city": "Jenkinsville",
    "state": "Florida"
  },
  {
    "_id": "62d79bec3eac496503b0717a",
    "postalCode": 3748203503,
    "address": "208 Midwood Street, Hebron, Wisconsin, 3077",
    "city": "Manitou",
    "state": "Illinois"
  },
  {
    "_id": "62d79becb2d31dd02574764d",
    "postalCode": 6688941553,
    "address": "334 Locust Avenue, Roland, Nevada, 8467",
    "city": "Orovada",
    "state": "Kentucky"
  },
  {
    "_id": "62d79bec834eb9c7aa8293a8",
    "postalCode": 4885626155,
    "address": "205 Lincoln Terrace, Hayden, Maine, 8686",
    "city": "Mansfield",
    "state": "Arizona"
  },
  {
    "_id": "62d79bec72cb85d12ed22220",
    "postalCode": 1499767498,
    "address": "202 Albee Square, Dixonville, American Samoa, 5298",
    "city": "Herald",
    "state": "Tennessee"
  },
  {
    "_id": "62d79bec3297ae8ddf7dc6d3",
    "postalCode": 2780154355,
    "address": "383 Colby Court, Kapowsin, South Carolina, 4801",
    "city": "Cataract",
    "state": "South Dakota"
  },
  {
    "_id": "62d79becf479f74257a33955",
    "postalCode": 6814985993,
    "address": "525 Rockwell Place, Reinerton, Arkansas, 3094",
    "city": "Omar",
    "state": "Connecticut"
  },
  {
    "_id": "62d79becc852511f2f1e06b6",
    "postalCode": 5301259020,
    "address": "106 Manhattan Avenue, Marysville, Wyoming, 1120",
    "city": "Roberts",
    "state": "Texas"
  },
  {
    "_id": "62d79bec2990d6a3518d8a28",
    "postalCode": 9985124072,
    "address": "505 Prospect Street, Camas, New Jersey, 5151",
    "city": "Tuttle",
    "state": "Alaska"
  },
  {
    "_id": "62d79bec6732bb64f727d6f7",
    "postalCode": 8728130480,
    "address": "972 Little Street, Felt, North Dakota, 8136",
    "city": "Ladera",
    "state": "Colorado"
  },
  {
    "_id": "62d79beccc97af61c4e88f7f",
    "postalCode": 2339977327,
    "address": "266 Williams Court, Canby, Marshall Islands, 4652",
    "city": "Monument",
    "state": "Virgin Islands"
  },
  {
    "_id": "62d79becfacf1d90d56fe90a",
    "postalCode": 1566476466,
    "address": "812 Voorhies Avenue, Springville, Washington, 8513",
    "city": "Hilltop",
    "state": "Virginia"
  },
  {
    "_id": "62d79bec101227092fae42fc",
    "postalCode": 7669917742,
    "address": "893 Whitney Avenue, Darbydale, West Virginia, 5215",
    "city": "Lemoyne",
    "state": "Palau"
  },
  {
    "_id": "62d79bec6b32920ff1fc85f5",
    "postalCode": 6052846019,
    "address": "667 Eagle Street, Bluffview, New Hampshire, 6328",
    "city": "Rosburg",
    "state": "Massachusetts"
  },
  {
    "_id": "62d79bec883444fd7fbce814",
    "postalCode": 3384892234,
    "address": "797 Saratoga Avenue, Macdona, New Mexico, 7350",
    "city": "Robbins",
    "state": "Pennsylvania"
  },
  {
    "_id": "62d79becddb8488370e269fe",
    "postalCode": 1711123814,
    "address": "454 Howard Alley, Waiohinu, Missouri, 4787",
    "city": "Fontanelle",
    "state": "Nebraska"
  },
  {
    "_id": "62d79becfae6c8e47789ce25",
    "postalCode": 1850403045,
    "address": "790 Livingston Street, Leland, Hawaii, 1827",
    "city": "Hegins",
    "state": "Indiana"
  },
  {
    "_id": "62d79beccc3314b83b571418",
    "postalCode": 5522895259,
    "address": "476 Mill Street, Walland, District Of Columbia, 1226",
    "city": "Winesburg",
    "state": "Iowa"
  },
  {
    "_id": "62d79becbcb665aff41999b3",
    "postalCode": 8942998660,
    "address": "352 Bay Parkway, Waumandee, Michigan, 2773",
    "city": "Martinsville",
    "state": "Maryland"
  },
  {
    "_id": "62d79beca4ea49fe9f94b99f",
    "postalCode": 6404730440,
    "address": "534 Beaumont Street, Biehle, Puerto Rico, 8261",
    "city": "Faxon",
    "state": "Utah"
  },
  {
    "_id": "62d79bec8c46617f7f128abb",
    "postalCode": 8716895711,
    "address": "942 Herzl Street, Ezel, Louisiana, 4099",
    "city": "Brecon",
    "state": "Montana"
  },
  {
    "_id": "62d79bec17e1db9b52361816",
    "postalCode": 2897096785,
    "address": "660 Belmont Avenue, Duryea, Delaware, 9706",
    "city": "Southview",
    "state": "New York"
  },
  {
    "_id": "62d79bec0f183240c71d1890",
    "postalCode": 7045410154,
    "address": "723 Kane Street, Elliott, California, 6899",
    "city": "Ivanhoe",
    "state": "Minnesota"
  },
  {
    "_id": "62d79bec5249cdd0a9957c8c",
    "postalCode": 6515939364,
    "address": "334 Noble Street, Corinne, Vermont, 1009",
    "city": "Bowie",
    "state": "North Carolina"
  },
  {
    "_id": "62d79bec62a22d654c6cf6f5",
    "postalCode": 6123990162,
    "address": "453 Meadow Street, Coinjock, Northern Mariana Islands, 6312",
    "city": "Martinez",
    "state": "Oregon"
  },
  {
    "_id": "62d79bec3ecb3569f1e39e77",
    "postalCode": 9018773951,
    "address": "685 Ludlam Place, Orick, Rhode Island, 3831",
    "city": "Zortman",
    "state": "Guam"
  },
  {
    "_id": "62d79bec8ee5aae67ed62844",
    "postalCode": 5024869140,
    "address": "185 Richardson Street, Celeryville, Federated States Of Micronesia, 6361",
    "city": "Cartwright",
    "state": "Ohio"
  },
  {
    "_id": "62d79becba7de926f13bbb95",
    "postalCode": 7945435841,
    "address": "382 Kaufman Place, Unionville, Oklahoma, 3031",
    "city": "Rose",
    "state": "Georgia"
  },
  {
    "_id": "62d79bec8a2ca6c39b0af360",
    "postalCode": 8243366528,
    "address": "863 Rutledge Street, Homeworth, Kansas, 9229",
    "city": "Oasis",
    "state": "Alabama"
  },
  {
    "_id": "62d79bec64bddc1532e550cc",
    "postalCode": 4263594231,
    "address": "151 Debevoise Avenue, Sexton, Idaho, 8883",
    "city": "Dante",
    "state": "Florida"
  },
  {
    "_id": "62d79becd0fd8ce94f54b48d",
    "postalCode": 7145526622,
    "address": "462 Pineapple Street, Brogan, Wisconsin, 1351",
    "city": "Coleville",
    "state": "Illinois"
  },
  {
    "_id": "62d79bec3ee04d5a2452cb39",
    "postalCode": 3067122167,
    "address": "453 Bartlett Place, Tyhee, Nevada, 485",
    "city": "Madaket",
    "state": "Kentucky"
  },
  {
    "_id": "62d79bec8603587bd1e024ba",
    "postalCode": 1362504006,
    "address": "892 Bank Street, Ypsilanti, Maine, 4897",
    "city": "Riegelwood",
    "state": "Arizona"
  },
  {
    "_id": "62d79bec6fd1216b7c07127d",
    "postalCode": 9435082859,
    "address": "308 Ide Court, Cotopaxi, American Samoa, 6058",
    "city": "Kieler",
    "state": "Tennessee"
  },
  {
    "_id": "62d79bec22e6896ab82a14f8",
    "postalCode": 8377163819,
    "address": "727 Ash Street, Alderpoint, South Carolina, 7138",
    "city": "Craig",
    "state": "South Dakota"
  },
  {
    "_id": "62d79becc16b646e6eb8c7ff",
    "postalCode": 1966300666,
    "address": "187 Howard Place, Winfred, Arkansas, 3822",
    "city": "Blandburg",
    "state": "Connecticut"
  },
  {
    "_id": "62d79bec02b6ce0b5b0ae2e5",
    "postalCode": 7912113908,
    "address": "959 Anchorage Place, Stevens, Wyoming, 7330",
    "city": "Barstow",
    "state": "Texas"
  },
  {
    "_id": "62d79bec1d8eccebcf26bf34",
    "postalCode": 5295209936,
    "address": "886 Pilling Street, Bentonville, New Jersey, 9858",
    "city": "Bentley",
    "state": "Alaska"
  },
  {
    "_id": "62d79bec2136074e8a265017",
    "postalCode": 1770815795,
    "address": "541 Morgan Avenue, Newkirk, North Dakota, 941",
    "city": "Coloma",
    "state": "Colorado"
  },
  {
    "_id": "62d79bec6ba773868ee23909",
    "postalCode": 7816490982,
    "address": "282 Seton Place, Choctaw, Marshall Islands, 8224",
    "city": "Beaverdale",
    "state": "Virgin Islands"
  },
  {
    "_id": "62d79becdee094c8c5604207",
    "postalCode": 7976494621,
    "address": "142 Albemarle Road, Wyano, Washington, 3838",
    "city": "Buxton",
    "state": "Virginia"
  },
  {
    "_id": "62d79bec621d59da830f4b71",
    "postalCode": 4789027138,
    "address": "597 Lawn Court, Hickory, West Virginia, 6097",
    "city": "Draper",
    "state": "Palau"
  },
  {
    "_id": "62d79bec96c2cedc3c2b58d1",
    "postalCode": 7583301825,
    "address": "427 Beverley Road, Finzel, New Hampshire, 8089",
    "city": "Dellview",
    "state": "Massachusetts"
  },
  {
    "_id": "62d79bec4642092e369b1ca1",
    "postalCode": 7649978018,
    "address": "990 Ryder Street, Robinson, New Mexico, 5947",
    "city": "Inkerman",
    "state": "Pennsylvania"
  },
  {
    "_id": "62d79bec57e5bba99cd9461c",
    "postalCode": 2996549510,
    "address": "923 Herbert Street, Maxville, Missouri, 7413",
    "city": "Sehili",
    "state": "Nebraska"
  },
  {
    "_id": "62d79beccc3bb336399c8260",
    "postalCode": 2838217789,
    "address": "628 Euclid Avenue, Mapletown, Hawaii, 3933",
    "city": "Wacissa",
    "state": "Indiana"
  },
  {
    "_id": "62d79bec48e4e88533317c13",
    "postalCode": 3044456994,
    "address": "312 Schaefer Street, Dale, District Of Columbia, 7013",
    "city": "Blodgett",
    "state": "Iowa"
  },
  {
    "_id": "62d79becc5b365aa3055f588",
    "postalCode": 5021772864,
    "address": "858 Montauk Avenue, Innsbrook, Michigan, 5726",
    "city": "Durham",
    "state": "Maryland"
  },
  {
    "_id": "62d79beca8a9441820a84a09",
    "postalCode": 3577481978,
    "address": "769 Shale Street, Sultana, Puerto Rico, 4501",
    "city": "Farmington",
    "state": "Utah"
  },
  {
    "_id": "62d79beccac482d76d45f3d9",
    "postalCode": 7870726604,
    "address": "985 Boerum Street, Reno, Louisiana, 2221",
    "city": "Edgar",
    "state": "Montana"
  },
  {
    "_id": "62d79bec41482e635cb0199b",
    "postalCode": 5067720805,
    "address": "747 Lombardy Street, Harmon, Delaware, 4289",
    "city": "Lowgap",
    "state": "New York"
  },
  {
    "_id": "62d79bec79c5b552dc6a33ef",
    "postalCode": 2452886594,
    "address": "693 Barbey Street, Camino, California, 3260",
    "city": "Clarksburg",
    "state": "Minnesota"
  },
  {
    "_id": "62d79bec81eb59d632540932",
    "postalCode": 8555007264,
    "address": "105 Bliss Terrace, Comptche, Vermont, 5950",
    "city": "Vincent",
    "state": "North Carolina"
  },
  {
    "_id": "62d79bec1894d79f325f6769",
    "postalCode": 7104256275,
    "address": "923 Front Street, Russellville, Northern Mariana Islands, 4519",
    "city": "Alleghenyville",
    "state": "Oregon"
  },
  {
    "_id": "62d79bec5c358fbd897a6cce",
    "postalCode": 5633221362,
    "address": "761 Argyle Road, Beechmont, Rhode Island, 2914",
    "city": "Temperanceville",
    "state": "Guam"
  },
  {
    "_id": "62d79bec7253723304a5035a",
    "postalCode": 4294397214,
    "address": "368 Irwin Street, Holtville, Federated States Of Micronesia, 1940",
    "city": "Mulberry",
    "state": "Ohio"
  },
  {
    "_id": "62d79bec05e2f283330e95d7",
    "postalCode": 3796579481,
    "address": "931 Beach Place, Emison, Oklahoma, 4141",
    "city": "Malo",
    "state": "Georgia"
  },
  {
    "_id": "62d79bec6ee96ddc7d7a9870",
    "postalCode": 3649980964,
    "address": "130 Robert Street, Mahtowa, Kansas, 3378",
    "city": "Brule",
    "state": "Alabama"
  },
  {
    "_id": "62d79bece41e8169dfedb63f",
    "postalCode": 7732930180,
    "address": "945 Newel Street, Nord, Idaho, 9024",
    "city": "Fruitdale",
    "state": "Florida"
  },
  {
    "_id": "62d79becbd6ae2a3bc49736f",
    "postalCode": 2234955588,
    "address": "401 Nixon Court, Vallonia, Wisconsin, 1759",
    "city": "Centerville",
    "state": "Illinois"
  },
  {
    "_id": "62d79bece17c8b867ee357a9",
    "postalCode": 6521506454,
    "address": "813 Kings Place, Shrewsbury, Nevada, 7986",
    "city": "Riceville",
    "state": "Kentucky"
  },
  {
    "_id": "62d79bece61ad2acd52ccfcb",
    "postalCode": 8586295087,
    "address": "590 Nostrand Avenue, Belfair, Maine, 2628",
    "city": "Winston",
    "state": "Arizona"
  },
  {
    "_id": "62d79becbae776f810ef4891",
    "postalCode": 1178726142,
    "address": "343 Amboy Street, Wollochet, American Samoa, 2173",
    "city": "Axis",
    "state": "Tennessee"
  },
  {
    "_id": "62d79beccdc1f320b6a886c5",
    "postalCode": 7370929904,
    "address": "997 Heyward Street, Cashtown, South Carolina, 3916",
    "city": "Montura",
    "state": "South Dakota"
  },
  {
    "_id": "62d79bec98c8bcf634df78e3",
    "postalCode": 7845519493,
    "address": "146 Berry Street, Chesterfield, Arkansas, 2251",
    "city": "Wiscon",
    "state": "Connecticut"
  },
  {
    "_id": "62d79bec6fb7ebb0796508cd",
    "postalCode": 5456908995,
    "address": "580 Rogers Avenue, Beaulieu, Wyoming, 955",
    "city": "Hessville",
    "state": "Texas"
  },
  {
    "_id": "62d79becedcabb67fd62c9c2",
    "postalCode": 4428271923,
    "address": "542 Essex Street, Leeper, New Jersey, 8642",
    "city": "Sunbury",
    "state": "Alaska"
  },
  {
    "_id": "62d79bec8a23b59179ffbc16",
    "postalCode": 6508905524,
    "address": "625 Grant Avenue, Gorst, North Dakota, 3645",
    "city": "Beyerville",
    "state": "Colorado"
  },
  {
    "_id": "62d79bec6bc12cca8cc822f6",
    "postalCode": 8977909554,
    "address": "258 Quentin Road, Carlton, Marshall Islands, 9905",
    "city": "Breinigsville",
    "state": "Virgin Islands"
  },
  {
    "_id": "62d79becf516555d9c40f0f4",
    "postalCode": 2083940128,
    "address": "395 Albemarle Terrace, Naomi, Washington, 6744",
    "city": "Volta",
    "state": "Virginia"
  },
  {
    "_id": "62d79bec259bdcf8a3779337",
    "postalCode": 5571104430,
    "address": "634 Jackson Court, Bagtown, West Virginia, 905",
    "city": "Bascom",
    "state": "Palau"
  },
  {
    "_id": "62d79bec1d30062d19bddb9e",
    "postalCode": 7898175670,
    "address": "641 Brighton Court, Gibsonia, New Hampshire, 933",
    "city": "Eastmont",
    "state": "Massachusetts"
  },
  {
    "_id": "62d79bec927c3e06225f335c",
    "postalCode": 2570238889,
    "address": "873 Grace Court, Takilma, New Mexico, 4475",
    "city": "Noblestown",
    "state": "Pennsylvania"
  },
  {
    "_id": "62d79bec9066f8107bdef448",
    "postalCode": 5622179557,
    "address": "139 Halleck Street, Thynedale, Missouri, 5233",
    "city": "Dorneyville",
    "state": "Nebraska"
  },
  {
    "_id": "62d79bec52ddfc5e2dd1c5c5",
    "postalCode": 4117854193,
    "address": "171 River Street, Tampico, Hawaii, 5311",
    "city": "Muse",
    "state": "Indiana"
  },
  {
    "_id": "62d79bec82d4b607f0ed2ad6",
    "postalCode": 5043680172,
    "address": "190 Radde Place, Carlos, District Of Columbia, 9469",
    "city": "Frierson",
    "state": "Iowa"
  },
  {
    "_id": "62d79becd879aa2fa6d57db4",
    "postalCode": 3080730190,
    "address": "823 Classon Avenue, Chamberino, Michigan, 8095",
    "city": "Oretta",
    "state": "Maryland"
  },
  {
    "_id": "62d79bec3f96711074c0acfa",
    "postalCode": 6186562387,
    "address": "148 Exeter Street, Elrama, Puerto Rico, 1089",
    "city": "Belva",
    "state": "Utah"
  },
  {
    "_id": "62d79bece9aa4e4ab75274c4",
    "postalCode": 6218967514,
    "address": "404 Wolf Place, Deputy, Louisiana, 1796",
    "city": "Sabillasville",
    "state": "Montana"
  },
  {
    "_id": "62d79bec6133f8f9e6ee9e3f",
    "postalCode": 9300060443,
    "address": "916 Roebling Street, Conestoga, Delaware, 8899",
    "city": "Winchester",
    "state": "New York"
  },
  {
    "_id": "62d79bec13afa9ad25296d47",
    "postalCode": 3882259230,
    "address": "167 Portal Street, Lodoga, California, 9915",
    "city": "Century",
    "state": "Minnesota"
  },
  {
    "_id": "62d79bec830752593480b2f3",
    "postalCode": 4473941237,
    "address": "725 Garden Place, Hampstead, Vermont, 3703",
    "city": "Heil",
    "state": "North Carolina"
  },
  {
    "_id": "62d79bec71e47565d30ae327",
    "postalCode": 3148394053,
    "address": "184 Harkness Avenue, Rivera, Northern Mariana Islands, 191",
    "city": "Richville",
    "state": "Oregon"
  },
  {
    "_id": "62d79becf446ff60fffd801b",
    "postalCode": 2495464256,
    "address": "731 Plymouth Street, Matheny, Rhode Island, 2571",
    "city": "Kaka",
    "state": "Guam"
  },
  {
    "_id": "62d79bec5993951821a3507c",
    "postalCode": 8825498615,
    "address": "949 Beaver Street, Dargan, Federated States Of Micronesia, 3228",
    "city": "Joppa",
    "state": "Ohio"
  },
  {
    "_id": "62d79becdcfca8ad1b17afe4",
    "postalCode": 8323701629,
    "address": "900 Rodney Street, Veguita, Oklahoma, 7618",
    "city": "Cliff",
    "state": "Georgia"
  },
  {
    "_id": "62d79bec465908bfbf6db9fb",
    "postalCode": 7016160672,
    "address": "718 Dinsmore Place, Kiskimere, Kansas, 7615",
    "city": "Grantville",
    "state": "Alabama"
  },
  {
    "_id": "62d79bec9b879e852fc5bc47",
    "postalCode": 6602223366,
    "address": "297 Times Placez, Bourg, Idaho, 2870",
    "city": "Moraida",
    "state": "Florida"
  },
  {
    "_id": "62d79becbed2076cade48935",
    "postalCode": 7650744989,
    "address": "995 Canarsie Road, Tioga, Wisconsin, 6611",
    "city": "Adelino",
    "state": "Illinois"
  },
  {
    "_id": "62d79bec49b6333096c635bc",
    "postalCode": 7007111283,
    "address": "582 Tech Place, Shaft, Nevada, 7658",
    "city": "Harrodsburg",
    "state": "Kentucky"
  },
  {
    "_id": "62d79bec2ac540a6a0bacd3e",
    "postalCode": 9139794452,
    "address": "408 Allen Avenue, Elbert, Maine, 5559",
    "city": "Berlin",
    "state": "Arizona"
  },
  {
    "_id": "62d79bec3ee27597b5ffc657",
    "postalCode": 7285943142,
    "address": "719 Temple Court, Eden, American Samoa, 8997",
    "city": "Lumberton",
    "state": "Tennessee"
  },
  {
    "_id": "62d79bec90ad7a22b2835379",
    "postalCode": 7997258667,
    "address": "289 Vanderveer Street, Chilton, South Carolina, 7037",
    "city": "Allendale",
    "state": "South Dakota"
  },
  {
    "_id": "62d79bec4acaebca299e7a93",
    "postalCode": 2073580110,
    "address": "319 Interborough Parkway, Fairview, Arkansas, 7500",
    "city": "Esmont",
    "state": "Connecticut"
  },
  {
    "_id": "62d79bec18a16c82dd134456",
    "postalCode": 7028821969,
    "address": "795 Varick Avenue, Gerton, Wyoming, 5932",
    "city": "Brandermill",
    "state": "Texas"
  },
  {
    "_id": "62d79becfbb96fe7aa87ed26",
    "postalCode": 8615849354,
    "address": "279 Gold Street, Nogal, New Jersey, 7270",
    "city": "Gloucester",
    "state": "Alaska"
  },
  {
    "_id": "62d79bec58a834709c4b25ea",
    "postalCode": 6861065680,
    "address": "487 Waldane Court, Leroy, North Dakota, 9212",
    "city": "Dragoon",
    "state": "Colorado"
  },
  {
    "_id": "62d79bec078da377bd2d386c",
    "postalCode": 9582641751,
    "address": "822 Clymer Street, Glendale, Marshall Islands, 1329",
    "city": "Smock",
    "state": "Virgin Islands"
  },
  {
    "_id": "62d79becdf0a834dc1cf667a",
    "postalCode": 8681160673,
    "address": "580 Lexington Avenue, Knowlton, Washington, 9465",
    "city": "Venice",
    "state": "Virginia"
  },
  {
    "_id": "62d79beca9d3db7666349535",
    "postalCode": 7196181375,
    "address": "604 Johnson Street, Fulford, West Virginia, 7185",
    "city": "Evergreen",
    "state": "Palau"
  },
  {
    "_id": "62d79bec77686b80f7756528",
    "postalCode": 7780832106,
    "address": "662 Arlington Place, Yogaville, New Hampshire, 8412",
    "city": "Albany",
    "state": "Massachusetts"
  },
  {
    "_id": "62d79becc6913c2f40f2e079",
    "postalCode": 2076668149,
    "address": "105 Woodrow Court, Oley, New Mexico, 7899",
    "city": "Advance",
    "state": "Pennsylvania"
  },
  {
    "_id": "62d79bec5b12865505335d5c",
    "postalCode": 8371259131,
    "address": "190 Channel Avenue, Kula, Missouri, 5595",
    "city": "Gasquet",
    "state": "Nebraska"
  },
  {
    "_id": "62d79becce822ae1a37cdd7c",
    "postalCode": 5658548348,
    "address": "740 Jodie Court, Glenbrook, Hawaii, 7649",
    "city": "Libertytown",
    "state": "Indiana"
  },
  {
    "_id": "62d79bec18504452870eaf2c",
    "postalCode": 4787230529,
    "address": "442 Willow Place, Richmond, District Of Columbia, 4025",
    "city": "Hiwasse",
    "state": "Iowa"
  },
  {
    "_id": "62d79becf38dc2b8cd3b8c99",
    "postalCode": 8096538947,
    "address": "956 Oakland Place, Hendersonville, Michigan, 2127",
    "city": "Brady",
    "state": "Maryland"
  },
  {
    "_id": "62d79bec7f9ecc6e738274e3",
    "postalCode": 3432963284,
    "address": "578 Arkansas Drive, Rivereno, Puerto Rico, 4029",
    "city": "Grill",
    "state": "Utah"
  },
  {
    "_id": "62d79bec8f618b4639a347f7",
    "postalCode": 4099847848,
    "address": "158 Veranda Place, Malott, Louisiana, 1808",
    "city": "Starks",
    "state": "Montana"
  },
  {
    "_id": "62d79becfa22437b067c78ba",
    "postalCode": 1165843612,
    "address": "343 Brooklyn Road, Callaghan, Delaware, 7547",
    "city": "Bloomington",
    "state": "New York"
  },
  {
    "_id": "62d79becb2e6c6e451419c01",
    "postalCode": 3934195107,
    "address": "975 Seigel Court, Bradenville, California, 7288",
    "city": "Driftwood",
    "state": "Minnesota"
  },
  {
    "_id": "62d79bec89eb2c480beaebaf",
    "postalCode": 1430724826,
    "address": "452 Sackman Street, Williamson, Vermont, 5337",
    "city": "Seymour",
    "state": "North Carolina"
  },
  {
    "_id": "62d79becc417839646c37016",
    "postalCode": 2952816546,
    "address": "538 Meserole Street, Leola, Northern Mariana Islands, 150",
    "city": "Norvelt",
    "state": "Oregon"
  },
  {
    "_id": "62d79bec0a34a6c114343255",
    "postalCode": 9742829360,
    "address": "783 Crystal Street, Coultervillle, Rhode Island, 7541",
    "city": "Belleview",
    "state": "Guam"
  },
  {
    "_id": "62d79becd409a6b4d596b8cb",
    "postalCode": 3681918492,
    "address": "555 Highland Place, Tuskahoma, Federated States Of Micronesia, 3383",
    "city": "Baker",
    "state": "Ohio"
  },
  {
    "_id": "62d79bec4e0a570d5af0dfd9",
    "postalCode": 2058504241,
    "address": "391 Perry Place, Ruckersville, Oklahoma, 7660",
    "city": "Marienthal",
    "state": "Georgia"
  },
  {
    "_id": "62d79beceb989ba56a8d6f02",
    "postalCode": 7436684050,
    "address": "287 Graham Avenue, Bynum, Kansas, 6487",
    "city": "Woodruff",
    "state": "Alabama"
  },
  {
    "_id": "62d79bec00ffce01e2cd949f",
    "postalCode": 6090449109,
    "address": "240 Bond Street, Bethany, Idaho, 1524",
    "city": "Homeland",
    "state": "Florida"
  },
  {
    "_id": "62d79becc7bfd4da3d499ef4",
    "postalCode": 2885680230,
    "address": "724 Dobbin Street, Ventress, Wisconsin, 9261",
    "city": "Lewis",
    "state": "Illinois"
  },
  {
    "_id": "62d79becb8511a2d86efba2e",
    "postalCode": 3743491231,
    "address": "955 Furman Avenue, Cannondale, Nevada, 1705",
    "city": "Floris",
    "state": "Kentucky"
  },
  {
    "_id": "62d79bec8b599c9e3fffa69b",
    "postalCode": 9692092308,
    "address": "319 Anna Court, Dowling, Maine, 1686",
    "city": "Caspar",
    "state": "Arizona"
  },
  {
    "_id": "62d79bec0db9c2e03728f5c3",
    "postalCode": 6714771407,
    "address": "339 Whitty Lane, Rockhill, American Samoa, 3708",
    "city": "Eggertsville",
    "state": "Tennessee"
  },
  {
    "_id": "62d79bec3620ca59abccb8b6",
    "postalCode": 7111772372,
    "address": "815 Coffey Street, Crenshaw, South Carolina, 7015",
    "city": "Interlochen",
    "state": "South Dakota"
  },
  {
    "_id": "62d79becaae5e924f413f91f",
    "postalCode": 3546957056,
    "address": "178 Lancaster Avenue, Silkworth, Arkansas, 4388",
    "city": "Williston",
    "state": "Connecticut"
  },
  {
    "_id": "62d79bec347fcc69e884c9d3",
    "postalCode": 7702209012,
    "address": "704 Emmons Avenue, Makena, Wyoming, 142",
    "city": "Cutter",
    "state": "Texas"
  },
  {
    "_id": "62d79becc319899dc8f920ff",
    "postalCode": 3616142553,
    "address": "923 Gem Street, Chaparrito, New Jersey, 9136",
    "city": "Zarephath",
    "state": "Alaska"
  },
  {
    "_id": "62d79bec93bb28cab824bd2a",
    "postalCode": 9693679249,
    "address": "112 Remsen Avenue, Worcester, North Dakota, 1313",
    "city": "Bordelonville",
    "state": "Colorado"
  },
  {
    "_id": "62d79becd036ef9b26c6b0de",
    "postalCode": 2183067727,
    "address": "764 Conway Street, Dyckesville, Marshall Islands, 2579",
    "city": "Tecolotito",
    "state": "Virgin Islands"
  },
  {
    "_id": "62d79beceb5915de88aa4131",
    "postalCode": 1490554975,
    "address": "144 Pine Street, Jessie, Washington, 3739",
    "city": "Deseret",
    "state": "Virginia"
  },
  {
    "_id": "62d79bec7175b7c2b394f470",
    "postalCode": 8290734520,
    "address": "726 Clarendon Road, Enetai, West Virginia, 1412",
    "city": "Kansas",
    "state": "Palau"
  },
  {
    "_id": "62d79becbda289e6fb803be8",
    "postalCode": 8866562027,
    "address": "266 Richards Street, Bancroft, New Hampshire, 2797",
    "city": "Rote",
    "state": "Massachusetts"
  },
  {
    "_id": "62d79bec5b05f937e40e8b1b",
    "postalCode": 8256397689,
    "address": "271 Henry Street, Townsend, New Mexico, 6982",
    "city": "Shasta",
    "state": "Pennsylvania"
  },
  {
    "_id": "62d79bec17c837457aaad259",
    "postalCode": 9928295554,
    "address": "540 Indiana Place, Ferney, Missouri, 7317",
    "city": "Wattsville",
    "state": "Nebraska"
  },
  {
    "_id": "62d79beceff6d31afc4f128c",
    "postalCode": 7675146513,
    "address": "594 Glenmore Avenue, Tilden, Hawaii, 8347",
    "city": "Wright",
    "state": "Indiana"
  },
  {
    "_id": "62d79bec3556e5bcc69266f4",
    "postalCode": 3730805652,
    "address": "654 Grand Street, Marshall, District Of Columbia, 3196",
    "city": "Islandia",
    "state": "Iowa"
  },
  {
    "_id": "62d79beca59c3572ec9ff865",
    "postalCode": 7700049664,
    "address": "357 Cobek Court, Vicksburg, Michigan, 4470",
    "city": "Topaz",
    "state": "Maryland"
  },
  {
    "_id": "62d79bec72f07b4d4b9ac174",
    "postalCode": 8444167146,
    "address": "259 Vine Street, Wheatfields, Puerto Rico, 8235",
    "city": "Stewartville",
    "state": "Utah"
  },
  {
    "_id": "62d79bec4f1fb1aefb47b9af",
    "postalCode": 8267802739,
    "address": "685 Bradford Street, Coaldale, Louisiana, 7561",
    "city": "Highland",
    "state": "Montana"
  },
  {
    "_id": "62d79bec435cefda2ba317fd",
    "postalCode": 2022304754,
    "address": "243 Randolph Street, Farmers, Delaware, 2610",
    "city": "Ballico",
    "state": "New York"
  },
  {
    "_id": "62d79bec1fd10cd1581145d8",
    "postalCode": 1180286761,
    "address": "490 Frank Court, Independence, California, 3246",
    "city": "Enoree",
    "state": "Minnesota"
  },
  {
    "_id": "62d79bec0100823e75188184",
    "postalCode": 9834850349,
    "address": "224 Hunterfly Place, Sharon, Vermont, 4876",
    "city": "Springhill",
    "state": "North Carolina"
  },
  {
    "_id": "62d79bec6d755f71b6c3e20e",
    "postalCode": 1208795872,
    "address": "810 Branton Street, Watrous, Northern Mariana Islands, 295",
    "city": "Elliston",
    "state": "Oregon"
  },
  {
    "_id": "62d79beca314774512e9dd40",
    "postalCode": 4403447118,
    "address": "296 Roosevelt Place, Byrnedale, Rhode Island, 299",
    "city": "Bath",
    "state": "Guam"
  },
  {
    "_id": "62d79bec1be2c8b67fc5d148",
    "postalCode": 5013794083,
    "address": "789 Townsend Street, Onton, Federated States Of Micronesia, 4965",
    "city": "Waterford",
    "state": "Ohio"
  },
  {
    "_id": "62d79bec1dbb7203466625b7",
    "postalCode": 4405653844,
    "address": "232 Crown Street, Ryderwood, Oklahoma, 1447",
    "city": "Roulette",
    "state": "Georgia"
  },
  {
    "_id": "62d79bec3c056ce948dc6535",
    "postalCode": 7421743413,
    "address": "416 Middagh Street, Blende, Kansas, 8856",
    "city": "Romeville",
    "state": "Alabama"
  },
  {
    "_id": "62d79becbad943106b569927",
    "postalCode": 5455555533,
    "address": "324 Stuart Street, Rosewood, Idaho, 5573",
    "city": "Chapin",
    "state": "Florida"
  },
  {
    "_id": "62d79becded75dac573620ec",
    "postalCode": 9311168234,
    "address": "139 Dumont Avenue, Brownsville, Wisconsin, 3136",
    "city": "Frizzleburg",
    "state": "Illinois"
  },
  {
    "_id": "62d79becb6e2f4c2f7e3f2da",
    "postalCode": 5296618151,
    "address": "109 Jaffray Street, Staples, Nevada, 4034",
    "city": "Eureka",
    "state": "Kentucky"
  },
  {
    "_id": "62d79bec29c0aaf19a72a0da",
    "postalCode": 1740175220,
    "address": "390 Borinquen Pl, Suitland, Maine, 4725",
    "city": "Gordon",
    "state": "Arizona"
  },
  {
    "_id": "62d79becf651c5b2a60a1abe",
    "postalCode": 4731289896,
    "address": "938 Woodruff Avenue, Summertown, American Samoa, 4890",
    "city": "Edenburg",
    "state": "Tennessee"
  },
  {
    "_id": "62d79bec50a619343a7a6588",
    "postalCode": 9769863513,
    "address": "859 Seaview Avenue, Carrsville, South Carolina, 1514",
    "city": "Bethpage",
    "state": "South Dakota"
  },
  {
    "_id": "62d79beca875d3453f43dab7",
    "postalCode": 5856858682,
    "address": "413 Everit Street, Foscoe, Arkansas, 849",
    "city": "Diaperville",
    "state": "Connecticut"
  },
  {
    "_id": "62d79bec72522af697842b7e",
    "postalCode": 3529228449,
    "address": "607 Schweikerts Walk, Machias, Wyoming, 2089",
    "city": "Waikele",
    "state": "Texas"
  },
  {
    "_id": "62d79becfabe3f96ccbf6028",
    "postalCode": 1431091804,
    "address": "420 Bath Avenue, Matthews, New Jersey, 4227",
    "city": "Connerton",
    "state": "Alaska"
  },
  {
    "_id": "62d79bec4bd972630a7b3598",
    "postalCode": 4559442189,
    "address": "791 Corbin Place, Bonanza, North Dakota, 4989",
    "city": "Nicut",
    "state": "Colorado"
  },
  {
    "_id": "62d79bec78fb0d34114bbbf4",
    "postalCode": 4052671729,
    "address": "401 Bethel Loop, Crumpler, Marshall Islands, 2956",
    "city": "Iola",
    "state": "Virgin Islands"
  },
  {
    "_id": "62d79bec22852acde47e3977",
    "postalCode": 3073509244,
    "address": "780 Lacon Court, Ribera, Washington, 8355",
    "city": "Longbranch",
    "state": "Virginia"
  },
  {
    "_id": "62d79bec4bcb7c35d68aa529",
    "postalCode": 8247934427,
    "address": "966 Campus Place, Gallina, West Virginia, 7937",
    "city": "Sperryville",
    "state": "Palau"
  },
  {
    "_id": "62d79becad23ae0978c4c940",
    "postalCode": 4935310320,
    "address": "988 Celeste Court, Coventry, New Hampshire, 8014",
    "city": "Blanco",
    "state": "Massachusetts"
  },
  {
    "_id": "62d79bec47d2bbccc82f44a0",
    "postalCode": 6755436805,
    "address": "192 Vandalia Avenue, Whitmer, New Mexico, 5816",
    "city": "Valle",
    "state": "Pennsylvania"
  },
  {
    "_id": "62d79becb2bc4b23eb0db42c",
    "postalCode": 6503861154,
    "address": "346 Underhill Avenue, Chelsea, Missouri, 6685",
    "city": "Cucumber",
    "state": "Nebraska"
  },
  {
    "_id": "62d79becbd21adfe84688357",
    "postalCode": 1246555270,
    "address": "231 Rock Street, Garfield, Hawaii, 869",
    "city": "Barrelville",
    "state": "Indiana"
  },
  {
    "_id": "62d79beca54b17c57237cd5a",
    "postalCode": 5008292204,
    "address": "981 Sunnyside Court, Balm, District Of Columbia, 5746",
    "city": "Fidelis",
    "state": "Iowa"
  },
  {
    "_id": "62d79bece4e270c6a6b72422",
    "postalCode": 2171280218,
    "address": "539 Monroe Street, Greenock, Michigan, 8116",
    "city": "Indio",
    "state": "Maryland"
  },
  {
    "_id": "62d79bec4f12fb4f1de2e3e8",
    "postalCode": 8177804598,
    "address": "634 Guernsey Street, Saranap, Puerto Rico, 9713",
    "city": "Allamuchy",
    "state": "Utah"
  },
  {
    "_id": "62d79bec2727daaba41ede27",
    "postalCode": 4308797013,
    "address": "677 Fleet Walk, Greer, Louisiana, 836",
    "city": "Jardine",
    "state": "Montana"
  },
  {
    "_id": "62d79becd047e1ae10b4d4a3",
    "postalCode": 9328272588,
    "address": "716 Royce Street, Defiance, Delaware, 9184",
    "city": "Gilmore",
    "state": "New York"
  },
  {
    "_id": "62d79bece08e549abd1af3e0",
    "postalCode": 8944162825,
    "address": "214 Burnett Street, Grazierville, California, 348",
    "city": "Torboy",
    "state": "Minnesota"
  },
  {
    "_id": "62d79becd8e0d7dbf0c9cb53",
    "postalCode": 5551176144,
    "address": "494 Johnson Avenue, Oberlin, Vermont, 4516",
    "city": "Mulino",
    "state": "North Carolina"
  },
  {
    "_id": "62d79bec0c69632b855c0d4a",
    "postalCode": 9089592881,
    "address": "477 Blake Avenue, Trail, Northern Mariana Islands, 7327",
    "city": "Vandiver",
    "state": "Oregon"
  },
  {
    "_id": "62d79becce328b09c27fd9b9",
    "postalCode": 4411993532,
    "address": "860 Garnet Street, Lindisfarne, Rhode Island, 8312",
    "city": "Dubois",
    "state": "Guam"
  },
  {
    "_id": "62d79becd45892171b7d2c6c",
    "postalCode": 1892135109,
    "address": "171 Stone Avenue, Imperial, Federated States Of Micronesia, 430",
    "city": "Weogufka",
    "state": "Ohio"
  },
  {
    "_id": "62d79bec574193caa7ff2754",
    "postalCode": 6595017667,
    "address": "472 Bryant Street, Nipinnawasee, Oklahoma, 9742",
    "city": "Fostoria",
    "state": "Georgia"
  },
  {
    "_id": "62d79bec7a92255357bd4ffe",
    "postalCode": 9281179608,
    "address": "590 Calder Place, Ola, Kansas, 7551",
    "city": "Shindler",
    "state": "Alabama"
  },
  {
    "_id": "62d79bec7255baf9533f9d2b",
    "postalCode": 7665951180,
    "address": "245 Apollo Street, Homestead, Idaho, 3121",
    "city": "Watchtower",
    "state": "Florida"
  },
  {
    "_id": "62d79becf033cd70329515c1",
    "postalCode": 6305827350,
    "address": "814 Aitken Place, Konterra, Wisconsin, 5218",
    "city": "Titanic",
    "state": "Illinois"
  },
  {
    "_id": "62d79bec896f528e04934c0b",
    "postalCode": 9249043518,
    "address": "794 Wogan Terrace, Gilgo, Nevada, 2369",
    "city": "Caroline",
    "state": "Kentucky"
  },
  {
    "_id": "62d79becdb2622ccd3cd5199",
    "postalCode": 4337071709,
    "address": "494 Court Street, Twilight, Maine, 2910",
    "city": "Cumminsville",
    "state": "Arizona"
  },
  {
    "_id": "62d79bec03e5fa85cf11df3f",
    "postalCode": 4411506218,
    "address": "360 Benson Avenue, Sunnyside, American Samoa, 8636",
    "city": "Jugtown",
    "state": "Tennessee"
  },
  {
    "_id": "62d79becb385c758cee28a41",
    "postalCode": 3480717434,
    "address": "617 Livonia Avenue, Sanborn, South Carolina, 2083",
    "city": "Jamestown",
    "state": "South Dakota"
  },
  {
    "_id": "62d79bec036583008b6dc3e5",
    "postalCode": 4635410146,
    "address": "355 Hamilton Walk, Spelter, Arkansas, 4915",
    "city": "Boonville",
    "state": "Connecticut"
  },
  {
    "_id": "62d79bec421b7df44dbc6aa2",
    "postalCode": 1680468036,
    "address": "242 Kossuth Place, Chase, Wyoming, 4978",
    "city": "Alafaya",
    "state": "Texas"
  },
  {
    "_id": "62d79bec367050c384fe5ffd",
    "postalCode": 3586773768,
    "address": "862 Clara Street, Frank, New Jersey, 6596",
    "city": "Robinette",
    "state": "Alaska"
  },
  {
    "_id": "62d79bec799f9e1fbdbcc2b3",
    "postalCode": 5758821714,
    "address": "184 Bassett Avenue, Fairmount, North Dakota, 724",
    "city": "Cochranville",
    "state": "Colorado"
  },
  {
    "_id": "62d79bececb73dc70cecf0b5",
    "postalCode": 8278052151,
    "address": "687 Terrace Place, Deltaville, Marshall Islands, 2440",
    "city": "Muir",
    "state": "Virgin Islands"
  },
  {
    "_id": "62d79bec8737bbab79f1a1dc",
    "postalCode": 9847936551,
    "address": "190 Pierrepont Street, Riverton, Washington, 4450",
    "city": "Idamay",
    "state": "Virginia"
  },
  {
    "_id": "62d79becb00f59e761418815",
    "postalCode": 1994297577,
    "address": "950 Trucklemans Lane, Drytown, West Virginia, 5902",
    "city": "Allensworth",
    "state": "Palau"
  },
  {
    "_id": "62d79bec20335a864376e503",
    "postalCode": 5516180784,
    "address": "102 Kenmore Court, Genoa, New Hampshire, 3304",
    "city": "Newry",
    "state": "Massachusetts"
  },
  {
    "_id": "62d79becf6e73852c784656b",
    "postalCode": 6385497272,
    "address": "923 Hendrix Street, Columbus, New Mexico, 7978",
    "city": "Emory",
    "state": "Pennsylvania"
  },
  {
    "_id": "62d79bec999eec968f533517",
    "postalCode": 2501827119,
    "address": "896 McDonald Avenue, Lookingglass, Missouri, 1148",
    "city": "Teasdale",
    "state": "Nebraska"
  },
  {
    "_id": "62d79bec8eb9708b98c90900",
    "postalCode": 3655949972,
    "address": "645 Blake Court, Caln, Hawaii, 3400",
    "city": "Chesapeake",
    "state": "Indiana"
  },
  {
    "_id": "62d79bec7045bc1caa6927a1",
    "postalCode": 9967673885,
    "address": "428 Cheever Place, Newcastle, District Of Columbia, 4609",
    "city": "Snowville",
    "state": "Iowa"
  },
  {
    "_id": "62d79bec686058077930a821",
    "postalCode": 6152401694,
    "address": "136 Dahl Court, Welda, Michigan, 3847",
    "city": "Conway",
    "state": "Maryland"
  },
  {
    "_id": "62d79bec8da5f2be406c67f7",
    "postalCode": 1326748014,
    "address": "408 Fay Court, Glenville, Puerto Rico, 9213",
    "city": "Washington",
    "state": "Utah"
  },
  {
    "_id": "62d79bec0677eba3b0cb771e",
    "postalCode": 8904374548,
    "address": "949 Jefferson Street, Cavalero, Louisiana, 340",
    "city": "Munjor",
    "state": "Montana"
  },
  {
    "_id": "62d79bec8de1194b5886db15",
    "postalCode": 3487410016,
    "address": "716 Hopkins Street, Devon, Delaware, 6426",
    "city": "Turah",
    "state": "New York"
  },
  {
    "_id": "62d79bec4c9037d71f93135f",
    "postalCode": 5087463422,
    "address": "145 Tilden Avenue, Dexter, California, 962",
    "city": "Blue",
    "state": "Minnesota"
  },
  {
    "_id": "62d79beccebbea315acea5ea",
    "postalCode": 4060785612,
    "address": "716 Kingsway Place, Savage, Vermont, 7618",
    "city": "Leming",
    "state": "North Carolina"
  },
  {
    "_id": "62d79becec9c874ea82f508d",
    "postalCode": 3060821333,
    "address": "682 Ridgewood Avenue, Warren, Northern Mariana Islands, 2048",
    "city": "Chalfant",
    "state": "Oregon"
  },
  {
    "_id": "62d79becca4cd5df71c9cfff",
    "postalCode": 8467156998,
    "address": "685 Dwight Street, Rockbridge, Rhode Island, 5949",
    "city": "Calverton",
    "state": "Guam"
  },
  {
    "_id": "62d79becb170837eaa60c13f",
    "postalCode": 4625262876,
    "address": "429 Buffalo Avenue, Lisco, Federated States Of Micronesia, 990",
    "city": "Cornucopia",
    "state": "Ohio"
  },
  {
    "_id": "62d79bec61660caa2a18d3f7",
    "postalCode": 6069068973,
    "address": "858 Chapel Street, Brethren, Oklahoma, 314",
    "city": "Falmouth",
    "state": "Georgia"
  },
  {
    "_id": "62d79bec9d35a13811c660f2",
    "postalCode": 6552198505,
    "address": "552 Dupont Street, Richford, Kansas, 1734",
    "city": "Hachita",
    "state": "Alabama"
  }
]